{
"type": "FeatureCollection",
"name": "group_TPBelgique",
"crs": { "type": "name", "properties": { "name": "urn:ogc:def:crs:OGC:1.3:CRS84" } },
"features": [
{ "type": "Feature", "properties": { "OWNERID__R.NAME": "Lieve Van Den Bossche", "OWNERID__R.MANAGER.NAME": "Philippe Ramm", "OWNERID__R.DIVISION": "BELGIQUE", "PAYS__C": "Belgique" }, "geometry": { "type": "MultiPolygon", "coordinates": [ [ [ [ 5.692388, 50.7603 ], [ 5.773426, 50.78496 ], [ 5.813358, 50.76006 ], [ 5.896134, 50.75959 ], [ 5.887114, 50.71196 ], [ 5.805278, 50.71798 ], [ 5.720388, 50.74086 ], [ 5.692388, 50.7603 ] ] ], [ [ [ 2.599186, 50.8533 ], [ 2.605576, 50.91295 ], [ 2.630098, 50.9458 ], [ 2.611542, 50.98026 ], [ 2.580019, 51.00296 ], [ 2.570624, 51.04453 ], [ 2.555356, 51.09192 ], [ 2.616756, 51.1146 ], [ 2.725465, 51.15401 ], [ 2.754967, 51.16374 ], [ 2.84432, 51.20125 ], [ 2.944713, 51.24375 ], [ 2.990282, 51.26208 ], [ 3.129103, 51.31681 ], [ 3.171384, 51.3271 ], [ 3.226912, 51.34147 ], [ 3.360801, 51.36764 ], [ 3.387015, 51.33064 ], [ 3.375176, 51.29971 ], [ 3.398948, 51.27019 ], [ 3.484636, 51.246 ], [ 3.513951, 51.28894 ], [ 3.591841, 51.30761 ], [ 3.694301, 51.28324 ], [ 3.799298, 51.25763 ], [ 3.78901, 51.22499 ], [ 3.850035, 51.21024 ], [ 3.912234, 51.20428 ], [ 3.982373, 51.22959 ], [ 4.073135, 51.25481 ], [ 4.150791, 51.29001 ], [ 4.232533, 51.35568 ], [ 4.221164, 51.37613 ], [ 4.337436, 51.38126 ], [ 4.356227, 51.36096 ], [ 4.393199, 51.36013 ], [ 4.424581, 51.38601 ], [ 4.39334, 51.42791 ], [ 4.408984, 51.4588 ], [ 4.478653, 51.481 ], [ 4.537047, 51.45584 ], [ 4.536108, 51.42699 ], [ 4.679016, 51.42957 ], [ 4.752115, 51.49753 ], [ 4.838602, 51.47981 ], [ 4.829206, 51.43963 ], [ 4.85434, 51.41195 ], [ 4.883936, 51.41554 ], [ 4.920157, 51.40094 ], [ 4.942284, 51.40052 ], [ 5.00655, 51.4391 ], [ 5.022382, 51.47569 ], [ 5.082091, 51.46691 ], [ 5.0975, 51.42854 ], [ 5.076078, 51.39491 ], [ 5.122399, 51.36013 ], [ 5.143868, 51.31606 ], [ 5.209967, 51.32354 ], [ 5.245764, 51.30526 ], [ 5.23961, 51.26232 ], [ 5.411269, 51.26289 ], [ 5.4551, 51.28146 ], [ 5.489489, 51.29737 ], [ 5.551453, 51.26654 ], [ 5.560144, 51.22944 ], [ 5.654477, 51.18965 ], [ 5.684214, 51.18374 ], [ 5.749232, 51.19006 ], [ 5.858739, 51.14596 ], [ 5.815848, 51.11549 ], [ 5.800063, 51.07332 ], [ 5.764078, 51.0375 ], [ 5.766802, 51.00162 ], [ 5.757313, 50.95304 ], [ 5.711227, 50.90817 ], [ 5.651987, 50.8725 ], [ 5.651188, 50.83312 ], [ 5.690979, 50.80923 ], [ 5.621686, 50.77273 ], [ 5.552252, 50.76208 ], [ 5.532239, 50.73967 ], [ 5.494609, 50.72593 ], [ 5.485871, 50.72469 ], [ 5.435886, 50.71264 ], [ 5.409578, 50.72953 ], [ 5.404739, 50.74519 ], [ 5.314306, 50.71985 ], [ 5.229463, 50.72205 ], [ 5.174028, 50.70101 ], [ 5.155237, 50.69208 ], [ 5.117466, 50.71783 ], [ 5.053294, 50.72243 ], [ 5.025717, 50.7476 ], [ 4.989168, 50.76434 ], [ 4.98043, 50.76306 ], [ 4.927485, 50.74588 ], [ 4.86989, 50.743 ], [ 4.841139, 50.76374 ], [ 4.804731, 50.78908 ], [ 4.793973, 50.796 ], [ 4.709036, 50.78701 ], [ 4.695976, 50.7871 ], [ 4.64444, 50.79137 ], [ 4.625978, 50.7495 ], [ 4.593046, 50.75852 ], [ 4.571483, 50.74238 ], [ 4.495237, 50.72941 ], [ 4.485089, 50.75324 ], [ 4.434916, 50.72926 ], [ 4.421293, 50.73395 ], [ 4.36116, 50.70763 ], [ 4.331564, 50.72923 ], [ 4.316014, 50.71211 ], [ 4.303752, 50.69641 ], [ 4.234882, 50.69151 ], [ 4.150462, 50.71958 ], [ 4.13665, 50.72116 ], [ 4.107617, 50.70994 ], [ 4.079148, 50.70709 ], [ 3.978286, 50.68697 ], [ 3.965273, 50.68285 ], [ 3.907489, 50.68706 ], [ 3.884, 50.73691 ], [ 3.8086, 50.74327 ], [ 3.780929, 50.74398 ], [ 3.70318, 50.7657 ], [ 3.675886, 50.76647 ], [ 3.647651, 50.72282 ], [ 3.546742, 50.73632 ], [ 3.559238, 50.75327 ], [ 3.466925, 50.76656 ], [ 3.451798, 50.7511 ], [ 3.401343, 50.73252 ], [ 3.365781, 50.71193 ], [ 3.331017, 50.7216 ], [ 3.319366, 50.72662 ], [ 3.301514, 50.75564 ], [ 3.217, 50.75997 ], [ 3.181484, 50.75196 ], [ 3.147143, 50.78992 ], [ 3.09791, 50.77843 ], [ 3.036697, 50.77155 ], [ 3.006865, 50.80461 ], [ 2.964585, 50.799 ], [ 2.953733, 50.79754 ], [ 2.925029, 50.7625 ], [ 2.866964, 50.75715 ], [ 2.871286, 50.70314 ], [ 2.813267, 50.71694 ], [ 2.738525, 50.7806 ], [ 2.716445, 50.81223 ], [ 2.634984, 50.81277 ], [ 2.599186, 50.8533 ] ], [ [ 4.304316, 50.88031 ], [ 4.294968, 50.8755 ], [ 4.281156, 50.86586 ], [ 4.286981, 50.8555 ], [ 4.285196, 50.84514 ], [ 4.248271, 50.81912 ], [ 4.279418, 50.80906 ], [ 4.298867, 50.80716 ], [ 4.327758, 50.83205 ], [ 4.348711, 50.82158 ], [ 4.343026, 50.81618 ], [ 4.308403, 50.80069 ], [ 4.320195, 50.79042 ], [ 4.321041, 50.77606 ], [ 4.365811, 50.77259 ], [ 4.403394, 50.7744 ], [ 4.419413, 50.7741 ], [ 4.454506, 50.78291 ], [ 4.461553, 50.78971 ], [ 4.448305, 50.81737 ], [ 4.456338, 50.81929 ], [ 4.453332, 50.84775 ], [ 4.431863, 50.86028 ], [ 4.423876, 50.8612 ], [ 4.42538, 50.87277 ], [ 4.430829, 50.89129 ], [ 4.421856, 50.90972 ], [ 4.363321, 50.89986 ], [ 4.327524, 50.89621 ], [ 4.323389, 50.8944 ], [ 4.30441, 50.89479 ], [ 4.304316, 50.88031 ] ] ] ] } },
{ "type": "Feature", "properties": { "OWNERID__R.NAME": "Philippe Ramm", "OWNERID__R.MANAGER.NAME": "Cécile Muzard", "OWNERID__R.DIVISION": "BELGIQUE", "PAYS__C": "Belgique" }, "geometry": { "type": "MultiPolygon", "coordinates": [ [ [ [ 3.66742938, 50.38243945 ], [ 3.67048298, 50.42701225 ], [ 3.64356433, 50.46327588 ], [ 3.61612891, 50.49075552 ], [ 3.52146734, 50.49461335 ], [ 3.51578295, 50.52470444 ], [ 3.45799946, 50.52227104 ], [ 3.37729048, 50.49099292 ], [ 3.33519779, 50.507819 ], [ 3.28652812, 50.52758298 ], [ 3.28018603, 50.55429105 ], [ 3.27830689, 50.59420478 ], [ 3.24382471, 50.65776999 ], [ 3.24969702, 50.70836694 ], [ 3.2109398, 50.71275894 ], [ 3.18148431, 50.75196045 ], [ 3.21700002, 50.75997287 ], [ 3.30151425, 50.75564023 ], [ 3.31936606, 50.72661746 ], [ 3.33101671, 50.72160228 ], [ 3.36578076, 50.71192802 ], [ 3.40134345, 50.73252291 ], [ 3.4517983, 50.75109986 ], [ 3.46692536, 50.76656086 ], [ 3.55923801, 50.75326618 ], [ 3.54674175, 50.73632139 ], [ 3.64765145, 50.72281898 ], [ 3.6758855, 50.76647184 ], [ 3.70317998, 50.76570027 ], [ 3.78092931, 50.7439777 ], [ 3.80859962, 50.74326549 ], [ 3.88400003, 50.7369149 ], [ 3.90748925, 50.68705984 ], [ 3.96527274, 50.6828459 ], [ 3.97828577, 50.68697081 ], [ 4.0791485, 50.70709089 ], [ 4.10761744, 50.70993975 ], [ 4.13665012, 50.72115714 ], [ 4.15046179, 50.71958433 ], [ 4.23488206, 50.69151118 ], [ 4.30375246, 50.69640766 ], [ 4.31601384, 50.71210607 ], [ 4.33156371, 50.72922891 ], [ 4.36116013, 50.70762505 ], [ 4.42129254, 50.73394734 ], [ 4.43491629, 50.72925859 ], [ 4.48508928, 50.7532365 ], [ 4.49523662, 50.72940697 ], [ 4.57148264, 50.74237522 ], [ 4.59304575, 50.75851877 ], [ 4.62597764, 50.74949737 ], [ 4.64444017, 50.79136969 ], [ 4.69597553, 50.7870964 ], [ 4.70903554, 50.78700737 ], [ 4.79397257, 50.79599909 ], [ 4.80473064, 50.78908467 ], [ 4.84113894, 50.76374168 ], [ 4.86988975, 50.74299841 ], [ 4.92748533, 50.74587695 ], [ 4.98043004, 50.76305914 ], [ 4.98916803, 50.76433519 ], [ 5.02571726, 50.74759813 ], [ 5.05329361, 50.72243319 ], [ 5.11746617, 50.71783347 ], [ 5.15523684, 50.69207502 ], [ 5.17402822, 50.70100739 ], [ 5.22946279, 50.72204741 ], [ 5.31430587, 50.71985141 ], [ 5.40473938, 50.74519441 ], [ 5.40957816, 50.72952567 ], [ 5.43588609, 50.71264023 ], [ 5.48587116, 50.72468854 ], [ 5.49460915, 50.72593492 ], [ 5.53223889, 50.73967474 ], [ 5.55225171, 50.76207984 ], [ 5.62168586, 50.77273339 ], [ 5.69097907, 50.80923442 ], [ 5.70258275, 50.79849185 ], [ 5.69238842, 50.7602993 ], [ 5.72038758, 50.74086176 ], [ 5.80527763, 50.71798185 ], [ 5.88711409, 50.71195769 ], [ 5.89613395, 50.75958709 ], [ 6.0132982, 50.75231656 ], [ 6.05059909, 50.72005914 ], [ 6.11871784, 50.70875273 ], [ 6.19759466, 50.63115094 ], [ 6.22864741, 50.62429587 ], [ 6.27839759, 50.61637248 ], [ 6.1733068, 50.55354916 ], [ 6.21009092, 50.51719651 ], [ 6.30193379, 50.49870859 ], [ 6.37465643, 50.44594531 ], [ 6.33975144, 50.37991702 ], [ 6.40833998, 50.33305919 ], [ 6.35647577, 50.31293911 ], [ 6.30165192, 50.31299846 ], [ 6.29075292, 50.29896189 ], [ 6.27567284, 50.2654581 ], [ 6.20280927, 50.25480454 ], [ 6.17372961, 50.22815583 ], [ 6.1896553, 50.1894588 ], [ 6.07079983, 50.15642982 ], [ 6.02649915, 50.17767757 ], [ 5.96763515, 50.1708225 ], [ 5.95415234, 50.13470725 ], [ 5.89989223, 50.10209373 ], [ 5.85958472, 50.05873763 ], [ 5.84323622, 49.98710065 ], [ 5.78098978, 49.95968036 ], [ 5.74425263, 49.90210963 ], [ 5.78611043, 49.88285014 ], [ 5.75336645, 49.84851543 ], [ 5.76849351, 49.79637534 ], [ 5.7942377, 49.78922351 ], [ 5.83196139, 49.72637052 ], [ 5.86907437, 49.72720144 ], [ 5.87893984, 49.67782118 ], [ 5.91248245, 49.66615866 ], [ 5.87067163, 49.61381084 ], [ 5.85291378, 49.59372043 ], [ 5.87442991, 49.57674597 ], [ 5.81288814, 49.54799028 ], [ 5.71230728, 49.54033397 ], [ 5.66081891, 49.5523526 ], [ 5.62511528, 49.5348143 ], [ 5.53242681, 49.51297303 ], [ 5.48483764, 49.5066818 ], [ 5.45063733, 49.5606321 ], [ 5.40210859, 49.61143679 ], [ 5.34686193, 49.63084465 ], [ 5.26836095, 49.695953 ], [ 5.1662298, 49.69292608 ], [ 5.15270001, 49.71740848 ], [ 5.06903139, 49.76156582 ], [ 4.97183298, 49.80038155 ], [ 4.93143151, 49.78670109 ], [ 4.85537341, 49.79495091 ], [ 4.87364802, 49.81898818 ], [ 4.85156815, 49.86270039 ], [ 4.88487587, 49.91032978 ], [ 4.84517908, 49.94893778 ], [ 4.79091898, 49.95840431 ], [ 4.83977656, 50.04096192 ], [ 4.84019937, 50.09298331 ], [ 4.87242658, 50.09215239 ], [ 4.87966126, 50.14740842 ], [ 4.85894377, 50.15402609 ], [ 4.77640263, 50.14043465 ], [ 4.7150018, 50.09960098 ], [ 4.68615704, 50.0049357 ], [ 4.59887108, 49.986062 ], [ 4.51130325, 49.94680113 ], [ 4.45088897, 49.93864033 ], [ 4.30544369, 49.96745538 ], [ 4.19739326, 49.95448712 ], [ 4.15417309, 49.97511169 ], [ 4.1373548, 50.02179146 ], [ 4.21167471, 50.06031044 ], [ 4.20298369, 50.10568448 ], [ 4.15323352, 50.16037668 ], [ 4.17648785, 50.22521794 ], [ 4.21031233, 50.26723864 ], [ 4.11837551, 50.30225588 ], [ 4.03522365, 50.34579004 ], [ 3.87502714, 50.33893497 ], [ 3.83636388, 50.35341668 ], [ 3.81879394, 50.34564166 ], [ 3.74273583, 50.34807506 ], [ 3.71046164, 50.30317583 ], [ 3.67367751, 50.33492876 ], [ 3.66742938, 50.38243945 ] ] ], [ [ [ 2.92502896, 50.7624953 ], [ 2.95373279, 50.79754222 ], [ 2.96458481, 50.79899633 ], [ 3.00686542, 50.80460503 ], [ 3.03669673, 50.77154637 ], [ 2.93766616, 50.74255327 ], [ 2.90994888, 50.69436004 ], [ 2.87128561, 50.70314403 ], [ 2.8669636, 50.75715369 ], [ 2.92502896, 50.7624953 ] ] ], [ [ [ 4.30840333, 50.80068784 ], [ 4.34302645, 50.81617852 ], [ 4.34871084, 50.82157949 ], [ 4.32775845, 50.83205499 ], [ 4.29886671, 50.80715713 ], [ 4.27941763, 50.80905637 ], [ 4.24827092, 50.81911641 ], [ 4.28519598, 50.84514194 ], [ 4.28698116, 50.85549874 ], [ 4.28115583, 50.86585554 ], [ 4.2949675, 50.87550012 ], [ 4.30431621, 50.88030757 ], [ 4.30441016, 50.89478928 ], [ 4.32338946, 50.8944035 ], [ 4.32752356, 50.89621371 ], [ 4.36332114, 50.89986381 ], [ 4.42185628, 50.90971612 ], [ 4.43082917, 50.89128755 ], [ 4.42537967, 50.87276996 ], [ 4.42387636, 50.86119646 ], [ 4.43186269, 50.86027652 ], [ 4.45333184, 50.8477534 ], [ 4.45633847, 50.81929446 ], [ 4.44830515, 50.81736555 ], [ 4.46155307, 50.78970786 ], [ 4.45450631, 50.78291214 ], [ 4.41941341, 50.77409847 ], [ 4.40339375, 50.77439523 ], [ 4.365811, 50.77258502 ], [ 4.32104053, 50.77605707 ], [ 4.32019492, 50.79042007 ], [ 4.30840333, 50.80068784 ] ] ] ] } }
]
}
