{
"type": "FeatureCollection",
"name": "group_TPFinlande",
"crs": { "type": "name", "properties": { "name": "urn:ogc:def:crs:OGC:1.3:CRS84" } },
"features": [
{ "type": "Feature", "properties": { "OWNERID__R.NAME": "Elina Joensuu", "OWNERID__R.MANAGER.NAME": "Mikael Liespuu", "OWNERID__R.DIVISION": "FINLANDE", "PAYS__C": "Finlande" }, "geometry": { "type": "MultiPolygon", "coordinates": [ [ [ [ 21.539583000000107, 60.108334000000127 ], [ 21.485937000000149, 60.136978000000113 ], [ 21.589582, 60.185417 ], [ 21.685417, 60.179165000000182 ], [ 21.66198, 60.134899 ], [ 21.685417, 60.104168 ], [ 21.539583000000107, 60.108334000000127 ] ] ], [ [ [ 21.781250000000171, 60.214584000000116 ], [ 21.885937000000126, 60.209896000000185 ], [ 21.922396000000163, 60.152607000000103 ], [ 21.841667, 60.114582 ], [ 21.702084, 60.131248000000141 ], [ 21.731771, 60.201565 ], [ 21.781250000000171, 60.214584000000116 ] ] ], [ [ [ 21.970833, 60.197918000000129 ], [ 22.098757, 60.212502000000143 ], [ 22.027082, 60.150002 ], [ 21.961979, 60.15781 ], [ 21.970833, 60.197918000000129 ] ] ], [ [ [ 21.384895000000142, 60.222393000000181 ], [ 21.397917, 60.179165000000182 ], [ 21.273438000000112, 60.211979 ], [ 21.316668000000107, 60.250000000000171 ], [ 21.423437, 60.260941 ], [ 21.384895000000142, 60.222393000000181 ] ] ], [ [ [ 22.412500000000136, 60.247917000000143 ], [ 22.329166000000157, 60.237499000000184 ], [ 22.22448, 60.190102 ], [ 22.08802, 60.285934000000111 ], [ 22.108334, 60.327084000000127 ], [ 22.263021, 60.331772 ], [ 22.33541700000012, 60.360416 ], [ 22.429167000000177, 60.366665000000182 ], [ 22.4625, 60.34375 ], [ 22.412500000000136, 60.247917000000143 ] ] ], [ [ [ 21.479841, 60.548283 ], [ 21.534897000000171, 60.525524 ], [ 21.498119, 60.496445000000108 ], [ 21.477083000000164, 60.479168 ], [ 21.350521000000185, 60.533852 ], [ 21.282812, 60.593231 ], [ 21.219271, 60.613022000000115 ], [ 21.235937, 60.649479 ], [ 21.310938000000135, 60.655731 ], [ 21.354166000000134, 60.602085000000102 ], [ 21.479841, 60.548283 ] ] ], [ [ [ 21.803646000000128, 60.540104 ], [ 21.787941000000103, 60.500149000000192 ], [ 21.803646000000128, 60.508888 ], [ 21.828939000000162, 60.596645 ], [ 21.783853, 60.61198 ], [ 21.782110000000102, 60.610703000000115 ], [ 21.72892, 60.591667 ], [ 21.685417, 60.585415000000125 ], [ 21.657812, 60.519272 ], [ 21.6062510000001, 60.493752 ], [ 21.546354, 60.518230000000187 ], [ 21.529167000000143, 60.570835000000102 ], [ 21.439062, 60.611469 ], [ 21.432203, 60.635506 ], [ 21.454594000000156, 60.63139 ], [ 21.358334000000184, 60.674999000000128 ], [ 21.345312, 60.706772 ], [ 21.389063, 60.735935 ], [ 21.387501000000157, 60.825001000000157 ], [ 21.27083400000015, 60.864582 ], [ 21.266666, 60.864582 ], [ 21.33541700000012, 60.827084000000184 ], [ 21.250000000000114, 60.806252000000143 ], [ 21.188021000000106, 60.854691000000173 ], [ 21.222918, 60.914585000000159 ], [ 21.31823, 60.929688000000112 ], [ 21.303646, 61.003643000000181 ], [ 21.417101000000173, 60.9276890000001 ], [ 21.441147, 60.947399 ], [ 21.373438, 60.992187000000172 ], [ 21.30625, 61.087502 ], [ 21.419556000000114, 61.045834000000184 ], [ 21.416666, 61.083332 ], [ 21.46875, 61.135418000000186 ], [ 21.439062, 61.193226 ], [ 21.505831, 61.206249 ], [ 21.541666000000134, 61.233334000000184 ], [ 21.49427, 61.26302 ], [ 21.547396000000106, 61.324177 ], [ 21.514584, 61.370834000000116 ], [ 21.53125, 61.402084000000116 ], [ 21.464582000000178, 61.437500000000171 ], [ 21.549198, 61.427082 ], [ 21.597397000000115, 61.442184000000111 ], [ 21.497917, 61.510418000000186 ], [ 21.539583000000107, 61.529167 ], [ 21.490105, 61.582809000000168 ], [ 21.631250000000136, 61.577084 ], [ 21.655729000000122, 61.582809000000168 ], [ 21.531771000000163, 61.690102 ], [ 21.565355000000125, 61.743492000000174 ], [ 21.5, 61.766666 ], [ 21.439583000000141, 61.804165000000125 ], [ 21.472397, 61.871357000000103 ], [ 21.434896000000151, 61.926563000000158 ], [ 21.330662000000132, 61.952278 ], [ 21.288021, 61.988022000000115 ], [ 21.32448, 62.083855 ], [ 21.313021000000163, 62.126560000000154 ], [ 21.364584, 62.147915000000125 ], [ 21.377083, 62.229168 ], [ 21.382813, 62.264065000000187 ], [ 21.327278, 62.318748 ], [ 21.310417, 62.349998 ], [ 21.302084, 62.379166000000112 ], [ 21.167187, 62.425522000000115 ], [ 21.172916000000157, 62.464584 ], [ 21.121353000000113, 62.48177 ], [ 21.153646, 62.528648 ], [ 21.1, 62.541668000000129 ], [ 21.155729, 62.551559000000168 ], [ 21.202084000000184, 62.612499000000184 ], [ 21.110937000000149, 62.62656 ], [ 21.065104, 62.666149 ], [ 21.144539, 62.704166 ], [ 21.176563000000101, 62.732815 ], [ 21.125521000000163, 62.77969 ], [ 21.19375, 62.804165 ], [ 21.241667, 62.854168 ], [ 21.252083000000141, 62.887501 ], [ 21.341694, 62.878098 ], [ 21.40260300000017, 62.893230000000131 ], [ 21.460417000000177, 62.987499000000184 ], [ 21.492676000000131, 63.004166 ], [ 21.407951, 63.006248 ], [ 21.325001, 63.000000000000171 ], [ 21.406588, 63.012611000000163 ], [ 21.445833000000164, 63.045834000000127 ], [ 21.475000000000136, 63.072918000000186 ], [ 21.552084, 63.081249 ], [ 21.598557000000142, 63.056252 ], [ 21.671356000000117, 63.063019 ], [ 21.520834, 63.135418000000129 ], [ 21.521492, 63.173138 ], [ 21.557812, 63.246357000000103 ], [ 21.679167000000177, 63.212502 ], [ 21.7875, 63.268749000000128 ], [ 21.920834, 63.277084000000173 ], [ 21.990911, 63.256535 ], [ 22.00457, 63.233334000000127 ], [ 22.037298000000135, 63.220226 ], [ 22.058529000000135, 63.156749999000056 ], [ 22.149299659000178, 63.173409004000064 ], [ 22.097119829000064, 63.237742923000155 ], [ 22.181770324000183, 63.244274140000073 ], [ 22.2066, 63.272915000000182 ], [ 22.157570000000135, 63.287498 ], [ 22.138203000000146, 63.321297000000129 ], [ 22.236467000000175, 63.295826000000147 ], [ 22.270216257000072, 63.299999060000061 ], [ 22.337500000000148, 63.293751 ], [ 22.383017000000166, 63.345108 ], [ 22.246353000000113, 63.417191000000173 ], [ 22.2125, 63.481251 ], [ 22.320313, 63.491146 ], [ 22.381771000000128, 63.521351 ], [ 22.451563000000135, 63.496357 ], [ 22.482813000000135, 63.54948 ], [ 22.456249, 63.595833 ], [ 22.521170000000154, 63.622211000000107 ], [ 22.632812, 63.720310000000154 ], [ 22.759895000000142, 63.702679000000103 ], [ 22.764081928, 63.699890070000095 ], [ 22.777000185000134, 63.740779924000094 ], [ 22.83938407900007, 63.799720763000153 ], [ 22.878418007000164, 63.80055612100017 ], [ 22.891256, 63.835415 ], [ 22.841377, 63.86742 ], [ 22.832813, 63.869926000000191 ], [ 22.870832000000178, 63.897915000000125 ], [ 22.941147000000115, 63.886978000000113 ], [ 22.989523, 63.788601000000142 ], [ 23.014431008000088, 63.813694001000044 ], [ 23.041666000000191, 63.875 ], [ 23.124479, 63.877602 ], [ 23.160418, 63.914585000000102 ], [ 23.237048999000081, 63.910416000000112 ], [ 23.354686999000137, 63.915104001000145 ], [ 23.385415914000077, 63.933314066000037 ], [ 23.395313, 63.982815 ], [ 23.375521, 64.055733 ], [ 23.458855, 64.063019 ], [ 23.604593, 64.045830000000137 ], [ 23.694672000000139, 64.175003000000117 ], [ 23.814062, 64.240105 ], [ 23.847397000000171, 64.283852 ], [ 23.913021000000128, 64.293228 ], [ 23.929688, 64.339066 ], [ 23.996108423000067, 64.377173810000045 ], [ 24.305770873000029, 64.525566100999981 ], [ 24.54707, 64.487328000000105 ], [ 24.732620240000074, 64.472640991000048 ], [ 24.716799, 64.563248 ], [ 24.601479, 64.625381000000175 ], [ 24.605249, 64.647781000000123 ], [ 24.501646000000108, 64.704948 ], [ 24.555728913000053, 64.723434447999978 ], [ 24.572425989000067, 64.773468004000165 ], [ 24.558332, 64.818748000000141 ], [ 24.64791700000012, 64.831253 ], [ 24.69375, 64.862503 ], [ 24.815104, 64.88906100000014 ], [ 24.9125, 64.885414000000139 ], [ 24.999489, 64.913033 ], [ 24.96986, 64.80309300000016 ], [ 24.88820993600018, 64.760650646000158 ], [ 24.870568999000113, 64.6620640000001 ], [ 24.78139888700008, 64.633331151000107 ], [ 24.770170137000036, 64.629180997000105 ], [ 24.741529465000099, 64.585006714000031 ], [ 24.842649460000075, 64.563796997000054 ], [ 24.787409, 64.547523000000126 ], [ 24.863701, 64.445953000000145 ], [ 24.913188934000175, 64.430816651000157 ], [ 24.885306947000061, 64.391166701000088 ], [ 24.88451992500012, 64.386688221000099 ], [ 24.971258164000119, 64.347801208000192 ], [ 25.205619812000066, 64.321853638000164 ], [ 25.168279647000077, 64.232978820000028 ], [ 25.053119660000164, 64.169288636000033 ], [ 24.908529282000075, 64.111007690000122 ], [ 25.024320603000035, 64.06659698600015 ], [ 24.917280198000128, 63.984561920000147 ], [ 24.764139174000093, 63.989521027000023 ], [ 24.643690109999966, 63.943790437000075 ], [ 24.886068345000183, 63.863910675999989 ], [ 24.967300414000078, 63.802639006999982 ], [ 24.959468842000092, 63.757831573000033 ], [ 24.934558868000124, 63.673061371000074 ], [ 24.726980210000079, 63.706890106000174 ], [ 24.626518250000061, 63.651519776000043 ], [ 24.733047485000156, 63.621120454000106 ], [ 24.87428093, 63.55792999300013 ], [ 25.028680801000178, 63.45809936500018 ], [ 24.913869858, 63.434959411000136 ], [ 24.780328827000176, 63.35829903400014 ], [ 24.806859918000043, 63.276340003000143 ], [ 24.764829772000041, 63.264209920000042 ], [ 24.735128408000094, 63.143569988000138 ], [ 24.763399000000106, 63.133640000000128 ], [ 24.517660106000164, 63.155009996999979 ], [ 24.362788272000103, 63.119232022000119 ], [ 24.325109482000016, 63.066341400000113 ], [ 24.303350449000106, 62.985950470000148 ], [ 24.34934806800004, 62.962059021000186 ], [ 24.342729568000095, 62.917251586000134 ], [ 24.448940277000077, 62.900489808000032 ], [ 24.361637116000054, 62.844631196000194 ], [ 24.451019287000179, 62.783359527000187 ], [ 24.508670806000111, 62.709510804000161 ], [ 24.51503181400011, 62.686801910000042 ], [ 24.580610243000137, 62.666702062000184 ], [ 24.529508590000091, 62.524238587000184 ], [ 24.456848145000151, 62.495029449000128 ], [ 24.319709778, 62.490261078 ], [ 24.159479140000144, 62.459030152000196 ], [ 24.020240783000133, 62.364040376000048 ], [ 23.926519394000024, 62.389171601000101 ], [ 23.909149170000092, 62.479648590000181 ], [ 23.832679749000079, 62.490730285000041 ], [ 23.676618576000124, 62.409370422000052 ], [ 23.502328872000135, 62.413780212000063 ], [ 23.498159409000039, 62.377899170000092 ], [ 23.411111832000188, 62.380020142000035 ], [ 23.338178635000077, 62.422241211000141 ], [ 23.288759232000132, 62.414402008000195 ], [ 23.221988678000173, 62.334980011000141 ], [ 23.142837524000072, 62.318771362000064 ], [ 22.994419099000083, 62.286010741999974 ], [ 22.838378907000049, 62.271251678000056 ], [ 22.847530366000058, 62.163162232000161 ], [ 22.769428253000171, 62.151229859000068 ], [ 22.780439377000107, 62.061100005000185 ], [ 22.61569023200019, 62.041778565000072 ], [ 22.535388947000058, 61.998298644999977 ], [ 22.655738831000122, 61.951118469 ], [ 22.738021850000109, 61.909080506000123 ], [ 22.743541718000131, 61.864009856999985 ], [ 22.824638366000102, 61.812938691000113 ], [ 22.790859223000041, 61.75516891500007 ], [ 22.694469450999975, 61.739089966000108 ], [ 22.691728592000175, 61.707672119000165 ], [ 22.83086, 61.673439 ], [ 22.845659000000126, 61.628181 ], [ 22.900207855000019, 61.604568317000087 ], [ 22.831708907000063, 61.579010010000047 ], [ 22.826820373000032, 61.525169372 ], [ 22.73033905, 61.500141144000054 ], [ 22.728380203000029, 61.477699280000195 ], [ 22.653188706000094, 61.479160309 ], [ 22.583568572000047, 61.547908783000025 ], [ 22.437349320000067, 61.487640381000176 ], [ 22.507869720000144, 61.427940368000179 ], [ 22.580350876000125, 61.395141601000034 ], [ 22.574089050000168, 61.318851471000073 ], [ 22.60101890500016, 61.30485153300009 ], [ 22.652179717000024, 61.245441437000181 ], [ 22.801431656000034, 61.242469787000118 ], [ 22.9019603590001, 61.217899158000137 ], [ 22.91086959900008, 61.213211061000095 ], [ 22.937978744000191, 61.203639985000052 ], [ 22.922849655000107, 61.141029359000015 ], [ 22.957090377000043, 61.108821870000156 ], [ 22.969789505000108, 61.045600892000039 ], [ 23.01399993900003, 61.022159576000149 ], [ 23.154239654999969, 61.03245925900012 ], [ 23.197399140000073, 60.999980927000138 ], [ 23.264478684000039, 61.02087020800019 ], [ 23.365850449000106, 61.013900757000044 ], [ 23.407329560000051, 60.967899323000097 ], [ 23.471519470000032, 60.961780549000082 ], [ 23.474470139000175, 60.988689423000039 ], [ 23.615219117000038, 61.003009796000185 ], [ 23.79044914300016, 60.993740082000045 ], [ 23.839977264000026, 60.942859650000173 ], [ 23.86224937500009, 60.973720551000156 ], [ 23.760889053000028, 61.057540894000169 ], [ 23.80064010600006, 61.078922271000067 ], [ 23.923389435000161, 61.093441009 ], [ 23.952318191000074, 61.101600646000065 ], [ 24.134439469000029, 61.14120101900005 ], [ 24.238410949000126, 61.15151214500014 ], [ 24.291549682000095, 61.19935226400014 ], [ 24.278419494000104, 61.240280152000082 ], [ 24.305749894000144, 61.234909058000085 ], [ 24.391448975000117, 61.245689393000077 ], [ 24.49035835300009, 61.282989501000088 ], [ 24.594259261000047, 61.288551331000178 ], [ 24.769409179000149, 61.26906204300019 ], [ 24.884029387000055, 61.283031463000157 ], [ 24.918310166000083, 61.322341920000099 ], [ 24.922021865000147, 61.286170960000106 ], [ 25.066848754000091, 61.253871919000119 ], [ 25.205038072000093, 61.239681244000053 ], [ 25.261949539000113, 61.187938690000067 ], [ 25.240749360000052, 61.116680145000089 ], [ 25.15710067800012, 61.061309816000062 ], [ 25.042440414999987, 61.043090820000032 ], [ 25.061620712000092, 60.98833084100005 ], [ 25.015499115000011, 60.931499481000174 ], [ 25.079311371000188, 60.924621583000032 ], [ 25.106849671000191, 60.865051269000048 ], [ 25.087018967, 60.856769561000135 ], [ 25.108879089000084, 60.819919587000072 ], [ 25.182369232000099, 60.817119598000147 ], [ 25.26977920600018, 60.786708833000034 ], [ 25.292869568000015, 60.758781434000127 ], [ 25.393707275000111, 60.754779817000042 ], [ 25.437189103000151, 60.793590546000019 ], [ 25.483058930000141, 60.79172897300009 ], [ 25.523448945000098, 60.704471589000036 ], [ 25.435028076000151, 60.672019959000124 ], [ 25.429738999000108, 60.640701294000053 ], [ 25.520208358000104, 60.578441619000046 ], [ 25.507268906000093, 60.556442261000029 ], [ 25.413188933000129, 60.54225158800017 ], [ 25.439819, 60.482601 ], [ 25.504909516000112, 60.434879304000049 ], [ 25.36286900000016, 60.40461 ], [ 25.36676, 60.372921000000133 ], [ 25.438559, 60.311432000000195 ], [ 25.51096200000012, 60.272419 ], [ 25.435417000000143, 60.224998 ], [ 25.375, 60.270832 ], [ 25.23697900000019, 60.25156 ], [ 25.185463, 60.226948000000107 ], [ 25.185417, 60.202084 ], [ 25.077045000000169, 60.197929000000158 ], [ 25.085417, 60.158333 ], [ 24.908854000000133, 60.181774000000189 ], [ 24.838669, 60.206249 ], [ 24.801563, 60.158852 ], [ 24.663021000000185, 60.127602 ], [ 24.61607400000014, 60.15625 ], [ 24.651562, 60.102604000000156 ], [ 24.604166000000191, 60.056252 ], [ 24.481392, 59.989861 ], [ 24.424719, 59.991531 ], [ 24.364063, 60.035938000000101 ], [ 24.344809000000168, 60.089245 ], [ 24.277349000000186, 60.056339 ], [ 24.197916000000191, 60.027084000000116 ], [ 24.091667000000143, 60.022915000000125 ], [ 23.964062000000183, 60.013020000000154 ], [ 23.974167000000136, 59.96875 ], [ 23.840834, 59.94236 ], [ 23.836195, 59.984585 ], [ 23.669722, 59.935417 ], [ 23.525833000000148, 59.935974000000101 ], [ 23.43027700000016, 59.916805000000181 ], [ 23.360277000000167, 59.930973 ], [ 23.42639, 59.953751000000182 ], [ 23.42194400000011, 59.966526000000101 ], [ 23.487009000000171, 60.005741 ], [ 23.599010000000135, 60.036449000000118 ], [ 23.65686, 60.07085 ], [ 23.631290435000153, 60.166000367000095 ], [ 23.616218714000013, 60.193401008000137 ], [ 23.535490000000152, 60.200069 ], [ 23.367478985000162, 60.150470848999987 ], [ 23.395649000000105, 60.073299000000134 ], [ 23.363190000000145, 60.020172000000173 ], [ 23.457359, 60.004234 ], [ 23.401388000000168, 59.975693 ], [ 23.36861, 59.935139000000163 ], [ 23.23527700000011, 59.896526 ], [ 23.231386, 59.848194 ], [ 23.185278, 59.827641 ], [ 22.95861100000019, 59.817917 ], [ 22.981945000000167, 59.846806 ], [ 23.15694400000018, 59.886528 ], [ 23.136389000000122, 59.949306 ], [ 23.04694400000011, 59.915695 ], [ 22.887499, 59.915142 ], [ 22.811388000000136, 59.983749000000103 ], [ 22.974169000000131, 59.977089 ], [ 23.022499, 59.992363000000182 ], [ 22.994270000000142, 60.039062000000115 ], [ 23.024511, 60.100552000000164 ], [ 23.059907, 60.127566000000115 ], [ 22.898199, 60.150002 ], [ 22.864950000000192, 60.184742 ], [ 22.86875, 60.129166000000168 ], [ 22.839062000000126, 60.094269 ], [ 22.770903, 60.066872 ], [ 22.739584, 60.014584 ], [ 22.61972800000018, 60.0 ], [ 22.612499000000128, 60.0 ], [ 22.580776000000128, 60.025002000000143 ], [ 22.590534000000105, 60.035416000000112 ], [ 22.600023, 60.041660000000149 ], [ 22.450001, 59.999950000000183 ], [ 22.3916660000001, 60.002083 ], [ 22.364584, 60.089584 ], [ 22.470833, 60.104168 ], [ 22.481684000000143, 60.143749000000128 ], [ 22.413021, 60.178646 ], [ 22.461979, 60.203644000000168 ], [ 22.600328000000104, 60.225986 ], [ 22.605071529000099, 60.227085 ], [ 22.610672000000136, 60.228382 ], [ 22.614069, 60.229168000000129 ], [ 22.864063000000158, 60.242859000000124 ], [ 22.923105000000191, 60.255394 ], [ 22.859896000000163, 60.189060000000154 ], [ 22.9812510000001, 60.287498 ], [ 23.018229, 60.300800000000152 ], [ 22.986979000000133, 60.323441000000116 ], [ 22.88501500000018, 60.306252 ], [ 22.791666, 60.256248 ], [ 22.61927, 60.234894000000111 ], [ 22.563021000000106, 60.269272000000115 ], [ 22.469271000000163, 60.280731000000173 ], [ 22.612184525000146, 60.379165649000186 ], [ 22.610702516000174, 60.386745454000049 ], [ 22.478466, 60.385418000000129 ], [ 22.350000382000076, 60.364582062000125 ], [ 22.281877487000031, 60.402496532000157 ], [ 22.174999000000184, 60.385418000000129 ], [ 22.109896000000163, 60.413021000000185 ], [ 22.123823000000129, 60.462200000000166 ], [ 22.106771, 60.450527000000136 ], [ 21.99375, 60.422916000000157 ], [ 21.94010400000019, 60.448441 ], [ 22.0270195, 60.483524322999983 ], [ 21.933332442000165, 60.514583588999983 ], [ 21.899964964000105, 60.545730892000108 ], [ 21.876249, 60.516876 ], [ 21.923065, 60.448811 ], [ 22.049479, 60.354691000000116 ], [ 21.979166, 60.339584000000173 ], [ 21.83333400000015, 60.356251 ], [ 21.822916, 60.375 ], [ 21.8291660000001, 60.416668000000129 ], [ 21.778181, 60.491722000000152 ], [ 21.727604, 60.478432000000112 ], [ 21.701443000000154, 60.501869 ], [ 21.754688000000101, 60.555729 ], [ 21.803646000000128, 60.540104 ] ] ], [ [ [ 21.230730000000165, 63.363022000000115 ], [ 21.200521000000151, 63.338024000000189 ], [ 21.31875, 63.256248000000141 ], [ 21.385416, 63.28125 ], [ 21.447395, 63.249481000000117 ], [ 21.4500010000001, 63.2041660000001 ], [ 21.33802, 63.193226 ], [ 21.268749000000128, 63.158333 ], [ 21.168751000000157, 63.185417 ], [ 21.13125, 63.245834 ], [ 21.08177, 63.271351 ], [ 21.179167, 63.354168000000129 ], [ 21.230730000000165, 63.363022000000115 ] ] ], [ [ [ 21.351563, 63.370316 ], [ 21.417187000000183, 63.349476 ], [ 21.28125, 63.308334000000116 ], [ 21.279167, 63.354168000000129 ], [ 21.351563, 63.370316 ] ] ] ] } },
{ "type": "Feature", "properties": { "OWNERID__R.NAME": "Nico Eskola", "OWNERID__R.MANAGER.NAME": "Mikael Liespuu", "OWNERID__R.DIVISION": "FINLANDE", "PAYS__C": "Finlande" }, "geometry": { "type": "MultiPolygon", "coordinates": [ [ [ [ 23.59901, 60.03645 ], [ 23.48701, 60.00574 ], [ 23.45736, 60.00423 ], [ 23.36319, 60.02017 ], [ 23.39565, 60.0733 ], [ 23.36748, 60.15047 ], [ 23.53549, 60.20007 ], [ 23.61622, 60.1934 ], [ 23.63129, 60.166 ], [ 23.65686, 60.07085 ], [ 23.59901, 60.03645 ] ] ], [ [ [ 25.57344, 60.26094 ], [ 25.61823, 60.30365 ], [ 25.67031, 60.25781 ], [ 25.6125, 60.2125 ], [ 25.57344, 60.26094 ] ] ], [ [ [ 29.24355, 61.51934 ], [ 29.35946, 61.49335 ], [ 29.45222, 61.42313 ], [ 29.33398, 61.35296 ], [ 29.24557, 61.27342 ], [ 29.08696, 61.21258 ], [ 29.02865, 61.2391 ], [ 29.06777, 61.30902 ], [ 29.0766, 61.37187 ], [ 29.14932, 61.42594 ], [ 29.06403, 61.4588 ], [ 29.24355, 61.51934 ] ] ], [ [ [ 24.54707, 64.48733 ], [ 24.30577, 64.52557 ], [ 24.37448, 64.55573 ], [ 24.41094, 64.66406 ], [ 24.50165, 64.70495 ], [ 24.60525, 64.64778 ], [ 24.60148, 64.62538 ], [ 24.7168, 64.56325 ], [ 24.73262, 64.47264 ], [ 24.54707, 64.48733 ] ] ], [ [ [ 24.87656, 64.9651 ], [ 24.75833, 64.93542 ], [ 24.65, 64.96042 ], [ 24.57344, 65.00573 ], [ 24.59427, 65.06406 ], [ 24.63802, 65.08073 ], [ 24.82292, 65.09583 ], [ 24.96667, 65.03333 ], [ 24.85417, 65.04792 ], [ 24.87656, 64.9651 ] ] ], [ [ [ 24.27842, 61.24028 ], [ 24.29155, 61.19935 ], [ 24.23841, 61.15151 ], [ 24.13444, 61.1412 ], [ 23.95232, 61.1016 ], [ 23.92339, 61.09344 ], [ 23.80064, 61.07892 ], [ 23.76089, 61.05754 ], [ 23.86225, 60.97372 ], [ 23.83998, 60.94286 ], [ 23.79045, 60.99374 ], [ 23.61522, 61.00301 ], [ 23.47447, 60.98869 ], [ 23.47152, 60.96178 ], [ 23.40733, 60.9679 ], [ 23.36585, 61.0139 ], [ 23.26448, 61.02087 ], [ 23.1974, 60.99998 ], [ 23.15424, 61.03246 ], [ 23.014, 61.02216 ], [ 22.96979, 61.0456 ], [ 22.95709, 61.10882 ], [ 22.92285, 61.14103 ], [ 22.93798, 61.20364 ], [ 22.91087, 61.21321 ], [ 22.90196, 61.2179 ], [ 22.80143, 61.24247 ], [ 22.65218, 61.24544 ], [ 22.60102, 61.30485 ], [ 22.57409, 61.31885 ], [ 22.58035, 61.39514 ], [ 22.50787, 61.42794 ], [ 22.43735, 61.48764 ], [ 22.58357, 61.54791 ], [ 22.65319, 61.47916 ], [ 22.72838, 61.4777 ], [ 22.80276, 61.46722 ], [ 22.85624, 61.43465 ], [ 22.95432, 61.47754 ], [ 23.14087, 61.45993 ], [ 23.20797, 61.47187 ], [ 23.19562, 61.53511 ], [ 23.07369, 61.54237 ], [ 23.05073, 61.59684 ], [ 22.99283, 61.58461 ], [ 22.90021, 61.60457 ], [ 22.84566, 61.62818 ], [ 22.83086, 61.67344 ], [ 22.69173, 61.70767 ], [ 22.69447, 61.73909 ], [ 22.79086, 61.75517 ], [ 22.82464, 61.81294 ], [ 22.74354, 61.86401 ], [ 22.73802, 61.90908 ], [ 22.65574, 61.95112 ], [ 22.53539, 61.9983 ], [ 22.61569, 62.04178 ], [ 22.78044, 62.0611 ], [ 22.76943, 62.15123 ], [ 22.84753, 62.16316 ], [ 22.83838, 62.27125 ], [ 22.99442, 62.28601 ], [ 23.14284, 62.31877 ], [ 23.22199, 62.33498 ], [ 23.28876, 62.4144 ], [ 23.33818, 62.42224 ], [ 23.41111, 62.38002 ], [ 23.49816, 62.3779 ], [ 23.50233, 62.41378 ], [ 23.67662, 62.40937 ], [ 23.83268, 62.49073 ], [ 23.90915, 62.47965 ], [ 23.92652, 62.38917 ], [ 24.02024, 62.36404 ], [ 24.15948, 62.45903 ], [ 24.31971, 62.49026 ], [ 24.45685, 62.49503 ], [ 24.52951, 62.52424 ], [ 24.58061, 62.6667 ], [ 24.51503, 62.6868 ], [ 24.50867, 62.70951 ], [ 24.45102, 62.78336 ], [ 24.36164, 62.84463 ], [ 24.44894, 62.90049 ], [ 24.34273, 62.91725 ], [ 24.34935, 62.96206 ], [ 24.30335, 62.98595 ], [ 24.32511, 63.06634 ], [ 24.36279, 63.11923 ], [ 24.51766, 63.15501 ], [ 24.7634, 63.13364 ], [ 24.73513, 63.14357 ], [ 24.76483, 63.26421 ], [ 24.80686, 63.27634 ], [ 24.78033, 63.3583 ], [ 24.91387, 63.43496 ], [ 25.02868, 63.4581 ], [ 24.87428, 63.55793 ], [ 24.73305, 63.62112 ], [ 24.62652, 63.65152 ], [ 24.72698, 63.70689 ], [ 24.93456, 63.67306 ], [ 24.95947, 63.75783 ], [ 24.9673, 63.80264 ], [ 24.88607, 63.86391 ], [ 24.64369, 63.94379 ], [ 24.76414, 63.98952 ], [ 24.91728, 63.98456 ], [ 25.02432, 64.0666 ], [ 24.90853, 64.11101 ], [ 25.05312, 64.16929 ], [ 25.16828, 64.23298 ], [ 25.20562, 64.32185 ], [ 24.97126, 64.3478 ], [ 24.88452, 64.38669 ], [ 24.88531, 64.39117 ], [ 24.91319, 64.43082 ], [ 24.8637, 64.44595 ], [ 24.78741, 64.54752 ], [ 24.84265, 64.5638 ], [ 24.74153, 64.58501 ], [ 24.77017, 64.62918 ], [ 24.7814, 64.63333 ], [ 24.87057, 64.66206 ], [ 24.88821, 64.76065 ], [ 24.96986, 64.80309 ], [ 24.99949, 64.91303 ], [ 25.125, 64.91875 ], [ 25.29635, 64.8306 ], [ 25.36302, 64.87596 ], [ 25.33333, 64.90417 ], [ 25.225, 64.94375 ], [ 25.225, 65.00208 ], [ 25.3349, 64.98698 ], [ 25.44321, 64.94791 ], [ 25.45364, 64.94791 ], [ 25.48698, 64.97031 ], [ 25.39427, 65.00781 ], [ 25.41406, 65.04531 ], [ 25.3629, 65.10612 ], [ 25.23698, 65.13385 ], [ 25.22917, 65.17083 ], [ 25.31917, 65.26521 ], [ 25.24167, 65.33542 ], [ 25.26094, 65.39219 ], [ 25.36198, 65.42344 ], [ 25.34375, 65.46458 ], [ 25.26594, 65.51041 ], [ 25.20625, 65.5625 ], [ 25.08509, 65.58542 ], [ 24.87292, 65.66666 ], [ 24.7901, 65.65052 ], [ 24.67336, 65.65818 ], [ 24.55417, 65.74167 ], [ 24.45469, 65.77292 ], [ 24.23385, 65.79531 ], [ 24.14844, 65.76302 ], [ 24.15904, 65.85442 ], [ 24.10403, 65.92344 ], [ 24.04239, 65.95205 ], [ 24.05013, 66.00142 ], [ 23.94002, 66.07626 ], [ 23.94, 66.14836 ], [ 23.89639, 66.15393 ], [ 23.73484, 66.1893 ], [ 23.65961, 66.28564 ], [ 23.68571, 66.38866 ], [ 23.66127, 66.45229 ], [ 23.80658, 66.52104 ], [ 23.87952, 66.55537 ], [ 23.89966, 66.7577 ], [ 23.99327, 66.77348 ], [ 24.01113, 66.81361 ], [ 23.87739, 66.90697 ], [ 23.87161, 66.94316 ], [ 23.77631, 66.99494 ], [ 23.68197, 67.05566 ], [ 23.67587, 67.09185 ], [ 23.56939, 67.15276 ], [ 23.59972, 67.20168 ], [ 23.57231, 67.25186 ], [ 23.73779, 67.27077 ], [ 23.78303, 67.33737 ], [ 23.74422, 67.38783 ], [ 23.77311, 67.42325 ], [ 23.54326, 67.45078 ], [ 23.42654, 67.45319 ], [ 23.40765, 67.48513 ], [ 23.48298, 67.51965 ], [ 23.47649, 67.55584 ], [ 23.54881, 67.56786 ], [ 23.55682, 67.62179 ], [ 23.50266, 67.65447 ], [ 23.50956, 67.8617 ], [ 23.67369, 67.92139 ], [ 23.58463, 67.96385 ], [ 23.55498, 68.00505 ], [ 23.48397, 68.01101 ], [ 23.38225, 68.05361 ], [ 23.33328, 68.13121 ], [ 23.28714, 68.14562 ], [ 23.1549, 68.14808 ], [ 23.16714, 68.23802 ], [ 23.08924, 68.28901 ], [ 22.92443, 68.32792 ], [ 22.83411, 68.3835 ], [ 22.58199, 68.41444 ], [ 22.3446, 68.47637 ], [ 22.18469, 68.46492 ], [ 22.06353, 68.4754 ], [ 21.99581, 68.53926 ], [ 21.87677, 68.58112 ], [ 21.72964, 68.58263 ], [ 21.67296, 68.64626 ], [ 21.58846, 68.66956 ], [ 21.48999, 68.67042 ], [ 21.41782, 68.69804 ], [ 21.39677, 68.75678 ], [ 21.32263, 68.75735 ], [ 21.26336, 68.80283 ], [ 21.1295, 68.84879 ], [ 20.87142, 68.91782 ], [ 20.92325, 68.96713 ], [ 20.81294, 69.02172 ], [ 20.63825, 69.03594 ], [ 20.56396, 69.06773 ], [ 20.72864, 69.12121 ], [ 21.06389, 69.03844 ], [ 21.10479, 69.10578 ], [ 20.99525, 69.18302 ], [ 20.99708, 69.22357 ], [ 21.26724, 69.31202 ], [ 21.63226, 69.27755 ], [ 21.71587, 69.21368 ], [ 21.90945, 69.11708 ], [ 22.18268, 68.9562 ], [ 22.21561, 68.91071 ], [ 22.35445, 68.80977 ], [ 22.36975, 68.71941 ], [ 22.56958, 68.73917 ], [ 22.79789, 68.68612 ], [ 23.04526, 68.69106 ], [ 23.19829, 68.63875 ], [ 23.47805, 68.69661 ], [ 23.67716, 68.70612 ], [ 23.79601, 68.82545 ], [ 23.97084, 68.83065 ], [ 24.07327, 68.77869 ], [ 24.24914, 68.72491 ], [ 24.61207, 68.68422 ], [ 24.78782, 68.63889 ], [ 24.85733, 68.56021 ], [ 24.90524, 68.55437 ], [ 24.91686, 68.60825 ], [ 25.08002, 68.62169 ], [ 25.1116, 68.6524 ], [ 25.14317, 68.79156 ], [ 25.24209, 68.8429 ], [ 25.46867, 68.90388 ], [ 25.62754, 68.88989 ], [ 25.77604, 69.02987 ], [ 25.72529, 69.07673 ], [ 25.74272, 69.14402 ], [ 25.70303, 69.18599 ], [ 25.70907, 69.25817 ], [ 25.78544, 69.35528 ], [ 25.83056, 69.38098 ], [ 25.80331, 69.42258 ], [ 25.88314, 69.52863 ], [ 25.94768, 69.57632 ], [ 25.96502, 69.63913 ], [ 25.89676, 69.67301 ], [ 26.0016, 69.72395 ], [ 26.11987, 69.72912 ], [ 26.27603, 69.81898 ], [ 26.37578, 69.84728 ], [ 26.45468, 69.93517 ], [ 26.62018, 69.96107 ], [ 26.73278, 69.94344 ], [ 26.85681, 69.96157 ], [ 27.10436, 69.91601 ], [ 27.30106, 69.95375 ], [ 27.42998, 70.02126 ], [ 27.53563, 70.02156 ], [ 27.62171, 70.0771 ], [ 27.76345, 70.06671 ], [ 27.95765, 70.09034 ], [ 27.98088, 70.01212 ], [ 28.1704, 69.9221 ], [ 28.35193, 69.8822 ], [ 28.32499, 69.84704 ], [ 28.40453, 69.81616 ], [ 28.99088, 69.7157 ], [ 29.13852, 69.69475 ], [ 29.19338, 69.61005 ], [ 29.28083, 69.54189 ], [ 29.32601, 69.46672 ], [ 29.16885, 69.37001 ], [ 28.84287, 69.23159 ], [ 28.8052, 69.10611 ], [ 28.92475, 69.05673 ], [ 28.43475, 68.90842 ], [ 28.49156, 68.88496 ], [ 28.67591, 68.88713 ], [ 28.80353, 68.87495 ], [ 28.71612, 68.73772 ], [ 28.45037, 68.54767 ], [ 28.49691, 68.46932 ], [ 28.6636, 68.19444 ], [ 29.33467, 68.07471 ], [ 29.57367, 67.87768 ], [ 29.6916, 67.79601 ], [ 30.03453, 67.66936 ], [ 29.95916, 67.51733 ], [ 29.79184, 67.43811 ], [ 29.64259, 67.35395 ], [ 29.64589, 67.33284 ], [ 29.54023, 67.28773 ], [ 29.13743, 67.03601 ], [ 29.05363, 66.97799 ], [ 29.02974, 66.91658 ], [ 29.08628, 66.82427 ], [ 29.35464, 66.63581 ], [ 29.4768, 66.54175 ], [ 29.57096, 66.43225 ], [ 29.26453, 66.43198 ], [ 29.25634, 66.40973 ], [ 28.69404, 66.48641 ], [ 28.66786, 66.41067 ], [ 28.55572, 66.38038 ], [ 28.5376, 66.32691 ], [ 28.59541, 66.26485 ], [ 28.75004, 66.25649 ], [ 28.71968, 66.13564 ], [ 28.60526, 66.12824 ], [ 28.61819, 66.10033 ], [ 28.74407, 66.04356 ], [ 28.75226, 66.00228 ], [ 28.50866, 66.00644 ], [ 28.37228, 65.96381 ], [ 28.51542, 65.89272 ], [ 28.5116, 65.84757 ], [ 28.57535, 65.83959 ], [ 28.59165, 65.78882 ], [ 28.65267, 65.74013 ], [ 28.65099, 65.63591 ], [ 28.72829, 65.60441 ], [ 28.84671, 65.59776 ], [ 28.9265, 65.63861 ], [ 29.15221, 65.53027 ], [ 29.21344, 65.51758 ], [ 29.29163, 65.52202 ], [ 29.52093, 65.49003 ], [ 29.54882, 65.50649 ], [ 29.76456, 65.49767 ], [ 29.7424, 65.43813 ], [ 29.76858, 65.3341 ], [ 29.61862, 65.27339 ], [ 29.65769, 65.22775 ], [ 29.87759, 65.21326 ], [ 29.89565, 65.1946 ], [ 29.82691, 65.1383 ], [ 29.89013, 65.10488 ], [ 29.74206, 65.09006 ], [ 29.62569, 65.05992 ], [ 29.59626, 64.98994 ], [ 29.64206, 64.87545 ], [ 29.75092, 64.78962 ], [ 30.04566, 64.79217 ], [ 30.09345, 64.76795 ], [ 30.05752, 64.71052 ], [ 30.14299, 64.65276 ], [ 30.01734, 64.58135 ], [ 30.01445, 64.51586 ], [ 30.06775, 64.45979 ], [ 30.05301, 64.40425 ], [ 30.11998, 64.35917 ], [ 30.26311, 64.33374 ], [ 30.36952, 64.27724 ], [ 30.48496, 64.25491 ], [ 30.4736, 64.19664 ], [ 30.5503, 64.1259 ], [ 30.52617, 64.04909 ], [ 30.3211, 63.90189 ], [ 30.23982, 63.81827 ], [ 29.98253, 63.75203 ], [ 30.04158, 63.71125 ], [ 30.24555, 63.6066 ], [ 30.26976, 63.58393 ], [ 30.39274, 63.54311 ], [ 30.50515, 63.46186 ], [ 30.76457, 63.40995 ], [ 30.85149, 63.36969 ], [ 30.92752, 63.35681 ], [ 30.96771, 63.32124 ], [ 31.08398, 63.28819 ], [ 31.21927, 63.23162 ], [ 31.24217, 63.19981 ], [ 31.25856, 63.13563 ], [ 31.31878, 63.08893 ], [ 31.45929, 63.03304 ], [ 31.57683, 62.91416 ], [ 31.43502, 62.78025 ], [ 31.37457, 62.66268 ], [ 31.22984, 62.50706 ], [ 31.16272, 62.45275 ], [ 31.04948, 62.40502 ], [ 30.89096, 62.30725 ], [ 30.78916, 62.25689 ], [ 30.7188, 62.21289 ], [ 30.64058, 62.19443 ], [ 30.61655, 62.1564 ], [ 30.47659, 62.06241 ], [ 30.14336, 61.85086 ], [ 30.05818, 61.80149 ], [ 30.0507, 61.76934 ], [ 29.8679, 61.68464 ], [ 29.76754, 61.61015 ], [ 29.63902, 61.59648 ], [ 29.64913, 61.65929 ], [ 29.54222, 61.68488 ], [ 29.39869, 61.65392 ], [ 29.28354, 61.58918 ], [ 29.26485, 61.5587 ], [ 29.21813, 61.56185 ], [ 29.05684, 61.53179 ], [ 28.95409, 61.53851 ], [ 28.81945, 61.53363 ], [ 28.79368, 61.4764 ], [ 28.66743, 61.46632 ], [ 28.52872, 61.47954 ], [ 28.43087, 61.50369 ], [ 28.39532, 61.4425 ], [ 28.25516, 61.37861 ], [ 28.39986, 61.28382 ], [ 28.45877, 61.25755 ], [ 28.56557, 61.26899 ], [ 28.63113, 61.23317 ], [ 28.70519, 61.22846 ], [ 28.85152, 61.2462 ], [ 28.92304, 61.23248 ], [ 29.01457, 61.1902 ], [ 28.95412, 61.15165 ], [ 28.8404, 61.13145 ], [ 28.77595, 61.07738 ], [ 28.70146, 61.01135 ], [ 28.65682, 60.95082 ], [ 28.53751, 60.95841 ], [ 28.27753, 60.82074 ], [ 28.24088, 60.7868 ], [ 28.17463, 60.77579 ], [ 27.99796, 60.66899 ], [ 27.98806, 60.66637 ], [ 27.89184, 60.61329 ], [ 27.84024, 60.55303 ], [ 27.72135, 60.56614 ], [ 27.74115, 60.48594 ], [ 27.53542, 60.49167 ], [ 27.49531, 60.5099 ], [ 27.43177, 60.4703 ], [ 27.36074, 60.54864 ], [ 27.3689, 60.58432 ], [ 27.45506, 60.63829 ], [ 27.43102, 60.69383 ], [ 27.44865, 60.76966 ], [ 27.42763, 60.83859 ], [ 27.4195, 60.84356 ], [ 27.29421, 60.82328 ], [ 27.22408, 60.75931 ], [ 27.13462, 60.77311 ], [ 27.11873, 60.7017 ], [ 27.08443, 60.67191 ], [ 27.02059, 60.67526 ], [ 26.93171, 60.64827 ], [ 27.03328, 60.60687 ], [ 27.01241, 60.54583 ], [ 26.925, 60.46667 ], [ 26.82797, 60.46221 ], [ 26.725, 60.45208 ], [ 26.65625, 60.41667 ], [ 26.55208, 60.40833 ], [ 26.54844, 60.43802 ], [ 26.46323, 60.48379 ], [ 26.43958, 60.39375 ], [ 26.40573, 60.35677 ], [ 26.34352, 60.38414 ], [ 26.25208, 60.42708 ], [ 26.2217, 60.40417 ], [ 26.15469, 60.3849 ], [ 26.06823, 60.42969 ], [ 26.01719, 60.39011 ], [ 26.11198, 60.32552 ], [ 26.02292, 60.27917 ], [ 25.93802, 60.26927 ], [ 25.93666, 60.36229 ], [ 25.87292, 60.39583 ], [ 25.91615, 60.34427 ], [ 25.8974, 60.30573 ], [ 25.92083, 60.25 ], [ 25.79167, 60.26458 ], [ 25.74844, 60.24844 ], [ 25.67292, 60.27708 ], [ 25.58073, 60.33698 ], [ 25.51096, 60.27242 ], [ 25.43856, 60.31143 ], [ 25.36676, 60.37292 ], [ 25.36287, 60.40461 ], [ 25.50491, 60.43488 ], [ 25.43982, 60.4826 ], [ 25.41319, 60.54225 ], [ 25.50727, 60.55644 ], [ 25.52021, 60.57844 ], [ 25.42974, 60.6407 ], [ 25.43503, 60.67202 ], [ 25.52345, 60.70447 ], [ 25.48306, 60.79173 ], [ 25.43719, 60.79359 ], [ 25.39371, 60.75478 ], [ 25.29287, 60.75878 ], [ 25.26978, 60.78671 ], [ 25.18237, 60.81712 ], [ 25.10888, 60.81992 ], [ 25.08702, 60.85677 ], [ 25.10685, 60.86505 ], [ 25.07931, 60.92462 ], [ 25.0155, 60.9315 ], [ 25.06162, 60.98833 ], [ 25.04244, 61.04309 ], [ 25.1571, 61.06131 ], [ 25.24075, 61.11668 ], [ 25.26195, 61.18794 ], [ 25.20504, 61.23968 ], [ 25.06685, 61.25387 ], [ 24.92202, 61.28617 ], [ 24.91831, 61.32234 ], [ 24.88403, 61.28303 ], [ 24.76941, 61.26906 ], [ 24.59426, 61.28855 ], [ 24.49036, 61.28299 ], [ 24.39145, 61.24569 ], [ 24.30575, 61.23491 ], [ 24.27842, 61.24028 ] ], [ [ 27.67641, 61.10037 ], [ 27.6987, 61.15335 ], [ 27.78525, 61.16199 ], [ 27.87087, 61.27914 ], [ 27.8382, 61.29911 ], [ 27.92606, 61.34832 ], [ 27.78758, 61.36078 ], [ 27.7508, 61.3267 ], [ 27.59482, 61.34448 ], [ 27.5611, 61.28309 ], [ 27.43606, 61.27186 ], [ 27.37403, 61.24812 ], [ 27.37597, 61.2164 ], [ 27.33669, 61.16882 ], [ 27.21321, 61.16186 ], [ 27.18147, 61.10483 ], [ 27.23487, 61.09296 ], [ 27.36836, 61.10386 ], [ 27.37031, 61.07213 ], [ 27.48185, 61.02989 ], [ 27.57187, 61.01585 ], [ 27.65095, 61.03401 ], [ 27.63621, 61.08908 ], [ 27.67641, 61.10037 ] ] ] ] } }
]
}
