{
"type": "FeatureCollection",
"name": "group_arrondissementBelgique",
"crs": { "type": "name", "properties": { "name": "urn:ogc:def:crs:OGC:1.3:CRS84" } },
"features": [
{ "type": "Feature", "properties": { "ID": "a072000000Zo6qhAAB", "COUNTY_COUNCIL__C": "Oost-Vlaanderen", "PAYS__C": "Belgique" }, "geometry": { "type": "MultiPolygon", "coordinates": [ [ [ [ 3.52860807, 50.80490178 ], [ 3.51193072, 50.81140075 ], [ 3.46903939, 50.86146354 ], [ 3.47538148, 50.87621233 ], [ 3.47448889, 50.90879618 ], [ 3.43187944, 50.91152634 ], [ 3.43187944, 50.92286243 ], [ 3.45325463, 50.94084586 ], [ 3.44094628, 50.9824511 ], [ 3.45236204, 51.0175277 ], [ 3.435027, 51.03236552 ], [ 3.44531528, 51.05729305 ], [ 3.34111708, 51.09409084 ], [ 3.34102312, 51.10091624 ], [ 3.37907566, 51.11845454 ], [ 3.40862511, 51.16121713 ], [ 3.37578717, 51.19786653 ], [ 3.39894755, 51.27018606 ], [ 3.48463624, 51.24600041 ], [ 3.51395079, 51.28894106 ], [ 3.59184106, 51.30760703 ], [ 3.69430105, 51.28324334 ], [ 3.79929789, 51.25763326 ], [ 3.78900961, 51.22499006 ], [ 3.85003461, 51.21024127 ], [ 3.91223408, 51.20427647 ], [ 3.9823729, 51.22958979 ], [ 4.07313526, 51.25481408 ], [ 4.15079064, 51.29000938 ], [ 4.16732705, 51.21003354 ], [ 4.21740608, 51.1789038 ], [ 4.23248616, 51.17893348 ], [ 4.31624873, 51.21306046 ], [ 4.32705378, 51.19878648 ], [ 4.32658399, 51.15448076 ], [ 4.32611421, 51.13744694 ], [ 4.31793996, 51.12765398 ], [ 4.28054511, 51.12569539 ], [ 4.21280219, 51.12486447 ], [ 4.17893073, 51.10673266 ], [ 4.19419872, 51.06135862 ], [ 4.19231959, 51.03838967 ], [ 4.24390192, 51.04331583 ], [ 4.2258622, 50.99491487 ], [ 4.21068816, 50.98761466 ], [ 4.17009878, 50.99527098 ], [ 4.149992, 50.9742903 ], [ 4.16981691, 50.94295283 ], [ 4.14971013, 50.92019162 ], [ 4.08065181, 50.90422613 ], [ 4.09023542, 50.88081206 ], [ 4.07839685, 50.86730964 ], [ 4.07402785, 50.85911917 ], [ 4.08060483, 50.81273615 ], [ 4.04555891, 50.77935106 ], [ 4.00515745, 50.77397977 ], [ 3.94807863, 50.7754042 ], [ 3.94854842, 50.73750842 ], [ 3.88400003, 50.7369149 ], [ 3.80859962, 50.74326549 ], [ 3.78092931, 50.7439777 ], [ 3.70317998, 50.76570027 ], [ 3.6758855, 50.76647184 ], [ 3.64765145, 50.72281898 ], [ 3.54674175, 50.73632139 ], [ 3.55923801, 50.75326618 ], [ 3.46692536, 50.76656086 ], [ 3.52860807, 50.80490178 ] ] ] ] } },
{ "type": "Feature", "properties": { "ID": "a072000000Zo6xiAAB", "COUNTY_COUNCIL__C": "Limburg", "PAYS__C": "Belgique" }, "geometry": { "type": "MultiPolygon", "coordinates": [ [ [ [ 5.80527763, 50.71798185 ], [ 5.72038758, 50.74086176 ], [ 5.69238842, 50.7602993 ], [ 5.77342625, 50.78495976 ], [ 5.81335793, 50.7600619 ], [ 5.89613395, 50.75958709 ], [ 5.88711409, 50.71195769 ], [ 5.80527763, 50.71798185 ] ] ], [ [ [ 5.1566462, 50.85567679 ], [ 5.15678713, 50.86116679 ], [ 5.18971902, 50.90799494 ], [ 5.08871536, 50.9060957 ], [ 5.07861499, 50.91823303 ], [ 5.0493944, 50.93117161 ], [ 5.05207217, 50.94455532 ], [ 5.07762845, 50.98049251 ], [ 5.12512366, 50.99681411 ], [ 5.16618282, 51.0244718 ], [ 5.13602266, 51.04913225 ], [ 5.09656076, 51.05144695 ], [ 5.03041511, 51.02583688 ], [ 4.99461753, 51.04138691 ], [ 5.01834164, 51.0700239 ], [ 5.09750033, 51.08619712 ], [ 5.11864063, 51.10127234 ], [ 5.14598209, 51.12308394 ], [ 5.2019804, 51.12160015 ], [ 5.2582136, 51.14293694 ], [ 5.27404534, 51.16421437 ], [ 5.23317409, 51.21092381 ], [ 5.23961014, 51.26232201 ], [ 5.41126939, 51.26288585 ], [ 5.45510028, 51.2814628 ], [ 5.4894885, 51.29736894 ], [ 5.55145308, 51.26653595 ], [ 5.56014409, 51.22944141 ], [ 5.65447681, 51.18964638 ], [ 5.68421417, 51.18374093 ], [ 5.74923235, 51.19006184 ], [ 5.85873911, 51.14596385 ], [ 5.81584779, 51.11548697 ], [ 5.80006303, 51.0733179 ], [ 5.76407754, 51.03749941 ], [ 5.76680229, 51.00162156 ], [ 5.75731264, 50.95304255 ], [ 5.71122678, 50.90817299 ], [ 5.65198696, 50.87250288 ], [ 5.65118832, 50.83312331 ], [ 5.69097907, 50.80923442 ], [ 5.62168586, 50.77273339 ], [ 5.55225171, 50.76207984 ], [ 5.53223889, 50.73967474 ], [ 5.49460915, 50.72593492 ], [ 5.48587116, 50.72468854 ], [ 5.43588609, 50.71264023 ], [ 5.40957816, 50.72952567 ], [ 5.40473938, 50.74519441 ], [ 5.31430587, 50.71985141 ], [ 5.22946279, 50.72204741 ], [ 5.17402822, 50.70100739 ], [ 5.15523684, 50.69207502 ], [ 5.11746617, 50.71783347 ], [ 5.10511084, 50.75851877 ], [ 5.10670811, 50.78733381 ], [ 5.13677431, 50.79350634 ], [ 5.1566462, 50.85567679 ] ] ] ] } },
{ "type": "Feature", "properties": { "ID": "a072000000Zo6yuAAB", "COUNTY_COUNCIL__C": "Antwerpen", "PAYS__C": "Belgique" }, "geometry": { "type": "MultiPolygon", "coordinates": [ [ [ [ 4.30375246, 50.69640766 ], [ 4.23488206, 50.69151118 ], [ 4.15046179, 50.71958433 ], [ 4.19217865, 50.76175341 ], [ 4.26870654, 50.74851808 ], [ 4.31601384, 50.71210607 ], [ 4.30375246, 50.69640766 ] ] ], [ [ [ 4.34871084, 50.82157949 ], [ 4.34302645, 50.81617852 ], [ 4.30840333, 50.80068784 ], [ 4.29886671, 50.80715713 ], [ 4.32775845, 50.83205499 ], [ 4.34871084, 50.82157949 ] ] ], [ [ [ 4.17893073, 51.10673266 ], [ 4.21280219, 51.12486447 ], [ 4.28054511, 51.12569539 ], [ 4.31793996, 51.12765398 ], [ 4.32611421, 51.13744694 ], [ 4.32658399, 51.15448076 ], [ 4.32705378, 51.19878648 ], [ 4.31624873, 51.21306046 ], [ 4.29402793, 51.26252974 ], [ 4.26889446, 51.32849868 ], [ 4.23253314, 51.35568156 ], [ 4.22116435, 51.37612807 ], [ 4.33743601, 51.38126196 ], [ 4.35622739, 51.36096382 ], [ 4.39319943, 51.3601329 ], [ 4.42458103, 51.38601006 ], [ 4.39334037, 51.42791205 ], [ 4.40898419, 51.45880439 ], [ 4.47865323, 51.48100176 ], [ 4.53704744, 51.45583683 ], [ 4.53610787, 51.42699211 ], [ 4.67901631, 51.42957389 ], [ 4.75211478, 51.49753109 ], [ 4.8386021, 51.47981474 ], [ 4.82920641, 51.43963393 ], [ 4.85433988, 51.41194656 ], [ 4.8839363, 51.41553731 ], [ 4.92015669, 51.4009369 ], [ 4.94228354, 51.40052144 ], [ 5.00655005, 51.43909977 ], [ 5.02238179, 51.47568983 ], [ 5.0820914, 51.46690584 ], [ 5.09750033, 51.42853524 ], [ 5.07607816, 51.39491275 ], [ 5.12239891, 51.3601329 ], [ 5.14386806, 51.31606459 ], [ 5.20996674, 51.32354285 ], [ 5.24576431, 51.30526266 ], [ 5.23961014, 51.26232201 ], [ 5.23317409, 51.21092381 ], [ 5.27404534, 51.16421437 ], [ 5.2582136, 51.14293694 ], [ 5.2019804, 51.12160015 ], [ 5.14598209, 51.12308394 ], [ 5.11864063, 51.10127234 ], [ 5.09750033, 51.08619712 ], [ 5.01834164, 51.0700239 ], [ 4.99461753, 51.04138691 ], [ 4.96610161, 51.04696593 ], [ 4.93951181, 51.04488864 ], [ 4.82934735, 51.01865538 ], [ 4.81097877, 51.03488795 ], [ 4.7827917, 51.04387967 ], [ 4.76202723, 51.03435379 ], [ 4.70729734, 51.00266021 ], [ 4.67779487, 51.02462018 ], [ 4.638286, 51.02393764 ], [ 4.60183072, 50.99811984 ], [ 4.53347708, 51.00853599 ], [ 4.5007331, 51.01640003 ], [ 4.48969316, 51.00007843 ], [ 4.38676338, 51.00734896 ], [ 4.36360301, 51.02767677 ], [ 4.32165125, 51.03399768 ], [ 4.24390192, 51.04331583 ], [ 4.19231959, 51.03838967 ], [ 4.19419872, 51.06135862 ], [ 4.17893073, 51.10673266 ] ] ] ] } },
{ "type": "Feature", "properties": { "ID": "a072000000Zo6yzAAB", "COUNTY_COUNCIL__C": "Brabant-Wallon", "PAYS__C": "Belgique" }, "geometry": { "type": "MultiPolygon", "coordinates": [ [ [ [ 4.37652208, 50.55820823 ], [ 4.34485861, 50.55411299 ], [ 4.25776056, 50.60180174 ], [ 4.26057927, 50.61453259 ], [ 4.21003046, 50.63005294 ], [ 4.2014334, 50.65934279 ], [ 4.18123267, 50.65782934 ], [ 4.15079064, 50.62865819 ], [ 4.106396, 50.63319856 ], [ 4.08892002, 50.66501084 ], [ 4.10761744, 50.70993975 ], [ 4.13665012, 50.72115714 ], [ 4.15046179, 50.71958433 ], [ 4.23488206, 50.69151118 ], [ 4.30375246, 50.69640766 ], [ 4.31601384, 50.71210607 ], [ 4.33156371, 50.72922891 ], [ 4.36116013, 50.70762505 ], [ 4.42129254, 50.73394734 ], [ 4.43491629, 50.72925859 ], [ 4.48508928, 50.7532365 ], [ 4.49523662, 50.72940697 ], [ 4.57148264, 50.74237522 ], [ 4.59304575, 50.75851877 ], [ 4.62597764, 50.74949737 ], [ 4.64444017, 50.79136969 ], [ 4.69597553, 50.7870964 ], [ 4.70903554, 50.78700737 ], [ 4.79397257, 50.79599909 ], [ 4.80473064, 50.78908467 ], [ 4.84113894, 50.76374168 ], [ 4.86988975, 50.74299841 ], [ 4.92748533, 50.74587695 ], [ 4.98043004, 50.76305914 ], [ 4.98916803, 50.76433519 ], [ 5.02571726, 50.74759813 ], [ 5.0147243, 50.71712126 ], [ 5.01961006, 50.69919717 ], [ 4.99090623, 50.64130001 ], [ 4.94862563, 50.62613576 ], [ 4.84879642, 50.60637179 ], [ 4.80637488, 50.60334487 ], [ 4.73492066, 50.60874584 ], [ 4.66506371, 50.6000212 ], [ 4.67699624, 50.56889146 ], [ 4.61808526, 50.56227379 ], [ 4.57946898, 50.55129381 ], [ 4.58271049, 50.53672307 ], [ 4.51196095, 50.52589147 ], [ 4.46662675, 50.54823722 ], [ 4.37652208, 50.55820823 ] ] ] ] } },
{ "type": "Feature", "properties": { "ID": "a072000000Zo6z4AAB", "COUNTY_COUNCIL__C": "Hainaut", "PAYS__C": "Belgique" }, "geometry": { "type": "MultiPolygon", "coordinates": [ [ [ [ 3.71046164, 50.30317583 ], [ 3.67367751, 50.33492876 ], [ 3.66742938, 50.38243945 ], [ 3.67048298, 50.42701225 ], [ 3.64356433, 50.46327588 ], [ 3.61612891, 50.49075552 ], [ 3.52146734, 50.49461335 ], [ 3.51578295, 50.52470444 ], [ 3.45799946, 50.52227104 ], [ 3.37729048, 50.49099292 ], [ 3.33519779, 50.507819 ], [ 3.28652812, 50.52758298 ], [ 3.28018603, 50.55429105 ], [ 3.27830689, 50.59420478 ], [ 3.24382471, 50.65776999 ], [ 3.24969702, 50.70836694 ], [ 3.2109398, 50.71275894 ], [ 3.18148431, 50.75196045 ], [ 3.21700002, 50.75997287 ], [ 3.30151425, 50.75564023 ], [ 3.31936606, 50.72661746 ], [ 3.33101671, 50.72160228 ], [ 3.36578076, 50.71192802 ], [ 3.40134345, 50.73252291 ], [ 3.4517983, 50.75109986 ], [ 3.46692536, 50.76656086 ], [ 3.55923801, 50.75326618 ], [ 3.54674175, 50.73632139 ], [ 3.64765145, 50.72281898 ], [ 3.6758855, 50.76647184 ], [ 3.70317998, 50.76570027 ], [ 3.78092931, 50.7439777 ], [ 3.80859962, 50.74326549 ], [ 3.88400003, 50.7369149 ], [ 3.90748925, 50.68705984 ], [ 3.96527274, 50.6828459 ], [ 3.97828577, 50.68697081 ], [ 4.0791485, 50.70709089 ], [ 4.10761744, 50.70993975 ], [ 4.08892002, 50.66501084 ], [ 4.106396, 50.63319856 ], [ 4.15079064, 50.62865819 ], [ 4.18123267, 50.65782934 ], [ 4.2014334, 50.65934279 ], [ 4.21003046, 50.63005294 ], [ 4.26057927, 50.61453259 ], [ 4.25776056, 50.60180174 ], [ 4.34485861, 50.55411299 ], [ 4.37652208, 50.55820823 ], [ 4.46662675, 50.54823722 ], [ 4.51196095, 50.52589147 ], [ 4.58271049, 50.53672307 ], [ 4.56081853, 50.48933108 ], [ 4.60286425, 50.48283212 ], [ 4.58797208, 50.44751812 ], [ 4.58444869, 50.43452019 ], [ 4.61240087, 50.40401364 ], [ 4.60159583, 50.36866995 ], [ 4.59534769, 50.31798397 ], [ 4.52469211, 50.3110102 ], [ 4.48555906, 50.32569964 ], [ 4.46009674, 50.30189978 ], [ 4.411568, 50.30433318 ], [ 4.37671, 50.28264029 ], [ 4.32977853, 50.26608129 ], [ 4.34171105, 50.22972863 ], [ 4.41072239, 50.23302263 ], [ 4.40489706, 50.18177281 ], [ 4.37873007, 50.16542153 ], [ 4.40522591, 50.11897917 ], [ 4.39869591, 50.10402265 ], [ 4.4261783, 49.98202611 ], [ 4.45088897, 49.93864033 ], [ 4.30544369, 49.96745538 ], [ 4.19739326, 49.95448712 ], [ 4.15417309, 49.97511169 ], [ 4.1373548, 50.02179146 ], [ 4.21167471, 50.06031044 ], [ 4.20298369, 50.10568448 ], [ 4.15323352, 50.16037668 ], [ 4.17648785, 50.22521794 ], [ 4.21031233, 50.26723864 ], [ 4.11837551, 50.30225588 ], [ 4.03522365, 50.34579004 ], [ 3.87502714, 50.33893497 ], [ 3.83636388, 50.35341668 ], [ 3.81879394, 50.34564166 ], [ 3.74273583, 50.34807506 ], [ 3.71046164, 50.30317583 ] ] ], [ [ [ 2.90994888, 50.69436004 ], [ 2.87128561, 50.70314403 ], [ 2.8669636, 50.75715369 ], [ 2.92502896, 50.7624953 ], [ 2.95373279, 50.79754222 ], [ 2.96458481, 50.79899633 ], [ 3.00686542, 50.80460503 ], [ 3.03669673, 50.77154637 ], [ 2.93766616, 50.74255327 ], [ 2.90994888, 50.69436004 ] ] ] ] } },
{ "type": "Feature", "properties": { "ID": "a072000000Zo6z9AAB", "COUNTY_COUNCIL__C": "Liège", "PAYS__C": "Belgique" }, "geometry": { "type": "MultiPolygon", "coordinates": [ [ [ [ 5.24200604, 50.43134489 ], [ 5.20630242, 50.47749051 ], [ 5.17153836, 50.46864717 ], [ 5.14147216, 50.50042977 ], [ 5.13282812, 50.5018542 ], [ 5.10412429, 50.51654364 ], [ 5.02924064, 50.50998533 ], [ 5.05601836, 50.55485489 ], [ 5.03032115, 50.58506468 ], [ 4.98583256, 50.6151261 ], [ 4.9907653, 50.63310953 ], [ 4.99090623, 50.64130001 ], [ 5.01961006, 50.69919717 ], [ 5.0147243, 50.71712126 ], [ 5.02571726, 50.74759813 ], [ 5.05329361, 50.72243319 ], [ 5.11746617, 50.71783347 ], [ 5.15523684, 50.69207502 ], [ 5.17402822, 50.70100739 ], [ 5.22946279, 50.72204741 ], [ 5.31430587, 50.71985141 ], [ 5.40473938, 50.74519441 ], [ 5.40957816, 50.72952567 ], [ 5.43588609, 50.71264023 ], [ 5.48587116, 50.72468854 ], [ 5.49460915, 50.72593492 ], [ 5.53223889, 50.73967474 ], [ 5.55225171, 50.76207984 ], [ 5.62168586, 50.77273339 ], [ 5.69097907, 50.80923442 ], [ 5.70258275, 50.79849185 ], [ 5.69238842, 50.7602993 ], [ 5.72038758, 50.74086176 ], [ 5.80527763, 50.71798185 ], [ 5.88711409, 50.71195769 ], [ 5.89613395, 50.75958709 ], [ 6.0132982, 50.75231656 ], [ 6.05059909, 50.72005914 ], [ 6.11871784, 50.70875273 ], [ 6.19759466, 50.63115094 ], [ 6.22864741, 50.62429587 ], [ 6.27839759, 50.61637248 ], [ 6.1733068, 50.55354916 ], [ 6.21009092, 50.51719651 ], [ 6.30193379, 50.49870859 ], [ 6.37465643, 50.44594531 ], [ 6.33975144, 50.37991702 ], [ 6.40833998, 50.33305919 ], [ 6.35647577, 50.31293911 ], [ 6.30165192, 50.31299846 ], [ 6.29075292, 50.29896189 ], [ 6.27567284, 50.2654581 ], [ 6.20280927, 50.25480454 ], [ 6.17372961, 50.22815583 ], [ 6.1896553, 50.1894588 ], [ 6.07079983, 50.15642982 ], [ 6.02649915, 50.17767757 ], [ 6.0187477, 50.22845258 ], [ 6.0128754, 50.25560579 ], [ 6.0220362, 50.29747811 ], [ 5.98280919, 50.32329591 ], [ 5.86409465, 50.32344429 ], [ 5.82862592, 50.26065064 ], [ 5.72917255, 50.25676314 ], [ 5.7536953, 50.29207714 ], [ 5.71615952, 50.3122269 ], [ 5.73199125, 50.3497369 ], [ 5.67373798, 50.36344704 ], [ 5.64743005, 50.36412958 ], [ 5.61041103, 50.39333041 ], [ 5.5272122, 50.40009645 ], [ 5.51490384, 50.42178934 ], [ 5.46435503, 50.40983006 ], [ 5.4182222, 50.42751674 ], [ 5.3988201, 50.3814008 ], [ 5.34521769, 50.37941253 ], [ 5.3153394, 50.36344704 ], [ 5.27127361, 50.3990578 ], [ 5.2285702, 50.40626898 ], [ 5.24200604, 50.43134489 ] ] ] ] } },
{ "type": "Feature", "properties": { "ID": "a072000000Zo6zdAAB", "COUNTY_COUNCIL__C": "West-Vlaanderen", "PAYS__C": "Belgique" }, "geometry": { "type": "MultiPolygon", "coordinates": [ [ [ [ 2.71644465, 50.81223166 ], [ 2.63498402, 50.81276583 ], [ 2.59918644, 50.85330274 ], [ 2.60557551, 50.91295077 ], [ 2.63009826, 50.94580169 ], [ 2.61154177, 50.98025511 ], [ 2.58001923, 51.00295697 ], [ 2.57062354, 51.04453253 ], [ 2.55535555, 51.09192452 ], [ 2.61675638, 51.1145967 ], [ 2.72546451, 51.15400595 ], [ 2.75496698, 51.16373955 ], [ 2.84431999, 51.20124956 ], [ 2.94471293, 51.24374507 ], [ 2.99028202, 51.26208461 ], [ 3.12910334, 51.31680648 ], [ 3.17138394, 51.32710392 ], [ 3.22691247, 51.34146693 ], [ 3.36080105, 51.36764084 ], [ 3.38701502, 51.33063532 ], [ 3.37517645, 51.29971331 ], [ 3.39894755, 51.27018606 ], [ 3.37578717, 51.19786653 ], [ 3.40862511, 51.16121713 ], [ 3.37907566, 51.11845454 ], [ 3.34102312, 51.10091624 ], [ 3.34111708, 51.09409084 ], [ 3.44531528, 51.05729305 ], [ 3.435027, 51.03236552 ], [ 3.45236204, 51.0175277 ], [ 3.44094628, 50.9824511 ], [ 3.45325463, 50.94084586 ], [ 3.43187944, 50.92286243 ], [ 3.43187944, 50.91152634 ], [ 3.47448889, 50.90879618 ], [ 3.47538148, 50.87621233 ], [ 3.46903939, 50.86146354 ], [ 3.51193072, 50.81140075 ], [ 3.52860807, 50.80490178 ], [ 3.46692536, 50.76656086 ], [ 3.4517983, 50.75109986 ], [ 3.40134345, 50.73252291 ], [ 3.36578076, 50.71192802 ], [ 3.33101671, 50.72160228 ], [ 3.31936606, 50.72661746 ], [ 3.30151425, 50.75564023 ], [ 3.21700002, 50.75997287 ], [ 3.18148431, 50.75196045 ], [ 3.14714306, 50.78991559 ], [ 3.09790965, 50.77843112 ], [ 3.03669673, 50.77154637 ], [ 3.00686542, 50.80460503 ], [ 2.96458481, 50.79899633 ], [ 2.95373279, 50.79754222 ], [ 2.92502896, 50.7624953 ], [ 2.8669636, 50.75715369 ], [ 2.87128561, 50.70314403 ], [ 2.81326723, 50.7169432 ], [ 2.73852452, 50.78059744 ], [ 2.71644465, 50.81223166 ] ] ], [ [ [ 4.23248616, 51.17893348 ], [ 4.21740608, 51.1789038 ], [ 4.16732705, 51.21003354 ], [ 4.15079064, 51.29000938 ], [ 4.23253314, 51.35568156 ], [ 4.26889446, 51.32849868 ], [ 4.29402793, 51.26252974 ], [ 4.31624873, 51.21306046 ], [ 4.23248616, 51.17893348 ] ] ] ] } },
{ "type": "Feature", "properties": { "ID": "a072000000Zo6zEAAR", "COUNTY_COUNCIL__C": "Luxembourg", "PAYS__C": "Belgique" }, "geometry": { "type": "MultiPolygon", "coordinates": [ [ [ [ 5.1662298, 49.69292608 ], [ 5.15270001, 49.71740848 ], [ 5.06903139, 49.76156582 ], [ 4.97183298, 49.80038155 ], [ 4.98277896, 49.83830701 ], [ 5.04681058, 49.87195918 ], [ 5.1049699, 49.91952923 ], [ 5.08491011, 49.96006614 ], [ 5.02407302, 49.97511169 ], [ 4.99395983, 50.00888256 ], [ 4.98644328, 50.02377973 ], [ 5.01129488, 50.03297918 ], [ 5.05911894, 50.06677972 ], [ 5.08260816, 50.12316343 ], [ 5.08960795, 50.09292396 ], [ 5.15232418, 50.08859132 ], [ 5.27122663, 50.10117378 ], [ 5.2867765, 50.15622209 ], [ 5.21212774, 50.22079627 ], [ 5.26277051, 50.23210268 ], [ 5.3157622, 50.24041186 ], [ 5.37100886, 50.26901917 ], [ 5.42799371, 50.30679626 ], [ 5.3896593, 50.32952779 ], [ 5.3988201, 50.3814008 ], [ 5.4182222, 50.42751674 ], [ 5.46435503, 50.40983006 ], [ 5.51490384, 50.42178934 ], [ 5.5272122, 50.40009645 ], [ 5.61041103, 50.39333041 ], [ 5.64743005, 50.36412958 ], [ 5.67373798, 50.36344704 ], [ 5.73199125, 50.3497369 ], [ 5.71615952, 50.3122269 ], [ 5.7536953, 50.29207714 ], [ 5.72917255, 50.25676314 ], [ 5.82862592, 50.26065064 ], [ 5.86409465, 50.32344429 ], [ 5.98280919, 50.32329591 ], [ 6.0220362, 50.29747811 ], [ 6.0128754, 50.25560579 ], [ 6.0187477, 50.22845258 ], [ 6.02649915, 50.17767757 ], [ 5.96763515, 50.1708225 ], [ 5.95415234, 50.13470725 ], [ 5.89989223, 50.10209373 ], [ 5.85958472, 50.05873763 ], [ 5.84323622, 49.98710065 ], [ 5.78098978, 49.95968036 ], [ 5.74425263, 49.90210963 ], [ 5.78611043, 49.88285014 ], [ 5.75336645, 49.84851543 ], [ 5.76849351, 49.79637534 ], [ 5.7942377, 49.78922351 ], [ 5.83196139, 49.72637052 ], [ 5.86907437, 49.72720144 ], [ 5.87893984, 49.67782118 ], [ 5.91248245, 49.66615866 ], [ 5.87067163, 49.61381084 ], [ 5.85291378, 49.59372043 ], [ 5.87442991, 49.57674597 ], [ 5.81288814, 49.54799028 ], [ 5.71230728, 49.54033397 ], [ 5.66081891, 49.5523526 ], [ 5.62511528, 49.5348143 ], [ 5.53242681, 49.51297303 ], [ 5.48483764, 49.5066818 ], [ 5.45063733, 49.5606321 ], [ 5.40210859, 49.61143679 ], [ 5.34686193, 49.63084465 ], [ 5.26836095, 49.695953 ], [ 5.1662298, 49.69292608 ] ] ] ] } },
{ "type": "Feature", "properties": { "ID": "a072000000Zo6zJAAR", "COUNTY_COUNCIL__C": "Namur", "PAYS__C": "Belgique" }, "geometry": { "type": "MultiPolygon", "coordinates": [ [ [ [ 4.40489706, 50.18177281 ], [ 4.41072239, 50.23302263 ], [ 4.34171105, 50.22972863 ], [ 4.32977853, 50.26608129 ], [ 4.37671, 50.28264029 ], [ 4.411568, 50.30433318 ], [ 4.46009674, 50.30189978 ], [ 4.48555906, 50.32569964 ], [ 4.52469211, 50.3110102 ], [ 4.59534769, 50.31798397 ], [ 4.60159583, 50.36866995 ], [ 4.61240087, 50.40401364 ], [ 4.58444869, 50.43452019 ], [ 4.58797208, 50.44751812 ], [ 4.60286425, 50.48283212 ], [ 4.56081853, 50.48933108 ], [ 4.58271049, 50.53672307 ], [ 4.57946898, 50.55129381 ], [ 4.61808526, 50.56227379 ], [ 4.67699624, 50.56889146 ], [ 4.66506371, 50.6000212 ], [ 4.73492066, 50.60874584 ], [ 4.80637488, 50.60334487 ], [ 4.84879642, 50.60637179 ], [ 4.94862563, 50.62613576 ], [ 4.99090623, 50.64130001 ], [ 4.9907653, 50.63310953 ], [ 4.98583256, 50.6151261 ], [ 5.03032115, 50.58506468 ], [ 5.05601836, 50.55485489 ], [ 5.02924064, 50.50998533 ], [ 5.10412429, 50.51654364 ], [ 5.13282812, 50.5018542 ], [ 5.14147216, 50.50042977 ], [ 5.17153836, 50.46864717 ], [ 5.20630242, 50.47749051 ], [ 5.24200604, 50.43134489 ], [ 5.2285702, 50.40626898 ], [ 5.27127361, 50.3990578 ], [ 5.3153394, 50.36344704 ], [ 5.34521769, 50.37941253 ], [ 5.3988201, 50.3814008 ], [ 5.3896593, 50.32952779 ], [ 5.42799371, 50.30679626 ], [ 5.37100886, 50.26901917 ], [ 5.3157622, 50.24041186 ], [ 5.26277051, 50.23210268 ], [ 5.21212774, 50.22079627 ], [ 5.2867765, 50.15622209 ], [ 5.27122663, 50.10117378 ], [ 5.15232418, 50.08859132 ], [ 5.08960795, 50.09292396 ], [ 5.08260816, 50.12316343 ], [ 5.05911894, 50.06677972 ], [ 5.01129488, 50.03297918 ], [ 4.98644328, 50.02377973 ], [ 4.99395983, 50.00888256 ], [ 5.02407302, 49.97511169 ], [ 5.08491011, 49.96006614 ], [ 5.1049699, 49.91952923 ], [ 5.04681058, 49.87195918 ], [ 4.98277896, 49.83830701 ], [ 4.97183298, 49.80038155 ], [ 4.93143151, 49.78670109 ], [ 4.85537341, 49.79495091 ], [ 4.87364802, 49.81898818 ], [ 4.85156815, 49.86270039 ], [ 4.88487587, 49.91032978 ], [ 4.84517908, 49.94893778 ], [ 4.79091898, 49.95840431 ], [ 4.83977656, 50.04096192 ], [ 4.84019937, 50.09298331 ], [ 4.87242658, 50.09215239 ], [ 4.87966126, 50.14740842 ], [ 4.85894377, 50.15402609 ], [ 4.77640263, 50.14043465 ], [ 4.7150018, 50.09960098 ], [ 4.68615704, 50.0049357 ], [ 4.59887108, 49.986062 ], [ 4.51130325, 49.94680113 ], [ 4.45088897, 49.93864033 ], [ 4.4261783, 49.98202611 ], [ 4.39869591, 50.10402265 ], [ 4.40522591, 50.11897917 ], [ 4.37873007, 50.16542153 ], [ 4.40489706, 50.18177281 ] ] ] ] } },
{ "type": "Feature", "properties": { "ID": "a072000000Zo6zOAAR", "COUNTY_COUNCIL__C": "Vlaams-Brabant", "PAYS__C": "Belgique" }, "geometry": { "type": "MultiPolygon", "coordinates": [ [ [ [ 4.045559, 50.77935 ], [ 4.080605, 50.81274 ], [ 4.074028, 50.85912 ], [ 4.078397, 50.86731 ], [ 4.090235, 50.88081 ], [ 4.080652, 50.90423 ], [ 4.14971, 50.92019 ], [ 4.169817, 50.94295 ], [ 4.149992, 50.97429 ], [ 4.170099, 50.99527 ], [ 4.210688, 50.98761 ], [ 4.225862, 50.99491 ], [ 4.243902, 51.04332 ], [ 4.321651, 51.034 ], [ 4.363603, 51.02768 ], [ 4.386763, 51.00735 ], [ 4.489693, 51.00008 ], [ 4.500733, 51.0164 ], [ 4.533477, 51.00854 ], [ 4.601831, 50.99812 ], [ 4.638286, 51.02394 ], [ 4.677795, 51.02462 ], [ 4.707297, 51.00266 ], [ 4.762027, 51.03435 ], [ 4.782792, 51.04388 ], [ 4.810979, 51.03489 ], [ 4.829347, 51.01866 ], [ 4.939512, 51.04489 ], [ 4.966102, 51.04697 ], [ 4.994618, 51.04139 ], [ 5.030415, 51.02584 ], [ 5.096561, 51.05145 ], [ 5.136023, 51.04913 ], [ 5.166183, 51.02447 ], [ 5.125124, 50.99681 ], [ 5.077628, 50.98049 ], [ 5.052072, 50.94456 ], [ 5.049394, 50.93117 ], [ 5.078615, 50.91823 ], [ 5.088715, 50.9061 ], [ 5.189719, 50.90799 ], [ 5.156787, 50.86117 ], [ 5.156646, 50.85568 ], [ 5.136774, 50.79351 ], [ 5.106708, 50.78733 ], [ 5.105111, 50.75852 ], [ 5.117466, 50.71783 ], [ 5.053294, 50.72243 ], [ 5.025717, 50.7476 ], [ 4.989168, 50.76434 ], [ 4.98043, 50.76306 ], [ 4.927485, 50.74588 ], [ 4.86989, 50.743 ], [ 4.841139, 50.76374 ], [ 4.804731, 50.78908 ], [ 4.793973, 50.796 ], [ 4.709036, 50.78701 ], [ 4.695976, 50.7871 ], [ 4.64444, 50.79137 ], [ 4.625978, 50.7495 ], [ 4.593046, 50.75852 ], [ 4.571483, 50.74238 ], [ 4.495237, 50.72941 ], [ 4.485089, 50.75324 ], [ 4.434916, 50.72926 ], [ 4.421293, 50.73395 ], [ 4.36116, 50.70763 ], [ 4.331564, 50.72923 ], [ 4.316014, 50.71211 ], [ 4.268707, 50.74852 ], [ 4.192179, 50.76175 ], [ 4.150462, 50.71958 ], [ 4.13665, 50.72116 ], [ 4.107617, 50.70994 ], [ 4.079148, 50.70709 ], [ 3.978286, 50.68697 ], [ 3.965273, 50.68285 ], [ 3.907489, 50.68706 ], [ 3.884, 50.73691 ], [ 3.948548, 50.73751 ], [ 3.948079, 50.7754 ], [ 4.005157, 50.77398 ], [ 4.045559, 50.77935 ] ], [ [ 4.30441, 50.89479 ], [ 4.304316, 50.88031 ], [ 4.294968, 50.8755 ], [ 4.281156, 50.86586 ], [ 4.286981, 50.8555 ], [ 4.285196, 50.84514 ], [ 4.248271, 50.81912 ], [ 4.279418, 50.80906 ], [ 4.298867, 50.80716 ], [ 4.308403, 50.80069 ], [ 4.320195, 50.79042 ], [ 4.321041, 50.77606 ], [ 4.365811, 50.77259 ], [ 4.403394, 50.7744 ], [ 4.419413, 50.7741 ], [ 4.454506, 50.78291 ], [ 4.461553, 50.78971 ], [ 4.448305, 50.81737 ], [ 4.456338, 50.81929 ], [ 4.453332, 50.84775 ], [ 4.431863, 50.86028 ], [ 4.423876, 50.8612 ], [ 4.42538, 50.87277 ], [ 4.430829, 50.89129 ], [ 4.421856, 50.90972 ], [ 4.363321, 50.89986 ], [ 4.327524, 50.89621 ], [ 4.323389, 50.8944 ], [ 4.30441, 50.89479 ] ] ] ] } },
{ "type": "Feature", "properties": { "ID": "a0720000015fkA0AAI", "COUNTY_COUNCIL__C": "Bruxelles capitale", "PAYS__C": "Belgique" }, "geometry": { "type": "MultiPolygon", "coordinates": [ [ [ [ 4.32019492, 50.79042007 ], [ 4.30840333, 50.80068784 ], [ 4.34302645, 50.81617852 ], [ 4.34871084, 50.82157949 ], [ 4.32775845, 50.83205499 ], [ 4.29886671, 50.80715713 ], [ 4.27941763, 50.80905637 ], [ 4.24827092, 50.81911641 ], [ 4.28519598, 50.84514194 ], [ 4.28698116, 50.85549874 ], [ 4.28115583, 50.86585554 ], [ 4.2949675, 50.87550012 ], [ 4.30431621, 50.88030757 ], [ 4.30441016, 50.89478928 ], [ 4.32338946, 50.8944035 ], [ 4.32752356, 50.89621371 ], [ 4.36332114, 50.89986381 ], [ 4.42185628, 50.90971612 ], [ 4.43082917, 50.89128755 ], [ 4.42537967, 50.87276996 ], [ 4.42387636, 50.86119646 ], [ 4.43186269, 50.86027652 ], [ 4.45333184, 50.8477534 ], [ 4.45633847, 50.81929446 ], [ 4.44830515, 50.81736555 ], [ 4.46155307, 50.78970786 ], [ 4.45450631, 50.78291214 ], [ 4.41941341, 50.77409847 ], [ 4.40339375, 50.77439523 ], [ 4.365811, 50.77258502 ], [ 4.32104053, 50.77605707 ], [ 4.32019492, 50.79042007 ] ] ] ] } }
]
}
