{
"type": "FeatureCollection",
"name": "group_TPSuède",
"crs": { "type": "name", "properties": { "name": "urn:ogc:def:crs:OGC:1.3:CRS84" } },
"features": [
{ "type": "Feature", "properties": { "OWNERID__R.NAME": "Bo Sandqvist", "OWNERID__R.MANAGER.NAME": "Mats Björk", "OWNERID__R.DIVISION": "SWEDEN", "PAYS__C": "Suède" }, "geometry": { "type": "MultiPolygon", "coordinates": [ [ [ [ 16.396419239805894, 56.220471389073552 ], [ 16.410253035121944, 56.252464451328727 ], [ 16.392269101211077, 56.271283899714128 ], [ 16.408869655590337, 56.351078360868222 ], [ 16.404027827229722, 56.421086708861907 ], [ 16.372210098002807, 56.45797282769729 ], [ 16.379818685426635, 56.519324229433693 ], [ 16.41993669184318, 56.601000635426324 ], [ 16.473196803809969, 56.657458980582525 ], [ 16.484955529828614, 56.69923815599811 ], [ 16.523690156713553, 56.747039554897022 ], [ 16.601159410483433, 56.835114573340697 ], [ 16.650961073621215, 56.883668750175026 ], [ 16.723588499030477, 56.884797917078146 ], [ 16.73327215575171, 56.932222927009356 ], [ 16.798290993737147, 57.005242386744705 ], [ 16.825266894603445, 57.017663222679069 ], [ 16.843250828514307, 57.065841010545689 ], [ 16.885443904228261, 57.096328516930036 ], [ 16.920028392518386, 57.170853532536221 ], [ 16.901352768841718, 57.19607159337265 ], [ 16.960146398934931, 57.22881743356325 ], [ 16.956687950105916, 57.286028556654863 ], [ 17.006489613243698, 57.332324399682946 ], [ 17.065283243336911, 57.365823017808957 ], [ 17.151052774296421, 57.308235505749636 ], [ 17.093642523734815, 57.302966060201719 ], [ 17.057674655913083, 57.278124388332998 ], [ 17.081192107950368, 57.231452156337205 ], [ 17.072200140994937, 57.179886867761212 ], [ 17.010639751838511, 57.128321579185219 ], [ 16.955996260340115, 57.06057156499778 ], [ 16.917953323220978, 57.037611837967589 ], [ 16.940087395726657, 57.005618775712414 ], [ 16.884752214462459, 56.984540993520767 ], [ 16.902736148373322, 56.946149318814548 ], [ 16.895819250715299, 56.922813202816656 ], [ 16.857776313596162, 56.885550695013563 ], [ 16.857776313596162, 56.832103461599033 ], [ 16.781690439357888, 56.793711786892814 ], [ 16.758172987320599, 56.724456216834547 ], [ 16.717363291138255, 56.654071479873153 ], [ 16.703529495822202, 56.599118690587787 ], [ 16.650269383855409, 56.562985349687821 ], [ 16.601851100249235, 56.449315881440008 ], [ 16.566574922193308, 56.40000892667026 ], [ 16.568649991490716, 56.368392253382787 ], [ 16.51677325905553, 56.301395017130766 ], [ 16.483572150297007, 56.240796393329781 ], [ 16.41716993277997, 56.203533885526689 ], [ 16.396419239805894, 56.220471389073552 ] ] ], [ [ [ 16.820425066242827, 58.361748226364291 ], [ 16.874376867975421, 58.332766275850773 ], [ 16.832183792261468, 58.321098217851826 ], [ 16.808666340224185, 58.33803572139869 ], [ 16.808666340224185, 58.392988510684056 ], [ 16.820425066242827, 58.361748226364291 ] ] ], [ [ [ 15.410069633771531, 56.489965889952472 ], [ 15.36303472969696, 56.474533942276445 ], [ 15.34366741625449, 56.496364502403509 ], [ 15.35473445250733, 56.541907567496175 ], [ 15.392777389626467, 56.565620072461776 ], [ 15.372026696652393, 56.596483967813832 ], [ 15.409377944005728, 56.625089529359634 ], [ 15.421828359790172, 56.657082591614817 ], [ 15.367184868291776, 56.77188122676575 ], [ 15.43220370627721, 56.774515949539705 ], [ 15.446729191359063, 56.788442341344904 ], [ 15.544949138103018, 56.796722898634478 ], [ 15.557399553887462, 56.82871596088966 ], [ 15.550482656229438, 56.88667986191669 ], [ 15.524198445128942, 56.894960419206264 ], [ 15.546332517634623, 56.918296535204156 ], [ 15.612734735151662, 56.91603820139791 ], [ 15.647319223441787, 56.899477086818763 ], [ 15.688128919624134, 56.905122921334382 ], [ 15.803641110513151, 56.904746532366673 ], [ 15.840992357866487, 56.937492372557266 ], [ 15.835458839740067, 56.986799327327013 ], [ 15.782198727773274, 57.016534055775942 ], [ 15.736547203230309, 57.055678508417571 ], [ 15.640402325783763, 57.101597962477946 ], [ 15.637635566720553, 57.124181300540428 ], [ 15.552557725526846, 57.138860470281038 ], [ 15.565699831077094, 57.170853532536221 ], [ 15.530423653021165, 57.187791036083077 ], [ 15.52073999629993, 57.196447982340359 ], [ 15.428053567682396, 57.206610484468477 ], [ 15.384477112436837, 57.222795210079923 ], [ 15.261356334123994, 57.213761874854931 ], [ 15.226771845833868, 57.221289654209087 ], [ 15.152069351127199, 57.218278542467424 ], [ 15.123710070729295, 57.18590909124454 ], [ 15.066991509933491, 57.174617422213295 ], [ 15.010964638903488, 57.158809085569565 ], [ 14.99782253335324, 57.130956301959174 ], [ 14.907211174033113, 57.127568801249801 ], [ 14.881618652698421, 57.189296591953912 ], [ 14.840117266750271, 57.192307703695576 ], [ 14.78685715478348, 57.216772986596595 ], [ 14.719763247500637, 57.218654931435132 ], [ 14.696937485229153, 57.203975761694522 ], [ 14.614626403098656, 57.19607159337265 ], [ 14.618084851927669, 57.173488255310176 ], [ 14.559291221834457, 57.179886867761212 ], [ 14.546149116284209, 57.156927140731021 ], [ 14.489430555488404, 57.145259082732075 ], [ 14.471446621577538, 57.153539640021648 ], [ 14.398127506402474, 57.145635471699784 ], [ 14.356626120454324, 57.143753526861246 ], [ 14.362851328346547, 57.049279895966535 ], [ 14.33864218654346, 57.048150729063416 ], [ 14.336567117246052, 57.007500720550951 ], [ 14.370459915770375, 57.000349330164497 ], [ 14.392593988276055, 56.965345156167658 ], [ 14.382218641789017, 56.923942369719782 ], [ 14.34417570466988, 56.904370143398964 ], [ 14.331725288885433, 56.876893748756281 ], [ 14.29990755965852, 56.870871525272953 ], [ 14.257022794178765, 56.877646526691699 ], [ 14.228663513780862, 56.903240976495837 ], [ 14.21413802869901, 56.943138207072884 ], [ 14.183011989237897, 56.982282659714514 ], [ 14.103467666170609, 57.014652110937405 ], [ 14.091708940151968, 57.036482671064469 ], [ 14.016314755679495, 57.042128505580088 ], [ 13.92639508612517, 57.033095170355097 ], [ 13.928470155422577, 57.019545167517606 ], [ 13.842008934697265, 56.992821550810341 ], [ 13.803965997578128, 57.022179890291561 ], [ 13.752780954908744, 57.028954891710306 ], [ 13.714046328023803, 57.013146555066569 ], [ 13.689145496454913, 56.966850712038486 ], [ 13.608909483621822, 56.998843774293668 ], [ 13.606834414324416, 57.057184064288407 ], [ 13.574324995331699, 57.055678508417571 ], [ 13.53628205821256, 57.0805201802863 ], [ 13.424228316152556, 57.106114630090445 ], [ 13.341917234022059, 57.101974351445655 ], [ 13.236780389620078, 57.086918792737336 ], [ 13.177295069761064, 57.047774340095707 ], [ 13.124034957794271, 57.022179890291561 ], [ 13.085992020675134, 57.092188238285246 ], [ 13.101900885288591, 57.138107692345621 ], [ 13.162077894913409, 57.173111866342467 ], [ 13.214646317114399, 57.248389659884062 ], [ 13.27343994720761, 57.246884104013233 ], [ 13.289348811821068, 57.297696614653809 ], [ 13.36197623723033, 57.310493839555882 ], [ 13.391027207394036, 57.334582733489192 ], [ 13.440137180766014, 57.341734123875646 ], [ 13.477488428119347, 57.366199406776666 ], [ 13.510689536877868, 57.41324802774016 ], [ 13.542507266104783, 57.423786918835987 ], [ 13.586083721350342, 57.462178593542198 ], [ 13.604759345027007, 57.49944110134529 ], [ 13.67462001137306, 57.529928607729637 ], [ 13.696062394112937, 57.553641112695239 ], [ 13.66908649324664, 57.610852235786858 ], [ 13.728571813105656, 57.654513356040979 ], [ 13.704362671302569, 57.698550865262817 ], [ 13.723038294979235, 57.7354369840982 ], [ 13.752780954908744, 57.759525878031511 ], [ 13.738947159592692, 57.840073117121023 ], [ 13.795665720388499, 57.901424518857425 ], [ 13.765231370693188, 57.931535636274063 ], [ 13.732030261934668, 57.925137023823027 ], [ 13.72165491544763, 57.983477313817765 ], [ 13.778373476243434, 57.999662039429204 ], [ 13.786673753433066, 58.049721772134369 ], [ 13.831633588210227, 58.038430103103131 ], [ 13.89042721830344, 58.041441214844795 ], [ 13.943687330270233, 58.030525934781259 ], [ 13.965821402775912, 58.000038428396913 ], [ 14.0730333164753, 58.018481487814604 ], [ 14.07026655741209, 58.036548158264587 ], [ 14.11730146148666, 58.061389830133315 ], [ 14.130443567036908, 58.138549568513454 ], [ 14.16710312462444, 58.1219884539343 ], [ 14.311666285677163, 58.124246787740553 ], [ 14.372534985067782, 58.172048186639465 ], [ 14.413344681250129, 58.182963466702994 ], [ 14.502572661038652, 58.326367663399736 ], [ 14.524706733544331, 58.350080168365345 ], [ 14.546149116284209, 58.373416284363238 ], [ 14.582808673871742, 58.415571848746531 ], [ 14.629151888180509, 58.449070466872541 ], [ 14.696245795463351, 58.519455203833935 ], [ 14.737055491645698, 58.593227441504702 ], [ 14.782015326422862, 58.640276062468203 ], [ 14.905136104735707, 58.685819127560869 ], [ 15.033098711409169, 58.699745519366061 ], [ 15.077366856420529, 58.755451086586845 ], [ 15.127860209324112, 58.766366366650374 ], [ 15.123710070729295, 58.793466372325355 ], [ 15.224696776536462, 58.819813600064911 ], [ 15.280031957800659, 58.857828885803414 ], [ 15.344359106020292, 58.832987213934693 ], [ 15.395544148689677, 58.839385826385723 ], [ 15.417678221195358, 58.804005263421175 ], [ 15.459871296909309, 58.814544154517002 ], [ 15.44603750159326, 58.85481777406175 ], [ 15.541490689274006, 58.858205274771123 ], [ 15.597517560304007, 58.895844171541924 ], [ 15.556016174355857, 58.948538627021044 ], [ 15.692279058218951, 58.975638632696018 ], [ 15.627260220233515, 59.004996972177238 ], [ 15.639710636017959, 59.046023369657412 ], [ 15.715104820490431, 59.07086504152614 ], [ 15.720638338616851, 59.098341436168823 ], [ 15.807099559342165, 59.10549282655527 ], [ 15.771823381286238, 59.176253952484373 ], [ 15.770440001754633, 59.189803955321864 ], [ 15.769748311988831, 59.194320622934356 ], [ 15.897710918662291, 59.22556090725412 ], [ 15.88318543358044, 59.274491473056159 ], [ 15.946129202268466, 59.335090096857144 ], [ 15.997314244937851, 59.354662323177962 ], [ 16.049190977373041, 59.36068454666129 ], [ 16.077550257770941, 59.343370654146725 ], [ 16.184070481704527, 59.342241487243598 ], [ 16.270531702429839, 59.353533156274835 ], [ 16.256697907113789, 59.402840111044583 ], [ 16.260156355942801, 59.447630398201831 ], [ 16.269148322898232, 59.44800678716954 ], [ 16.489105668423427, 59.458545678265367 ], [ 16.646810935026398, 59.480752627360133 ], [ 16.708371324182821, 59.482258183230968 ], [ 16.751947779428377, 59.492420685359086 ], [ 16.831492102495666, 59.494302630197623 ], [ 16.886135593994062, 59.473224848005977 ], [ 16.955996260340115, 59.483763739101803 ], [ 16.971213435187771, 59.511240133744479 ], [ 16.915186564157768, 59.545867918773617 ], [ 16.841175759216902, 59.674592945729749 ], [ 16.783765508655293, 59.709220730758886 ], [ 16.780998749592083, 59.740461015078651 ], [ 16.73327215575171, 59.770948521462998 ], [ 16.810049719755789, 59.808587418233792 ], [ 16.823191825306036, 59.858270761971248 ], [ 16.804516201629369, 59.87144437584103 ], [ 16.797599303971342, 59.943334668673252 ], [ 16.740189053409736, 59.97344578608989 ], [ 16.723588499030477, 60.049476357566903 ], [ 16.704912875353809, 60.057756914856483 ], [ 16.709754703714424, 60.10292359098144 ], [ 16.743647502238748, 60.121743039366841 ], [ 16.740189053409736, 60.157499991299098 ], [ 16.709754703714424, 60.188363886651153 ], [ 16.783073818889491, 60.181212496264699 ], [ 16.81627492764801, 60.209065279875091 ], [ 16.879218696336039, 60.219604170970918 ], [ 16.91034473579715, 60.274180571288575 ], [ 16.963604847763943, 60.279826405804194 ], [ 17.074966900058143, 60.255361122903174 ], [ 17.108859698582467, 60.278697238901067 ], [ 17.163503190080867, 60.279826405804194 ], [ 17.198779368136794, 60.294129186577095 ], [ 17.194629229541977, 60.33891947373435 ], [ 17.211921473687042, 60.348329197927043 ], [ 17.189787401181359, 60.39274309611659 ], [ 17.213996542984447, 60.429252825984264 ], [ 17.285932278627907, 60.439791717080091 ], [ 17.299766073943957, 60.498508396042531 ], [ 17.364093222163589, 60.603144529065354 ], [ 17.378618707245444, 60.652451483835101 ], [ 17.478913723286805, 60.647934816222602 ], [ 17.543240871506438, 60.652451483835101 ], [ 17.617943366213108, 60.64341814861011 ], [ 17.637310679655577, 60.614436198096591 ], [ 17.602726191365452, 60.574538967519544 ], [ 17.622785194573723, 60.541793127328951 ], [ 17.669128408882493, 60.517327844427932 ], [ 17.716163312957061, 60.519209789266476 ], [ 17.728613728741507, 60.543298683199787 ], [ 17.773573563518671, 60.568140355068508 ], [ 17.814383259701017, 60.57077507784247 ], [ 17.937504038013863, 60.602015362162234 ], [ 17.991455839746457, 60.603520918033063 ], [ 18.018431740612755, 60.582819524809125 ], [ 18.021198499675965, 60.528619513459176 ], [ 18.008748083891518, 60.504530619525859 ], [ 18.056474677731892, 60.495873673268576 ], [ 18.124951964546341, 60.426994492178018 ], [ 18.245997673561774, 60.381075038117643 ], [ 18.260523158643629, 60.335531973024978 ], [ 18.327617065926471, 60.356609755216624 ], [ 18.406469699227955, 60.335531973024978 ], [ 18.445896015878699, 60.341554196508305 ], [ 18.470796847447588, 60.308431967350003 ], [ 18.54342427285685, 60.285472240319812 ], [ 18.613976628968707, 60.235036118646946 ], [ 18.537199064964629, 60.189493053554273 ], [ 18.498464438079687, 60.202666667424054 ], [ 18.464571639555366, 60.189493053554273 ], [ 18.511606543629938, 60.149972211944942 ], [ 18.558641447704506, 60.120990261431423 ], [ 18.625043665221547, 60.143573599493905 ], [ 18.7232636119655, 60.125130540076213 ], [ 18.757848100255625, 60.110074981367887 ], [ 18.808341453159208, 60.120990261431423 ], [ 18.854684667467975, 60.021247184988809 ], [ 18.914861677092794, 59.978338842670098 ], [ 18.905178020371558, 59.953873559769079 ], [ 18.935612370066867, 59.928279109964933 ], [ 19.015848382899957, 59.907201327773286 ], [ 19.083633979948601, 59.876337432421231 ], [ 19.073258633461563, 59.817997142426492 ], [ 19.022765280557984, 59.821384643135865 ], [ 18.979188825312427, 59.862787429583747 ], [ 18.944604337022298, 59.858647150938957 ], [ 18.926620403111436, 59.827406866619192 ], [ 18.868518462784024, 59.788638802945272 ], [ 18.857451426531185, 59.773583244236953 ], [ 18.943912647256496, 59.775841578043199 ], [ 19.073950323227368, 59.763797131076544 ], [ 19.07187525392996, 59.71750128804846 ], [ 19.026915419152797, 59.703198507275559 ], [ 18.928003782643039, 59.715619343209923 ], [ 18.797274416906369, 59.687766559599531 ], [ 18.804191314564392, 59.679109613342249 ], [ 18.723955301731301, 59.656149886312058 ], [ 18.726722060794515, 59.617758211605846 ], [ 18.667928430701302, 59.579742925867336 ], [ 18.582158899741792, 59.551890142256944 ], [ 18.458346431663145, 59.501454020584077 ], [ 18.388485765317093, 59.453276232717457 ], [ 18.308249752484002, 59.454781788588285 ], [ 18.265364987004247, 59.422412337365401 ], [ 18.300641165060174, 59.386655385433137 ], [ 18.207263046676836, 59.387408163368555 ], [ 18.15261955517844, 59.397947054464382 ], [ 18.167836730026096, 59.433704006396638 ], [ 18.14431927798881, 59.447254009234129 ], [ 18.091059166022017, 59.415637335946656 ], [ 18.102126202274857, 59.397570665496673 ], [ 18.051632849371273, 59.374610938466482 ], [ 18.068925093516334, 59.373105382595654 ], [ 18.095900994382635, 59.365953992209199 ], [ 18.167145040260291, 59.319658149181116 ], [ 18.299257785528567, 59.362566491499827 ], [ 18.355976346324375, 59.361060935628998 ], [ 18.409236458291165, 59.357297045951917 ], [ 18.452812913536725, 59.334713707889435 ], [ 18.455579672599931, 59.3941831647873 ], [ 18.470796847447588, 59.421283170462274 ], [ 18.535815685433022, 59.39531233169042 ], [ 18.537199064964629, 59.382515106788354 ], [ 18.630577183347967, 59.366330381176908 ], [ 18.616051698266112, 59.342994265179016 ], [ 18.642335909366608, 59.340735931372762 ], [ 18.664469981872287, 59.305355368408215 ], [ 18.710813196181057, 59.278631751700949 ], [ 18.654786325151054, 59.252284523961386 ], [ 18.593225935994631, 59.25529563570305 ], [ 18.582158899741792, 59.224055351383292 ], [ 18.496389368782282, 59.214645627190592 ], [ 18.459038121428947, 59.239863688027022 ], [ 18.42376194337302, 59.24475674460723 ], [ 18.382260557424868, 59.274867862023868 ], [ 18.329000445458078, 59.283901197248859 ], [ 18.353209587261162, 59.311001202923833 ], [ 18.321391858034247, 59.325303983696735 ], [ 18.297874405996964, 59.309119258085296 ], [ 18.315166650142025, 59.279760918604069 ], [ 18.364968313279807, 59.266587304734294 ], [ 18.27781540278869, 59.256424802606176 ], [ 18.370501831406227, 59.228572018995784 ], [ 18.414769976417585, 59.1962025677729 ], [ 18.36911845187462, 59.173995618678127 ], [ 18.390560834614497, 59.158940059969808 ], [ 18.459038121428947, 59.157058115131264 ], [ 18.405778009462153, 59.12882894255317 ], [ 18.299949475294369, 59.120548385263589 ], [ 18.331767204521284, 59.092695601653205 ], [ 18.256373020048812, 59.081027543654251 ], [ 18.105584651103868, 59.067101151849059 ], [ 18.043332572181644, 59.035860867529294 ], [ 18.000447806701889, 59.040377535141793 ], [ 18.021890189441766, 59.015535863273065 ], [ 17.955487971924725, 58.953055294633536 ], [ 17.979005423962011, 58.918051120636697 ], [ 17.913986585976577, 58.857828885803414 ], [ 17.934045589184848, 58.823201100774284 ], [ 17.879402097686452, 58.831105269096149 ], [ 17.851734507054353, 58.807016375162839 ], [ 17.817841708530029, 58.817931655226374 ], [ 17.804007913213979, 58.873260833479442 ], [ 17.731380487804717, 58.928590011732517 ], [ 17.752822870544595, 58.995587247984538 ], [ 17.743830903589163, 59.060326150430313 ], [ 17.769423424923854, 59.088931711976123 ], [ 17.70993810506484, 59.062584484236559 ], [ 17.685037273495951, 59.087049767137579 ], [ 17.706479656235828, 59.100599769975069 ], [ 17.653911234034837, 59.099470603071943 ], [ 17.613793227618292, 59.034731700626175 ], [ 17.628318712700143, 58.997845581790791 ], [ 17.616559986681501, 58.985801134824136 ], [ 17.619326745744711, 58.970745576115824 ], [ 17.622093504807921, 58.990694191404337 ], [ 17.651836164737428, 59.009513639789738 ], [ 17.626243643402738, 59.023816420562639 ], [ 17.644919267079406, 59.071241430493849 ], [ 17.691262481388172, 59.043012257915748 ], [ 17.709246415299038, 59.015535863273065 ], [ 17.697487689280393, 58.985801134824136 ], [ 17.698871068812, 58.925578899990853 ], [ 17.633852230826566, 58.924449733087734 ], [ 17.644919267079406, 58.961712240890819 ], [ 17.619326745744715, 58.970745576115817 ], [ 17.620018435510516, 58.966981686438736 ], [ 17.578517049562365, 58.944021959408545 ], [ 17.613793227618292, 58.933859457280434 ], [ 17.627627022934341, 58.899231672251297 ], [ 17.574366910967548, 58.891703892897134 ], [ 17.573675221201746, 58.847666383675303 ], [ 17.498972726495076, 58.841267771224267 ], [ 17.463004858673347, 58.806263597227421 ], [ 17.429112060149023, 58.793089983357646 ], [ 17.388302363966677, 58.776905257746201 ], [ 17.400061089985321, 58.746041362394145 ], [ 17.281090450267289, 58.743030250652481 ], [ 17.272790173077659, 58.721199690525417 ], [ 17.205004576029015, 58.731738581621244 ], [ 17.118543355303704, 58.725339969170207 ], [ 17.083958867013578, 58.695228851753569 ], [ 17.035540583407403, 58.69598162968898 ], [ 17.075658589823949, 58.688830239302533 ], [ 17.152436153828027, 58.695228851753569 ], [ 17.110243078114074, 58.647051063886941 ], [ 17.051449448020861, 58.657213566015059 ], [ 17.00164778488308, 58.680549682012952 ], [ 17.031390444812587, 58.631995505178622 ], [ 16.906886286968138, 58.610164945051565 ], [ 16.874376867975421, 58.617316335438012 ], [ 16.741572432941339, 58.626726059630712 ], [ 16.608767997907261, 58.636135783823413 ], [ 16.464896526620343, 58.65683717704735 ], [ 16.352151094794536, 58.666246901240051 ], [ 16.267073253600827, 58.663612178466096 ], [ 16.258081286645393, 58.629360782404667 ], [ 16.211046382570824, 58.630489949307794 ], [ 16.209663003039218, 58.607530222277603 ], [ 16.315491537207002, 58.607153833309894 ], [ 16.381202064958238, 58.619951058211967 ], [ 16.4254702099696, 58.592851052536993 ], [ 16.440687384817252, 58.63801772866195 ], [ 16.54513253945343, 58.615810779567184 ], [ 16.549974367814048, 58.633501061049458 ], [ 16.666178248468867, 58.615434390599475 ], [ 16.686928941442943, 58.602637165697402 ], [ 16.795524234673934, 58.597744109117201 ], [ 16.789299026781713, 58.558599656475565 ], [ 16.834950551324678, 58.55483576679849 ], [ 16.882677145165051, 58.512303813447488 ], [ 16.951154431979496, 58.48332186293397 ], [ 16.866076590785791, 58.471277415967315 ], [ 16.848784346640727, 58.443424632356923 ], [ 16.773390162168255, 58.440413520615259 ], [ 16.739497363643935, 58.420841294294448 ], [ 16.594934202591212, 58.44417741029234 ], [ 16.50570622280269, 58.473912138741269 ], [ 16.416478243014168, 58.475794083579814 ], [ 16.496714255847255, 58.461491302806905 ], [ 16.71943836043566, 58.393364899651758 ], [ 16.792757475610728, 58.362124615332 ], [ 16.794832544908132, 58.333519053786191 ], [ 16.889594042823077, 58.297385712886225 ], [ 16.852242795469742, 58.26614542856646 ], [ 16.825958584369246, 58.293621823209143 ], [ 16.700762736758993, 58.263510705792505 ], [ 16.789990716547514, 58.240927367730023 ], [ 16.841867448982704, 58.185598189476949 ], [ 16.798290993737147, 58.126881510514508 ], [ 16.750564399896774, 58.101663449678071 ], [ 16.745030881770354, 58.071552332261433 ], [ 16.761631436149614, 58.013588431234403 ], [ 16.711138083246031, 58.018857876782313 ], [ 16.706296254885412, 57.994392593881294 ], [ 16.668945007532081, 57.991005093171921 ], [ 16.711138083246031, 57.963905087496947 ], [ 16.759556366852205, 58.000038428396913 ], [ 16.80520789139517, 57.987617592462549 ], [ 16.766473264510232, 57.937181470789682 ], [ 16.801057752800354, 57.911963409953245 ], [ 16.763706505447022, 57.858892565506416 ], [ 16.707679634417019, 57.892767572600135 ], [ 16.671020076829485, 57.870560623505369 ], [ 16.618451654628494, 57.895025906406389 ], [ 16.596317582122815, 57.933041192144891 ], [ 16.552741126877258, 57.898037018148052 ], [ 16.486338909360221, 57.885616182213688 ], [ 16.566574922193308, 57.823888391509577 ], [ 16.444145833646267, 57.855881453764752 ], [ 16.442762454114661, 57.837814783314769 ], [ 16.528531985074171, 57.823135613574159 ], [ 16.704912875353809, 57.727532815776328 ], [ 16.73327215575171, 57.681989750683663 ], [ 16.646119245260596, 57.676720305135753 ], [ 16.623293482989112, 57.647738354622241 ], [ 16.657186281513436, 57.606335568174359 ], [ 16.632285449944547, 57.569825838306684 ], [ 16.626060242052326, 57.571707783145229 ], [ 16.540982400858617, 57.607464735077485 ], [ 16.538907331561209, 57.579988340434802 ], [ 16.584558856104174, 57.555523057533783 ], [ 16.640585727134177, 57.551382778888993 ], [ 16.649577694089608, 57.512614715215072 ], [ 16.703529495822202, 57.489654988184881 ], [ 16.684853872145535, 57.454650814188042 ], [ 16.720130050201462, 57.439595255479723 ], [ 16.646119245260596, 57.408731360127668 ], [ 16.614993205799482, 57.365823017808957 ], [ 16.557582955237876, 57.374479964066239 ], [ 16.571416750553926, 57.336088289360028 ], [ 16.552049437111457, 57.310870228523591 ], [ 16.476655252638984, 57.278877166268408 ], [ 16.506397912568492, 57.243120214336152 ], [ 16.473888493575775, 57.216772986596595 ], [ 16.460746388025527, 57.174993811181004 ], [ 16.509164671631702, 57.120417410863347 ], [ 16.576258578914544, 57.088047959640463 ], [ 16.540290711092815, 57.045892395257169 ], [ 16.482188770765404, 57.015028499905114 ], [ 16.470430044746763, 56.992068772874923 ], [ 16.433770487159229, 56.98868127216555 ], [ 16.468354975449355, 56.946149318814548 ], [ 16.437228935988241, 56.922813202816656 ], [ 16.439995695051451, 56.881786805336482 ], [ 16.424778520203795, 56.818929847729251 ], [ 16.428928658798611, 56.786936785474069 ], [ 16.387427272850459, 56.774515949539705 ], [ 16.36529320034478, 56.75193261147723 ], [ 16.361143061749967, 56.685688153160626 ], [ 16.381202064958238, 56.669127038581472 ], [ 16.327250263225643, 56.645038144648161 ], [ 16.282290428448484, 56.656706202647108 ], [ 16.226955247184282, 56.594225634007579 ], [ 16.226263557418477, 56.550564513753457 ], [ 16.129426990206127, 56.452326993181671 ], [ 16.092767432618597, 56.422215875765033 ], [ 16.093459122384399, 56.381565867252569 ], [ 16.053341115967854, 56.314568631000547 ], [ 16.001464383532667, 56.290479737067237 ], [ 15.958579618052912, 56.311557519258884 ], [ 15.88595219264365, 56.308922796484929 ], [ 15.827850252316239, 56.320590854483875 ], [ 15.801566041215745, 56.337528358030738 ], [ 15.728246926040679, 56.411676984669207 ], [ 15.677061883371294, 56.436518656537935 ], [ 15.66737822665006, 56.449692270407716 ], [ 15.599592629601414, 56.470017274663945 ], [ 15.597517560304007, 56.487707556146219 ], [ 15.52350675536314, 56.494106168597256 ], [ 15.485463818244003, 56.470393663631654 ], [ 15.410069633771531, 56.489965889952472 ] ] ], [ [ [ 17.509348072982114, 58.743783028587899 ], [ 17.483755551647423, 58.720823301557708 ], [ 17.42496192155421, 58.750558030006644 ], [ 17.463696548439149, 58.771635812198291 ], [ 17.509348072982114, 58.743783028587899 ] ] ], [ [ [ 18.216946703398072, 58.9372469579898 ], [ 18.249456122390789, 58.958701129149155 ], [ 18.317241719439433, 58.968110853341855 ], [ 18.302716234357582, 58.924449733087734 ], [ 18.217638393163874, 58.904501117799207 ], [ 18.216946703398072, 58.9372469579898 ] ] ], [ [ [ 18.098667753445845, 59.023063642627221 ], [ 18.189970802531775, 59.024945587465766 ], [ 18.150544485881031, 58.9699927981804 ], [ 18.104892961338066, 58.977144188566847 ], [ 18.039874123352632, 58.959453907084573 ], [ 18.015664981549545, 58.929719178635644 ], [ 17.97278021606979, 58.951926127730417 ], [ 18.019123430378556, 58.990317802436628 ], [ 18.035032294992014, 58.959077518116864 ], [ 18.082758888832387, 58.994458081081419 ], [ 18.098667753445845, 59.023063642627221 ] ] ], [ [ [ 18.488780781358454, 59.086673378169877 ], [ 18.407161388993757, 59.007255305983492 ], [ 18.364968313279807, 59.009137250822029 ], [ 18.339375791945113, 59.030967810949093 ], [ 18.3635849337482, 59.073499764300095 ], [ 18.410619837822772, 59.08554421126675 ], [ 18.480480504168824, 59.120924774231298 ], [ 18.488780781358454, 59.086673378169877 ] ] ], [ [ [ 18.234238947543133, 59.352027600404007 ], [ 18.205187977379428, 59.338101208598808 ], [ 18.148469416583623, 59.342994265179016 ], [ 18.093134235319425, 59.382138717820645 ], [ 18.139477449628192, 59.39004288614251 ], [ 18.257064709814617, 59.367083159112326 ], [ 18.234238947543133, 59.352027600404007 ] ] ], [ [ [ 18.321391858034247, 59.444242897492458 ], [ 18.359434795153387, 59.429940116719557 ], [ 18.362201554216597, 59.40472205588312 ], [ 18.413386596885982, 59.39004288614251 ], [ 18.294415957167949, 59.413002613172701 ], [ 18.321391858034247, 59.444242897492458 ] ] ], [ [ [ 18.748856133300194, 59.20147201332081 ], [ 18.676228707890932, 59.179265064226037 ], [ 18.697671090630809, 59.212387293384339 ], [ 18.748856133300194, 59.20147201332081 ] ] ], [ [ [ 18.774448654634885, 59.29820397802176 ], [ 18.8062663838618, 59.291428976603015 ], [ 18.767531756976862, 59.251155357058266 ], [ 18.722571922199698, 59.27411508408845 ], [ 18.774448654634885, 59.29820397802176 ] ] ], [ [ [ 18.745397684471179, 59.348640099694634 ], [ 18.748164443534392, 59.327185928535279 ], [ 18.714271645010069, 59.306108146343632 ], [ 18.643027599132409, 59.372728993627945 ], [ 18.704587988288832, 59.369717881886281 ], [ 18.745397684471179, 59.348640099694634 ] ] ], [ [ [ 18.910019848732176, 59.447254009234129 ], [ 18.912786607795386, 59.417519280785193 ], [ 18.869210152549826, 59.396441498593546 ], [ 18.851917908404765, 59.430316505687266 ], [ 18.910019848732176, 59.447254009234129 ] ] ], [ [ [ 18.516448371990553, 59.462309567942448 ], [ 18.50953147433253, 59.492797074326795 ], [ 18.554491309109689, 59.507852633035114 ], [ 18.644410978664016, 59.561676255417353 ], [ 18.675537018125127, 59.530435971097589 ], [ 18.661703222809077, 59.507476244067405 ], [ 18.596684384823643, 59.498066519874705 ], [ 18.600142833652654, 59.433704006396638 ], [ 18.555182998875495, 59.435962340202884 ], [ 18.516448371990553, 59.462309567942448 ] ] ], [ [ [ 18.972271927654401, 59.626415157863129 ], [ 18.8892691557581, 59.615876266767302 ], [ 18.940454198427485, 59.652009607667267 ], [ 18.972271927654401, 59.626415157863129 ] ] ], [ [ [ 19.011698244305144, 59.781111023591109 ], [ 18.873360291144643, 59.788262413977563 ], [ 18.924545333814027, 59.823266587974402 ], [ 18.948062785851313, 59.856388817132711 ], [ 18.98887248203366, 59.841709647392094 ], [ 19.011698244305144, 59.781111023591109 ] ] ], [ [ [ 18.735714027749946, 60.215087503358419 ], [ 18.788974139716739, 60.186858330780318 ], [ 18.791049209014147, 60.152606934718897 ], [ 18.719113473370687, 60.159005547169926 ], [ 18.735714027749946, 60.215087503358419 ] ] ], [ [ [ 18.468721778150183, 60.425112547339474 ], [ 18.469413467915984, 60.392366707148881 ], [ 18.508148094800923, 60.371288924957234 ], [ 18.562791586299319, 60.368654202183279 ], [ 18.589075797399815, 60.33891947373435 ], [ 18.579392140678582, 60.297893076254176 ], [ 18.400244491335734, 60.367148646312444 ], [ 18.379493798361658, 60.417208379017609 ], [ 18.411311527588573, 60.502272285719613 ], [ 18.447279395410305, 60.480818114560257 ], [ 18.468721778150183, 60.425112547339474 ] ] ] ] } },
{ "type": "Feature", "properties": { "OWNERID__R.NAME": "Mats Björk", "OWNERID__R.MANAGER.NAME": "Louis De Hillerin", "OWNERID__R.DIVISION": "SWEDEN", "PAYS__C": "Suède" }, "geometry": { "type": "MultiPolygon", "coordinates": [ [ [ [ 15.70057933540858, 56.093628306955956 ], [ 15.66461146758685, 56.078572748247637 ], [ 15.635560497423146, 56.096263029729911 ], [ 15.652852741568207, 56.124492202308012 ], [ 15.70057933540858, 56.093628306955956 ] ] ], [ [ [ 18.418920115012401, 57.149022972409156 ], [ 18.382260557424868, 57.100468795574827 ], [ 18.342834240774124, 57.072616011964435 ], [ 18.340067481710918, 57.013146555066569 ], [ 18.36635169281141, 56.983788215585349 ], [ 18.323466927331655, 56.965721545135366 ], [ 18.325541996629063, 56.949536819523921 ], [ 18.192737561594985, 56.905122921334382 ], [ 18.122185205483127, 56.919049313139574 ], [ 18.204496287613626, 56.999596552229086 ], [ 18.218330082929675, 57.03083683654885 ], [ 18.276432023257087, 57.036482671064469 ], [ 18.297874405996964, 57.073368789899853 ], [ 18.196196010423996, 57.067722955384227 ], [ 18.220405152227084, 57.100845184542536 ], [ 18.218330082929675, 57.127192412282092 ], [ 18.169220109557699, 57.144882693764366 ], [ 18.14985279611523, 57.168218809762266 ], [ 18.151236175646833, 57.243872992271569 ], [ 18.091059166022017, 57.259304939947597 ], [ 18.102817892040658, 57.289416057364235 ], [ 18.169911799323501, 57.319903563748582 ], [ 18.170603489089302, 57.367704962647494 ], [ 18.184437284405355, 57.39856885799955 ], [ 18.116651687356708, 57.439971644447432 ], [ 18.127718723609547, 57.49003137715259 ], [ 18.104892961338066, 57.534445275342136 ], [ 18.199654459253008, 57.599936955723322 ], [ 18.242539224732763, 57.610475846819149 ], [ 18.329000445458078, 57.66806335887847 ], [ 18.410619837822772, 57.751621709709646 ], [ 18.461113190726351, 57.819748112864787 ], [ 18.526132028711789, 57.828405059122069 ], [ 18.566250035128334, 57.845342562668932 ], [ 18.606368041544879, 57.843084228862686 ], [ 18.625043665221547, 57.886368960149099 ], [ 18.695596021333401, 57.920620356210527 ], [ 18.750239512831797, 57.924384245887609 ], [ 18.778598793229701, 57.876959235956406 ], [ 18.791049209014147, 57.828028670154367 ], [ 18.857451426531185, 57.925513412790735 ], [ 18.927312092877237, 57.926642579693855 ], [ 18.957746442572549, 57.913845354791789 ], [ 19.022765280557984, 57.912339798920954 ], [ 19.028298798684403, 57.869807845569952 ], [ 19.067725115335143, 57.849859230281425 ], [ 19.015848382899957, 57.826523114283532 ], [ 19.01446500336835, 57.807327276930422 ], [ 18.974346996951809, 57.775334214675247 ], [ 18.949446165382916, 57.739953651710692 ], [ 18.865751703720814, 57.721510592293001 ], [ 18.802807935032789, 57.740330040678401 ], [ 18.8062663838618, 57.677849472038879 ], [ 18.772373585337476, 57.646985576686824 ], [ 18.763381618382045, 57.614992514431641 ], [ 18.798657796437972, 57.609346679916023 ], [ 18.79519934760896, 57.577353617660847 ], [ 18.813183281519827, 57.553641112695239 ], [ 18.749547823065996, 57.509603603473408 ], [ 18.761998238850438, 57.471964706702607 ], [ 18.818716799646246, 57.439218866512014 ], [ 18.896186053416123, 57.440348033415134 ], [ 18.928003782643039, 57.424163307803695 ], [ 18.907253089668966, 57.396686913161012 ], [ 18.777215413698094, 57.371092463356867 ], [ 18.667236740935497, 57.305600782975681 ], [ 18.665853361403894, 57.284146611816325 ], [ 18.71496333477587, 57.268338275172589 ], [ 18.708046437117844, 57.242743825368443 ], [ 18.649252807024634, 57.21940770937055 ], [ 18.579392140678582, 57.220160487305968 ], [ 18.517140061756358, 57.183650757438286 ], [ 18.418920115012401, 57.149022972409156 ] ] ], [ [ [ 19.194304342477004, 57.994768982849003 ], [ 19.244797695380583, 57.973314811689647 ], [ 19.330567226340094, 57.982724535882348 ], [ 19.350626229548368, 57.963905087496947 ], [ 19.282148942733919, 57.948849528788628 ], [ 19.252406282804412, 57.952237029498001 ], [ 19.138969161212803, 57.910834243050118 ], [ 19.170786890439718, 57.891638405697016 ], [ 19.118218468238727, 57.84722450750747 ], [ 19.080867220885395, 57.867549511763706 ], [ 19.08017553111959, 57.887874516019934 ], [ 19.041440904234648, 57.901800907825127 ], [ 19.048357801892674, 57.926642579693855 ], [ 19.087092428777616, 57.9334175811126 ], [ 19.079483841353788, 57.964281476464656 ], [ 19.113376639878112, 57.982724535882348 ], [ 19.194304342477004, 57.994768982849003 ] ] ], [ [ [ 11.587100298181118, 58.051603716972906 ], [ 11.645202238508528, 58.062518997036442 ], [ 11.659727723590381, 58.087737057872879 ], [ 11.701920799304332, 58.093759281356206 ], [ 11.695003901646308, 58.112955118709309 ], [ 11.628601684129269, 58.129892622256172 ], [ 11.594708885604947, 58.128387066385336 ], [ 11.555974258720006, 58.085478724066625 ], [ 11.410027718135678, 58.139678735416581 ], [ 11.417636305559506, 58.178070410122793 ], [ 11.448070655254815, 58.176564854251957 ], [ 11.493722179797782, 58.201406526120685 ], [ 11.544215532701363, 58.210816250313385 ], [ 11.610617750218402, 58.242809312568568 ], [ 11.612001129750009, 58.242809312568568 ], [ 11.679095037032852, 58.242809312568568 ], [ 11.689470383519888, 58.295503768047688 ], [ 11.740655426189273, 58.302278769466426 ], [ 11.782156812137423, 58.257488482309178 ], [ 11.84233382176224, 58.233775977343576 ], [ 11.849942409186069, 58.166778741091555 ], [ 11.799449056282485, 58.133656511933253 ], [ 11.735813597828656, 58.116342619418681 ], [ 11.702612489070136, 58.093006503420789 ], [ 11.754489221505324, 58.072305110196851 ], [ 11.75656429080273, 58.00606065188024 ], [ 11.686703624456678, 57.969174533044857 ], [ 11.648660687337541, 57.962399531626119 ], [ 11.5822584698205, 57.932664803177182 ], [ 11.527614978322104, 57.961646753690701 ], [ 11.544215532701363, 57.994392593881294 ], [ 11.507555975113831, 58.014717598137523 ], [ 11.511706113708646, 58.054991217682279 ], [ 11.567041294972846, 58.063648163939561 ], [ 11.587100298181118, 58.051603716972906 ] ] ], [ [ [ 19.192229273179596, 58.397505178296548 ], [ 19.278690493904907, 58.383578786491356 ], [ 19.322266949150464, 58.366641282944492 ], [ 19.29390766875256, 58.341423222108062 ], [ 19.213671655919473, 58.339164888301809 ], [ 19.176320408566138, 58.392988510684056 ], [ 19.192229273179596, 58.397505178296548 ] ] ], [ [ [ 10.992247099590969, 58.915040008895033 ], [ 11.062799455702825, 58.871378888640905 ], [ 11.042740452494552, 58.864227498254451 ], [ 10.982563442869735, 58.886810836316933 ], [ 10.992247099590969, 58.915040008895033 ] ] ], [ [ [ 12.589358768828939, 56.131643592694466 ], [ 12.589358768828939, 56.132396370629884 ], [ 12.56722469632326, 56.143311650693413 ], [ 12.554774280538815, 56.195253328237115 ], [ 12.530565138735728, 56.246442227845399 ], [ 12.484913614192763, 56.28935057016411 ], [ 12.51742303318548, 56.294620015712027 ], [ 12.657144365877585, 56.2558519520381 ], [ 12.671669850959436, 56.239290837458952 ], [ 12.772656556766602, 56.217836666299597 ], [ 12.790640490677466, 56.223858889782925 ], [ 12.83836708451784, 56.27053112177871 ], [ 12.762972900045366, 56.310051963388048 ], [ 12.740147137773885, 56.358982529190087 ], [ 12.688270405338697, 56.380813089317151 ], [ 12.639160431966719, 56.388340868671314 ], [ 12.618409738992645, 56.421086708861907 ], [ 12.657836055643386, 56.455714493891044 ], [ 12.728388411755242, 56.47189921950249 ], [ 12.861192846789322, 56.430872822022316 ], [ 12.898544094142657, 56.447810325569172 ], [ 12.939353790325004, 56.498622836209755 ], [ 12.947654067514634, 56.546800624076376 ], [ 12.938662100559201, 56.58857979949196 ], [ 12.8826352295292, 56.648425645357534 ], [ 12.830758497094012, 56.664233982001271 ], [ 12.777498385127219, 56.640521477035662 ], [ 12.728388411755242, 56.640145088067953 ], [ 12.731155170818452, 56.663104815098144 ], [ 12.685503646275487, 56.70450760154602 ], [ 12.622559877587459, 56.743275665219947 ], [ 12.618409738992645, 56.77075205986263 ], [ 12.60872608227141, 56.821940959470915 ], [ 12.502205858337824, 56.885927083981272 ], [ 12.403294221828068, 56.902864587528128 ], [ 12.366634664240534, 56.918296535204156 ], [ 12.347267350798065, 56.966097934103075 ], [ 12.350034109861275, 57.006371553647831 ], [ 12.271873166325593, 57.048150729063416 ], [ 12.217229674827195, 57.135849358539375 ], [ 12.201320810213737, 57.174241033245593 ], [ 12.166736321923613, 57.200211872017441 ], [ 12.094108896514349, 57.233334101175743 ], [ 12.104484243001387, 57.268714664140298 ], [ 12.163969562860402, 57.286404945622571 ], [ 12.16604463215781, 57.307859116781927 ], [ 12.122468176912253, 57.346250791488139 ], [ 12.110017761127807, 57.377491075807903 ], [ 12.110017761127807, 57.433949420964105 ], [ 12.06644130588225, 57.448628590704715 ], [ 12.018023022276076, 57.396310524193304 ], [ 12.026323299465705, 57.376361908904776 ], [ 11.99173881117558, 57.35528412671313 ], [ 11.912886177874096, 57.401203580773505 ], [ 11.924644903892737, 57.429432753351605 ], [ 11.909427729045083, 57.463684149413034 ], [ 11.955079253588048, 57.500570268248417 ], [ 11.917036316468911, 57.531434163600473 ], [ 11.926719973190146, 57.548748056115038 ], [ 11.919803075532121, 57.625531405527468 ], [ 11.881068448647181, 57.611605013722269 ], [ 11.836800303635821, 57.65865363468577 ], [ 11.827808336680388, 57.692528641779489 ], [ 11.751722462442114, 57.686506418296162 ], [ 11.701229109538531, 57.708336978423226 ], [ 11.71506290485458, 57.736189762033618 ], [ 11.802907505111499, 57.753880043515892 ], [ 11.816049610661745, 57.780603660223157 ], [ 11.743422185252482, 57.796788385834603 ], [ 11.726821630873223, 57.824264780477286 ], [ 11.674944898438035, 57.853623119958506 ], [ 11.75656429080273, 57.90405924163138 ], [ 11.745497254549891, 57.939439804595928 ], [ 11.76486456799236, 57.969550922012566 ], [ 11.813282851598535, 57.989875926268802 ], [ 11.813974541364338, 58.075316221938515 ], [ 11.831266785509401, 58.09263011445308 ], [ 11.840950442230636, 58.143442625093655 ], [ 11.863084514736315, 58.156992627931146 ], [ 11.856859306844093, 58.194631524701947 ], [ 11.895593933729034, 58.200653748185275 ], [ 11.847175650122859, 58.269156540308124 ], [ 11.813282851598535, 58.289481544564353 ], [ 11.815357920895943, 58.315828772303917 ], [ 11.765556257758163, 58.33803572139869 ], [ 11.727513320639027, 58.315452383336208 ], [ 11.677019967735443, 58.310935715723716 ], [ 11.670103070077419, 58.274049596888332 ], [ 11.586408608415315, 58.257488482309178 ], [ 11.564274535909636, 58.23791625598836 ], [ 11.505480905816423, 58.245820424310232 ], [ 11.479196694715929, 58.23678708908524 ], [ 11.469513037994693, 58.206299582700893 ], [ 11.415561236262098, 58.198019025411313 ], [ 11.431470100875556, 58.242809312568568 ], [ 11.508247664879633, 58.260123205083133 ], [ 11.536606945277535, 58.30943015985288 ], [ 11.571191433567661, 58.329002386173698 ], [ 11.630676753426675, 58.382826008555938 ], [ 11.627909994363465, 58.400139901070503 ], [ 11.699154040241122, 58.428369073648604 ], [ 11.600934093497168, 58.413689903907994 ], [ 11.572574813099266, 58.476546861515224 ], [ 11.584333539117909, 58.413313514940285 ], [ 11.559432707549018, 58.382826008555938 ], [ 11.574649882396674, 58.364382949138246 ], [ 11.518623011366671, 58.30528988120809 ], [ 11.477121625418521, 58.279695431403951 ], [ 11.39965237164864, 58.316581550239334 ], [ 11.405877579540864, 58.347821834559092 ], [ 11.357459295934689, 58.348574612494509 ], [ 11.463287830102471, 58.45471630138816 ], [ 11.387893645629999, 58.393741288619466 ], [ 11.338783672258021, 58.363630171202828 ], [ 11.302815804436291, 58.373416284363238 ], [ 11.266847936614562, 58.351585724236173 ], [ 11.220504722305794, 58.409173236295494 ], [ 11.261314418488141, 58.445306577195467 ], [ 11.314574530454934, 58.468266304225651 ], [ 11.317341289518144, 58.482192696030843 ], [ 11.250939072001104, 58.523595482478726 ], [ 11.234338517621843, 58.548437154347454 ], [ 11.276531593335797, 58.585699662150546 ], [ 11.281373421696413, 58.607906611245312 ], [ 11.250939072001104, 58.683937182722325 ], [ 11.216354583710979, 58.70953163252647 ], [ 11.174853197762829, 58.717435800848335 ], [ 11.238488656216658, 58.834116380837813 ], [ 11.190762062376287, 58.828846935289903 ], [ 11.142343778770112, 58.849171939546132 ], [ 11.116751257435419, 58.878530279027359 ], [ 11.110526049543196, 58.920309454442943 ], [ 11.167936300104804, 58.936494180054389 ], [ 11.117442947201221, 58.968110853341855 ], [ 11.144418848067518, 58.988059468630382 ], [ 11.127126603922457, 59.022687253659512 ], [ 11.174853197762829, 59.066348373913641 ], [ 11.228804999495424, 59.091566434750078 ], [ 11.347083949447651, 59.113020605909433 ], [ 11.377518299142961, 59.097212269265697 ], [ 11.408644338604073, 59.044894202754286 ], [ 11.452220793849632, 59.011395584628275 ], [ 11.470896417526298, 58.935741402118971 ], [ 11.464671209634076, 58.890198337026305 ], [ 11.535915255511734, 58.886058058381515 ], [ 11.653502515698158, 58.907135840573162 ], [ 11.694312211880506, 58.954937239472081 ], [ 11.703995868601741, 59.02344003159493 ], [ 11.776623294011003, 59.087049767137579 ], [ 11.782156812137423, 59.137109499842744 ], [ 11.772473155416188, 59.1773831193875 ], [ 11.782848501903226, 59.209376181642675 ], [ 11.820891439022363, 59.234594242479112 ], [ 11.836108613870017, 59.24475674460723 ], [ 11.815357920895943, 59.329067873373816 ], [ 11.820199749256561, 59.347510932791508 ], [ 11.786306950732238, 59.377245661240437 ], [ 11.76763132705557, 59.416766502849782 ], [ 11.747572323847297, 59.496937352971578 ], [ 11.70952938672816, 59.543985973935079 ], [ 11.693620522114703, 59.606466542574601 ], [ 11.774548224713596, 59.643352661409985 ], [ 11.862392824970513, 59.648622106957902 ], [ 11.896977313260638, 59.691530449276613 ], [ 11.941245458271998, 59.694541561018269 ], [ 11.934328560613974, 59.721265177725542 ], [ 11.925336593658541, 59.797295749202554 ], [ 11.854092547780883, 59.829288811457729 ], [ 11.946778976398418, 59.893651324935796 ], [ 11.990355431643975, 59.90080271532225 ], [ 12.03877371525015, 59.885747156613931 ], [ 12.181953496771268, 59.889887435258721 ], [ 12.226913331548429, 59.928655498932642 ], [ 12.311991172742138, 59.951615225962826 ], [ 12.360409456348313, 59.977209675766971 ], [ 12.372859872132757, 60.000545791764864 ], [ 12.454479264497452, 60.041195800277329 ], [ 12.502897548103627, 60.107440258593932 ], [ 12.510506135527454, 60.112333315174141 ], [ 12.509814445761652, 60.116849982786633 ], [ 12.540940485222764, 60.177072217619916 ], [ 12.520881482014492, 60.225626394454245 ], [ 12.498055719743009, 60.323863915026024 ], [ 12.563074557728445, 60.359244477990579 ], [ 12.60872608227141, 60.402529209276999 ], [ 12.612184531100421, 60.465762555851938 ], [ 12.594892286955359, 60.541793127328951 ], [ 12.518114722951282, 60.595993138678907 ], [ 12.504280927635232, 60.653957039705929 ], [ 12.39291887534103, 60.733751500860023 ], [ 12.344500591734855, 60.82145013033599 ], [ 12.323749898760781, 60.906137648070285 ], [ 12.236596988269666, 60.99609461135249 ], [ 12.231755159909047, 61.018301560447263 ], [ 12.401910842296463, 61.046154344057655 ], [ 12.522264861546097, 61.052552956508691 ], [ 12.56999145538647, 61.046154344057655 ], [ 12.670978161193634, 61.056316846185773 ], [ 12.706254339249561, 61.144015475661732 ], [ 12.79686569856969, 61.198591875979389 ], [ 12.845975671941666, 61.273493280553282 ], [ 12.872951572807963, 61.360439132093823 ], [ 12.852200879833889, 61.368719689383397 ], [ 12.69449561323092, 61.477872490018719 ], [ 12.623943257119064, 61.536965557948868 ], [ 12.568608075854865, 61.570464176074879 ], [ 12.48422192442696, 61.565571119494678 ], [ 12.396377324170043, 61.574604454719669 ], [ 12.359717766582509, 61.608479461813388 ], [ 12.264956268667568, 61.643860024777936 ], [ 12.141143800588921, 61.718385040384121 ], [ 12.168119701455218, 61.837700343147553 ], [ 12.183336876302873, 61.852003123920454 ], [ 12.219304744124603, 61.976211483264095 ], [ 12.219304744124603, 62.01234482416406 ], [ 12.281556823046827, 62.223499035048242 ], [ 12.300232446723495, 62.265278210463826 ], [ 12.240055437098677, 62.348083783359584 ], [ 12.233830229206454, 62.370290732454357 ], [ 12.172269840050033, 62.457236583994899 ], [ 12.06920806494546, 62.587090777854158 ], [ 12.059524408224226, 62.622847729786415 ], [ 12.103792553235586, 62.679682463910318 ], [ 12.134918592696698, 62.749314422936294 ], [ 12.109326071362005, 62.806525546027913 ], [ 12.089267068153733, 62.882556117504926 ], [ 12.075433272837683, 62.895353342406999 ], [ 12.175036599113243, 62.968372802142348 ], [ 12.226913331548429, 62.998483919558986 ], [ 12.17434490934744, 63.045532540522487 ], [ 12.112092830425215, 63.127961724450536 ], [ 12.060907787755831, 63.170493677801538 ], [ 11.988280362346568, 63.252170083794169 ], [ 11.98067177492274, 63.278893700501435 ], [ 12.032548507357928, 63.309004817918073 ], [ 12.178495047942254, 63.439235400745041 ], [ 12.20754601810596, 63.481390965128334 ], [ 12.166736321923613, 63.55629236970222 ], [ 12.155669285670772, 63.596189600279267 ], [ 12.280865133281026, 63.66168128066046 ], [ 12.335508624779422, 63.723409071364571 ], [ 12.424044914802142, 63.773092415102028 ], [ 12.493213891382393, 63.822022980904059 ], [ 12.697954062059932, 63.981235514244538 ], [ 12.84113384358105, 64.024520245530965 ], [ 12.925519995008955, 64.060277197463222 ], [ 13.145477340534148, 64.088506370041316 ], [ 13.269289808612797, 64.089635536944442 ], [ 13.417311418494531, 64.073827200300713 ], [ 13.458121114676878, 64.075332756171534 ], [ 13.733413641466273, 64.046727194625731 ], [ 13.977580128794555, 64.011723020628892 ], [ 14.103467666170609, 64.147599437971465 ], [ 14.156727778137402, 64.190131391322467 ], [ 14.157419467903205, 64.235298067447431 ], [ 14.126985118207894, 64.378325875176472 ], [ 14.119376530784066, 64.463766170846185 ], [ 14.084792042493943, 64.480703674393041 ], [ 13.900110875024675, 64.509309235938844 ], [ 13.664936354651825, 64.576306472190865 ], [ 13.66078621605701, 64.594373142640848 ], [ 13.70228760200516, 64.641421763604356 ], [ 13.817799792894178, 64.736271783466762 ], [ 13.873826663924181, 64.770146790560489 ], [ 13.907719462448503, 64.807409298363567 ], [ 13.963746333478504, 64.841284305457293 ], [ 14.062657969988262, 64.921831544546805 ], [ 14.172636642750859, 65.002755172604012 ], [ 14.216904787762219, 65.045287125955014 ], [ 14.329650219588027, 65.11717741878725 ], [ 14.347634153498891, 65.185303821942398 ], [ 14.376685123662597, 65.249666335420457 ], [ 14.426486786800377, 65.269614950708984 ], [ 14.512256317759887, 65.322309406188097 ], [ 14.499114212209639, 65.438989986177575 ], [ 14.494964073614824, 65.511256667977506 ], [ 14.52401504377853, 65.579759460100362 ], [ 14.5157147665889, 65.620033079645111 ], [ 14.539923908391987, 65.661435866093001 ], [ 14.534390390265568, 65.688535871767968 ], [ 14.629843577946311, 65.808980341434534 ], [ 14.594567399890384, 65.87108452110634 ], [ 14.562057980897666, 65.973838709290618 ], [ 14.537157149328777, 66.090142900312401 ], [ 14.517098146120503, 66.134556798501933 ], [ 14.948020870215462, 66.148859579274841 ], [ 15.036557160238182, 66.151494302048789 ], [ 15.11955993213448, 66.181229030497718 ], [ 15.216396499346832, 66.201930423721663 ], [ 15.257206195529179, 66.221126261074772 ], [ 15.480621989883385, 66.281724884875757 ], [ 15.459871296909309, 66.335548507257997 ], [ 15.376176835247207, 66.48648048330891 ], [ 15.62864359976512, 66.592622172202553 ], [ 15.666686536884256, 66.634024958650429 ], [ 15.708187922832408, 66.653220796003538 ], [ 15.746922549717347, 66.694623582451413 ], [ 15.847909255524513, 66.769524987025306 ], [ 15.890102331238465, 66.788720824378416 ], [ 16.002156073298469, 66.872655564177293 ], [ 16.030515353696373, 66.909165294044968 ], [ 16.15986133990144, 66.961859749524095 ], [ 16.213121451868233, 66.990088922102188 ], [ 16.354917853857742, 67.038266709968809 ], [ 16.388810652382066, 67.043536155516719 ], [ 16.389502342147868, 67.115802837316664 ], [ 16.402644447698115, 67.183552851504089 ], [ 16.373593477534413, 67.223826471048852 ], [ 16.256006217347988, 67.311148711557109 ], [ 16.253931148050579, 67.324698714394586 ], [ 16.122510092548104, 67.416537622515335 ], [ 16.098300950745017, 67.424818179804916 ], [ 16.152944442243413, 67.520797366570449 ], [ 16.374285167300215, 67.530207090763156 ], [ 16.43100372809602, 67.544886260503759 ], [ 16.558274645003678, 67.642371003140127 ], [ 16.627443621583929, 67.738350189905674 ], [ 16.624676862520719, 67.756040471387948 ], [ 16.703529495822202, 67.870462717571172 ], [ 16.735347225049118, 67.897939112213862 ], [ 16.789990716547514, 67.935201620016954 ], [ 17.100559421392838, 68.030804417814778 ], [ 17.15935305148605, 68.040966919942889 ], [ 17.238205684787534, 68.082746095358473 ], [ 17.270715103780255, 68.114739157613656 ], [ 17.478913723286805, 68.081993317423056 ], [ 17.675353616774714, 68.039461364072054 ], [ 17.811616500637808, 67.991659965173142 ], [ 17.909144757615959, 67.970582182981502 ], [ 17.963096559348553, 68.034191918524144 ], [ 18.087600717193006, 68.130171105289691 ], [ 18.154694624475844, 68.194157229800041 ], [ 18.133943931501772, 68.297287806952028 ], [ 18.099359443211647, 68.423001722166504 ], [ 18.120801825951524, 68.46402811964667 ], [ 18.127027033843746, 68.535918412478892 ], [ 18.344909310071532, 68.574310087185111 ], [ 18.417536735480795, 68.579579532733021 ], [ 18.568325104425739, 68.5314017448664 ], [ 18.606368041544879, 68.509194795771634 ], [ 18.838084113088716, 68.510700351642456 ], [ 18.99717275922329, 68.516346186158074 ], [ 19.206063068495645, 68.476825344548743 ], [ 19.475822077158618, 68.437304502939398 ], [ 19.805758095446411, 68.374823934299883 ], [ 19.926803804461848, 68.356757263849886 ], [ 19.939254220246294, 68.370307266687377 ], [ 20.22008026516211, 68.482847568032071 ], [ 20.17097029179013, 68.505430906094546 ], [ 20.000122919636915, 68.537047579382019 ], [ 19.938562530480489, 68.555114249832002 ], [ 20.073442034811979, 68.59576425834446 ], [ 20.172353671321737, 68.654104548339205 ], [ 20.209013228909271, 68.66313788356419 ], [ 20.271956997597297, 68.74406151162141 ], [ 20.334209076519521, 68.793368466391158 ], [ 20.310691624482235, 68.883701818641072 ], [ 20.31138331424804, 68.928868494766036 ], [ 20.249131235325812, 68.946935165216019 ], [ 20.062374998559136, 69.045925463723222 ], [ 20.312766693779643, 69.050442131335714 ], [ 20.563850078765952, 69.058722688625295 ], [ 20.638552573472619, 69.035762961595097 ], [ 20.738155899748179, 69.035386572627388 ], [ 20.81285839445485, 69.021836569789912 ], [ 20.849517952042383, 68.989843507534729 ], [ 20.923528756983252, 68.96726016947224 ], [ 20.922145377451645, 68.944676831409765 ], [ 20.871652024548062, 68.917953214702507 ], [ 20.994081113095106, 68.881067095867124 ], [ 21.043882776232884, 68.885207374511907 ], [ 21.251389705973637, 68.807294858196357 ], [ 21.322633751851292, 68.757235125491192 ], [ 21.396644556792161, 68.756858736523483 ], [ 21.418086939532039, 68.698142057561029 ], [ 21.490022675175496, 68.670289273950644 ], [ 21.588242621919452, 68.669536496015226 ], [ 21.696837915150443, 68.632650377179843 ], [ 21.705138192340073, 68.587483701054893 ], [ 21.876677254259093, 68.581085088603857 ], [ 21.995647893977122, 68.539305913188258 ], [ 22.016398586951198, 68.498279515708091 ], [ 22.063433491025769, 68.475319788677908 ], [ 22.184479200041206, 68.464780897582088 ], [ 22.344259535941582, 68.476448955581034 ], [ 22.365010228915658, 68.43993922571336 ], [ 22.44040441338813, 68.456876729260216 ], [ 22.4867476276969, 68.433917002230032 ], [ 22.654828240786905, 68.413215609006087 ], [ 22.74820635917024, 68.380469768815487 ], [ 22.83397589012975, 68.383480880557158 ], [ 22.854726583103826, 68.356004485914482 ], [ 23.089209413710876, 68.289007249662461 ], [ 23.085750964881861, 68.26190724398748 ], [ 23.167370357246554, 68.238194739021878 ], [ 23.154919941462111, 68.148237775739673 ], [ 23.175670634436187, 68.125278048709475 ], [ 23.275273960711747, 68.14597944193342 ], [ 23.311241828533475, 68.145226663998002 ], [ 23.354126594013231, 68.108340545162619 ], [ 23.382485874411135, 68.053764144844962 ], [ 23.484164269984099, 68.010855802526251 ], [ 23.554716626095956, 68.005209968010632 ], [ 23.551258177266945, 67.982626629948157 ], [ 23.632185879865837, 67.96267801465963 ], [ 23.676454024877195, 67.939341898661738 ], [ 23.659853470497936, 67.908101614341973 ], [ 23.560941833988178, 67.887776610085737 ], [ 23.509756791318793, 67.861805771313897 ], [ 23.487622718813114, 67.794432146094152 ], [ 23.509756791318793, 67.785022421901459 ], [ 23.495231306236938, 67.686032123394256 ], [ 23.50283989366077, 67.654415450106782 ], [ 23.556791695393365, 67.621669609916196 ], [ 23.548491418203731, 67.567845987533957 ], [ 23.476555682560274, 67.555801540567302 ], [ 23.482780890452496, 67.519668199667336 ], [ 23.407386705980024, 67.485040414638192 ], [ 23.426754019422496, 67.45304735238301 ], [ 23.471713854199656, 67.443261239222608 ], [ 23.542957900077312, 67.450789018576771 ], [ 23.773290592089545, 67.423312623934081 ], [ 23.744239621925843, 67.387932060969533 ], [ 23.749081450286461, 67.342765384844569 ], [ 23.782974248810781, 67.337495939296659 ], [ 23.738014414033618, 67.270875092012346 ], [ 23.67991247370621, 67.272004258915473 ], [ 23.572008870241021, 67.251679254659237 ], [ 23.566475352114601, 67.211405635114488 ], [ 23.59967646087312, 67.201619521954086 ], [ 23.569242111177807, 67.152688956152048 ], [ 23.675762335111393, 67.091713943383354 ], [ 23.692362889490653, 67.04654726725839 ], [ 23.871510538833501, 66.943040301138694 ], [ 23.88811109321276, 66.902390292626222 ], [ 23.898486439699798, 66.897497236046021 ], [ 24.011231871525606, 66.813562496247144 ], [ 23.99324793761474, 66.773288876702395 ], [ 23.926845720097702, 66.784204156765924 ], [ 23.899869819231405, 66.75785692902636 ], [ 23.901253198763008, 66.694623582451413 ], [ 23.879810816023131, 66.555359664399461 ], [ 23.808566770145475, 66.53465827117553 ], [ 23.804416631550659, 66.507558265500549 ], [ 23.733864275438805, 66.486856872276604 ], [ 23.71933879035695, 66.464649923181838 ], [ 23.661236850029539, 66.452229087247474 ], [ 23.655011642137318, 66.407438800090233 ], [ 23.68544599183263, 66.388619351704833 ], [ 23.659853470497936, 66.285488774552846 ], [ 23.704813305275099, 66.212469314817483 ], [ 23.744931311691644, 66.184616531207098 ], [ 23.800266492955842, 66.17859430772377 ], [ 23.874277297896711, 66.15450541379046 ], [ 23.939987825647947, 66.148483190307132 ], [ 23.939987825647947, 66.076216508507201 ], [ 23.969038795811652, 66.048363724896802 ], [ 24.049966498410548, 66.001315103933308 ], [ 24.042357910986716, 65.952008149163561 ], [ 24.103918300143143, 65.923402587617758 ], [ 24.110835197801165, 65.896302581942777 ], [ 24.15925348140734, 65.854523406527193 ], [ 24.148186445154501, 65.814626175950139 ], [ 24.08731774576388, 65.8123678421439 ], [ 23.993939627380541, 65.791666448919955 ], [ 23.946213033540168, 65.799570617241827 ], [ 23.91024516571844, 65.766824777051227 ], [ 23.856293363985845, 65.804087284854319 ], [ 23.818942116632513, 65.781127557824135 ], [ 23.774673971621151, 65.793924782726208 ], [ 23.735247654970408, 65.8311872905293 ], [ 23.681295853237813, 65.835327569174083 ], [ 23.635644328694848, 65.793924782726208 ], [ 23.578925767899044, 65.790913670984537 ], [ 23.510448481084595, 65.814626175950139 ], [ 23.427445709188298, 65.820272010465771 ], [ 23.384560943708543, 65.7796220019533 ], [ 23.348593075886811, 65.805592840725154 ], [ 23.303633241109651, 65.790160893049119 ], [ 23.190887809283844, 65.824412289110555 ], [ 23.190196119518038, 65.792042837887664 ], [ 23.282882548135575, 65.741230327247081 ], [ 23.106501657855937, 65.716765044346062 ], [ 23.053933235654945, 65.754027552149154 ], [ 23.020732126896426, 65.74988727350437 ], [ 22.945337942423954, 65.776610890211643 ], [ 22.83950940825617, 65.795806727564752 ], [ 22.838817718490368, 65.82253034427201 ], [ 22.779332398631354, 65.862427574849065 ], [ 22.668662036102955, 65.904206750264649 ], [ 22.708088352753698, 65.830810901561591 ], [ 22.680420762121599, 65.776610890211643 ], [ 22.618860372965173, 65.806345618660572 ], [ 22.553841534979739, 65.787526170275171 ], [ 22.444554551982947, 65.858663685171976 ], [ 22.368468677744673, 65.842102570592829 ], [ 22.370543747042078, 65.7984414503387 ], [ 22.294457872803804, 65.77435255640539 ], [ 22.347717984770597, 65.742359494150207 ], [ 22.308983357885655, 65.725421990603351 ], [ 22.356018261960223, 65.702085874605459 ], [ 22.362243469852448, 65.666705311640911 ], [ 22.303449839759235, 65.668210867511732 ], [ 22.387144301421337, 65.62040946861282 ], [ 22.317283635075285, 65.607988632678456 ], [ 22.387144301421337, 65.566209457262872 ], [ 22.3207420839043, 65.562445567585797 ], [ 22.219063688331332, 65.570726124875364 ], [ 22.197621305591454, 65.558305288941 ], [ 22.085567563531448, 65.612505300290962 ], [ 22.010865068824778, 65.603471965065964 ], [ 22.00602324046416, 65.639228916998221 ], [ 21.952071438731565, 65.646003918416966 ], [ 21.902269775593787, 65.668587256479441 ], [ 21.843476145500574, 65.670845590285694 ], [ 21.779148997280942, 65.716765044346062 ], [ 21.787449274470571, 65.696816429057549 ], [ 21.788140964236373, 65.69644004008984 ], [ 21.797824620957609, 65.687406704864841 ], [ 21.819267003697487, 65.669340034414859 ], [ 21.935470884352306, 65.63734697215969 ], [ 22.012248448356381, 65.589545573260764 ], [ 22.110468395100337, 65.581265015971198 ], [ 22.158886678706512, 65.534969172943107 ], [ 22.133294157371822, 65.512385834880632 ], [ 22.077267286341819, 65.526688615653541 ], [ 21.99772296327453, 65.512385834880632 ], [ 21.883594151917119, 65.527065004621249 ], [ 22.004639860932556, 65.453669155918192 ], [ 21.98388916795848, 65.415277481211973 ], [ 21.931320745757489, 65.441624708951537 ], [ 21.887052600746131, 65.408126090825519 ], [ 21.871143736132673, 65.400598311471356 ], [ 21.744564508990816, 65.398339977665117 ], [ 21.694071156087233, 65.411889980502593 ], [ 21.631127387399207, 65.406244145986975 ], [ 21.558499961989945, 65.425063594372375 ], [ 21.554349823395128, 65.395705254891155 ], [ 21.508698298852163, 65.385919141730753 ], [ 21.487255916112286, 65.352044134637026 ], [ 21.636660905525627, 65.323438573091224 ], [ 21.624902179506982, 65.300102457093331 ], [ 21.671245393815752, 65.286928843223549 ], [ 21.668478634752539, 65.265098283096478 ], [ 21.525298853231426, 65.227459386325691 ], [ 21.588934311685254, 65.150676036913254 ], [ 21.516306886275991, 65.139007978914307 ], [ 21.534982509952659, 65.114166307045579 ], [ 21.509389988617968, 65.062601018469593 ], [ 21.449904668758954, 65.016681564409211 ], [ 21.401486385152779, 65.009906562990466 ], [ 21.356526550375612, 64.983182946283208 ], [ 21.326783890446109, 64.962481553059263 ], [ 21.2417060492524, 64.947802383318646 ], [ 21.2417060492524, 64.922960711449917 ], [ 21.202279732601657, 64.900000984419734 ], [ 21.210580009791286, 64.871019033906222 ], [ 21.160778346653508, 64.846177362037494 ], [ 21.133110756021409, 64.816819022556274 ], [ 21.025207152556217, 64.856339864165605 ], [ 21.002381390284732, 64.843919028231241 ], [ 21.117893581173753, 64.795364851396911 ], [ 21.124810478831776, 64.77503984714069 ], [ 21.245856187847217, 64.779180125785473 ], [ 21.295657850984995, 64.753585675981327 ], [ 21.213346768854496, 64.738153728305306 ], [ 21.290816022624377, 64.68508288385847 ], [ 21.210580009791286, 64.68320093901994 ], [ 21.185679178222397, 64.658359267151212 ], [ 21.23893929018919, 64.64217454153976 ], [ 21.247931257144621, 64.606417589607503 ], [ 21.295657850984995, 64.603782866833555 ], [ 21.314333474661662, 64.581199528771066 ], [ 21.379352312647097, 64.601900921995011 ], [ 21.420853698595245, 64.56238008038568 ], [ 21.483105777517473, 64.570284248707537 ], [ 21.472730431030435, 64.449839779040985 ], [ 21.519073645339201, 64.466777282587842 ], [ 21.615910212551551, 64.445323111428493 ], [ 21.512156747681175, 64.408813381560819 ], [ 21.46927198220142, 64.378702264144181 ], [ 21.459588325480187, 64.350473091566073 ], [ 21.407019903279199, 64.343321701179619 ], [ 21.271448709181907, 64.286110578088014 ], [ 21.211271699557088, 64.27030224144427 ], [ 21.128960617426593, 64.200670282418301 ], [ 21.046649535296094, 64.193142503064138 ], [ 21.020365324195602, 64.158891107002717 ], [ 20.97333042012103, 64.150610549713136 ], [ 20.947737898786336, 64.122757766102751 ], [ 20.958804935039176, 64.094152204556934 ], [ 20.942896070425718, 64.06291192023717 ], [ 20.896552856116955, 64.029789691078875 ], [ 20.916611859325226, 64.014734132370549 ], [ 20.885485819864112, 63.974836901793502 ], [ 20.821158671644479, 63.939456338828954 ], [ 20.760289972253858, 63.864554934255068 ], [ 20.723630414666328, 63.864554934255068 ], [ 20.723630414666328, 63.862672989416524 ], [ 20.737464209982377, 63.856274376965487 ], [ 20.733314071387561, 63.856274376965487 ], [ 20.725013794197935, 63.857027154900905 ], [ 20.723630414666328, 63.858156321804032 ], [ 20.727088863495339, 63.841595207224877 ], [ 20.668986923167928, 63.852134098320704 ], [ 20.673137061762745, 63.814118812582194 ], [ 20.568691907126567, 63.804332699421785 ], [ 20.554858111810518, 63.785889640004093 ], [ 20.57422542525299, 63.735829907298935 ], [ 20.53341572907064, 63.735453518331227 ], [ 20.520273623520392, 63.77233963716661 ], [ 20.468396891085206, 63.773092415102028 ], [ 20.443496059516313, 63.762553524006201 ], [ 20.419978607479031, 63.692168787044807 ], [ 20.393694396378535, 63.670714615885451 ], [ 20.345967802538162, 63.700072955366672 ], [ 20.366718495512238, 63.720774348590609 ], [ 20.34804287183557, 63.745992409427046 ], [ 20.298241208697789, 63.732818795557264 ], [ 20.326600489095693, 63.698567399495843 ], [ 20.253973063686431, 63.669209060014623 ], [ 20.108026523102104, 63.65227155646776 ], [ 20.064450067856548, 63.672972949691697 ], [ 19.998047850339507, 63.660552113757333 ], [ 19.979372226662839, 63.610492381052168 ], [ 19.935104081651481, 63.622913216986532 ], [ 19.881152279918886, 63.606352102407385 ], [ 19.820283580528262, 63.554786813831392 ], [ 19.746272775587396, 63.535214587510573 ], [ 19.748347844884805, 63.533332642672036 ], [ 19.750422914182209, 63.528439586091835 ], [ 19.762181640200854, 63.464453461581471 ], [ 19.660503244627886, 63.431331232423169 ], [ 19.585109060155414, 63.502092358352272 ], [ 19.585109060155414, 63.524299307447045 ], [ 19.524932050530595, 63.535590976478282 ], [ 19.473055318095412, 63.570971539442837 ], [ 19.429478862849852, 63.521288195705381 ], [ 19.467521799968992, 63.494188190030407 ], [ 19.444004347931703, 63.456172904291897 ], [ 19.389360856433306, 63.460313182936687 ], [ 19.346476090953551, 63.439988178680451 ], [ 19.286299081328735, 63.470475685064798 ], [ 19.25448135210182, 63.436977066938795 ], [ 19.252406282804412, 63.335352045657636 ], [ 19.174937029034531, 63.320672875917026 ], [ 19.13481902261799, 63.327447877335764 ], [ 19.109918191049097, 63.246524249278551 ], [ 19.060116527911319, 63.208508963540041 ], [ 18.990947551331068, 63.210014519410876 ], [ 18.924545333814027, 63.247277027213968 ], [ 18.885119017163284, 63.233350635408769 ], [ 18.880968878568471, 63.203992295927549 ], [ 18.827017076835876, 63.214531187023368 ], [ 18.704587988288832, 63.165224232253621 ], [ 18.635419011708585, 63.185549236509857 ], [ 18.585617348570803, 63.173504789543202 ], [ 18.603601282481669, 63.145275616965101 ], [ 18.575242002083765, 63.120810334064082 ], [ 18.533048926369815, 63.104625608452636 ], [ 18.505381335737713, 63.069245045488088 ], [ 18.470796847447588, 63.029347814911041 ], [ 18.416845045714993, 63.064728377875589 ], [ 18.295799336699556, 63.018808923815214 ], [ 18.316550029673632, 62.983428360850667 ], [ 18.402319560633142, 63.00638808788085 ], [ 18.53512399566722, 62.989450584333994 ], [ 18.54342427285685, 62.95821030001423 ], [ 18.462496570257958, 62.971007524916303 ], [ 18.42099518430981, 62.945789464079866 ], [ 18.51229823339574, 62.934874184016337 ], [ 18.486705712061045, 62.908903345244482 ], [ 18.42099518430981, 62.912667234921564 ], [ 18.455579672599931, 62.875404727118472 ], [ 18.347676069134742, 62.835507496541425 ], [ 18.293032577636346, 62.895353342406999 ], [ 18.248072742859183, 62.899870010019491 ], [ 18.200346149018813, 62.861854724280988 ], [ 18.212104875037454, 62.84228249796017 ], [ 18.284732300446716, 62.85169222215287 ], [ 18.27228188466227, 62.821204715768523 ], [ 18.223171911290294, 62.795986654932086 ], [ 18.177520386747329, 62.794104710093549 ], [ 18.111809858996089, 62.770392205127948 ], [ 18.056474677731892, 62.797868599770631 ], [ 18.154002934710043, 62.812547769511241 ], [ 18.05024946983967, 62.852068611120579 ], [ 17.974855285367198, 62.833249162735179 ], [ 17.91813672457139, 62.841153331057043 ], [ 17.883552236281268, 62.912667234921564 ], [ 17.855884645649166, 62.941272796467373 ], [ 17.794324256492743, 62.967243635239221 ], [ 17.826141985719659, 63.003753365106896 ], [ 17.78740735883472, 63.018056145879797 ], [ 17.79017411789793, 63.037251983232906 ], [ 17.786715669068919, 63.047414485361024 ], [ 17.750056111481385, 62.97288946975484 ], [ 17.779798771410892, 62.942025574402791 ], [ 17.816458328998422, 62.939767240596538 ], [ 17.853809576351757, 62.907774178341363 ], [ 17.87594364885744, 62.831367217896641 ], [ 17.87594364885744, 62.826850550284142 ], [ 17.880785477218055, 62.823463049574769 ], [ 17.930587140355836, 62.793351932158131 ], [ 17.929895450590035, 62.769263038224821 ], [ 17.97001345700658, 62.74028108771131 ], [ 17.989380770449049, 62.703771357843635 ], [ 17.954104592393122, 62.643925511978061 ], [ 18.018431740612755, 62.635268565720779 ], [ 18.059933126560903, 62.610803282819759 ], [ 17.976930354664603, 62.564507439791676 ], [ 17.911219826913367, 62.587090777854158 ], [ 17.905686308786947, 62.54832271418023 ], [ 17.879402097686452, 62.511060206377138 ], [ 17.817150018764227, 62.491111591088618 ], [ 17.732763867336324, 62.508425483603183 ], [ 17.681578824666936, 62.493369924894864 ], [ 17.656677993098047, 62.462882418510517 ], [ 17.73553062639953, 62.410564351999106 ], [ 17.725155279912492, 62.39776712709704 ], [ 17.624860263871131, 62.431265745223051 ], [ 17.52733200689298, 62.452719916382406 ], [ 17.518340039937549, 62.484712978637582 ], [ 17.478913723286805, 62.512565762247974 ], [ 17.335733941765689, 62.486971312443828 ], [ 17.357176324505566, 62.464387974381353 ], [ 17.395219261624703, 62.435029634900125 ], [ 17.397294330922108, 62.400401849870995 ], [ 17.372393499353219, 62.372549066260603 ], [ 17.364784911929391, 62.334910169489802 ], [ 17.428420370383222, 62.330769890845019 ], [ 17.468538376799767, 62.299529606525255 ], [ 17.458854720078534, 62.26301987665758 ], [ 17.658061372629653, 62.235543482014897 ], [ 17.641460818250394, 62.217100422597206 ], [ 17.575058600733353, 62.189624027954522 ], [ 17.564683254246315, 62.227262924725316 ], [ 17.502431175324091, 62.229144869563861 ], [ 17.52733200689298, 62.166664300924332 ], [ 17.482372172115817, 62.132789293830612 ], [ 17.453321201952114, 62.05562955545048 ], [ 17.458163030312729, 62.000676766165114 ], [ 17.386227294669268, 61.98900870816616 ], [ 17.34195914965791, 61.956262867975568 ], [ 17.337809011063094, 61.907708691141238 ], [ 17.359943083568776, 61.8681878495319 ], [ 17.322591836215441, 61.842969788695463 ], [ 17.354409565442353, 61.814740616117362 ], [ 17.408361367174951, 61.816622560955906 ], [ 17.364784911929391, 61.777101719346568 ], [ 17.394527571858902, 61.718385040384121 ], [ 17.456087961015321, 61.731182265286193 ], [ 17.516956660405942, 61.693919757483101 ], [ 17.485138931179026, 61.621276686715461 ], [ 17.438104027104458, 61.621276686715461 ], [ 17.373085189119024, 61.671336419420619 ], [ 17.279707070735686, 61.67547669806541 ], [ 17.254114549400992, 61.725160041802866 ], [ 17.189787401181359, 61.702200314772675 ], [ 17.25342285963519, 61.672465586323746 ], [ 17.234055546192721, 61.642354468907108 ], [ 17.128918701790742, 61.633321133682117 ], [ 17.239589064319141, 61.606221128007142 ], [ 17.151744464062222, 61.606221128007142 ], [ 17.13099377108815, 61.604339183168598 ], [ 17.119235045069505, 61.50685444053223 ], [ 17.172495157036298, 61.48690582524371 ], [ 17.135835599448765, 61.451525262279155 ], [ 17.210538094155435, 61.420661366927106 ], [ 17.086033936310987, 61.415391921379189 ], [ 17.110243078114074, 61.375118301834434 ], [ 17.189787401181359, 61.32769329190323 ], [ 17.1731868468021, 61.277257170230357 ], [ 17.196012609073584, 61.220798825074162 ], [ 17.16488656961247, 61.189558540754398 ], [ 17.18148712399173, 61.156436311596096 ], [ 17.182870503523336, 61.067232126249301 ], [ 17.155202912891234, 61.048412677863901 ], [ 17.185637262586546, 61.025076561866008 ], [ 17.144135876638394, 61.005880724512899 ], [ 17.171111777504692, 60.987437665095207 ], [ 17.142060807340989, 60.944152933808795 ], [ 17.198087678370989, 60.927215430261931 ], [ 17.195320919307779, 60.909901537747366 ], [ 17.243047513148152, 60.889200144523429 ], [ 17.289390727456919, 60.847420969107837 ], [ 17.240280754084942, 60.809029294401626 ], [ 17.326741974810254, 60.808276516466208 ], [ 17.292157486520132, 60.784940400468315 ], [ 17.353717875676551, 60.752570949245424 ], [ 17.283165519564697, 60.726976499441285 ], [ 17.225063579237286, 60.693854270282976 ], [ 17.314983248791613, 60.693101492347566 ], [ 17.378618707245444, 60.652451483835101 ], [ 17.364093222163589, 60.603144529065354 ], [ 17.299766073943957, 60.498508396042531 ], [ 17.285932278627907, 60.439791717080091 ], [ 17.213996542984447, 60.429252825984264 ], [ 17.189787401181359, 60.39274309611659 ], [ 17.211921473687042, 60.348329197927043 ], [ 17.194629229541977, 60.33891947373435 ], [ 17.198779368136794, 60.294129186577095 ], [ 17.163503190080867, 60.279826405804194 ], [ 17.108859698582467, 60.278697238901067 ], [ 17.074966900058143, 60.255361122903174 ], [ 16.963604847763943, 60.279826405804194 ], [ 16.91034473579715, 60.274180571288575 ], [ 16.879218696336039, 60.219604170970918 ], [ 16.81627492764801, 60.209065279875091 ], [ 16.783073818889491, 60.181212496264699 ], [ 16.709754703714424, 60.188363886651153 ], [ 16.740189053409736, 60.157499991299098 ], [ 16.743647502238748, 60.121743039366841 ], [ 16.709754703714424, 60.10292359098144 ], [ 16.704912875353809, 60.057756914856483 ], [ 16.723588499030477, 60.049476357566903 ], [ 16.740189053409736, 59.97344578608989 ], [ 16.797599303971342, 59.943334668673252 ], [ 16.804516201629369, 59.87144437584103 ], [ 16.823191825306036, 59.858270761971248 ], [ 16.810049719755789, 59.808587418233792 ], [ 16.73327215575171, 59.770948521462998 ], [ 16.780998749592083, 59.740461015078651 ], [ 16.783765508655293, 59.709220730758886 ], [ 16.841175759216902, 59.674592945729749 ], [ 16.915186564157768, 59.545867918773617 ], [ 16.971213435187771, 59.511240133744479 ], [ 16.955996260340115, 59.483763739101803 ], [ 16.886135593994062, 59.473224848005977 ], [ 16.831492102495666, 59.494302630197623 ], [ 16.751947779428377, 59.492420685359086 ], [ 16.708371324182821, 59.482258183230968 ], [ 16.646810935026398, 59.480752627360133 ], [ 16.489105668423427, 59.458545678265367 ], [ 16.269148322898232, 59.44800678716954 ], [ 16.260156355942801, 59.447630398201831 ], [ 16.256697907113789, 59.402840111044583 ], [ 16.270531702429839, 59.353533156274835 ], [ 16.184070481704527, 59.342241487243598 ], [ 16.077550257770941, 59.343370654146725 ], [ 16.049190977373041, 59.36068454666129 ], [ 15.997314244937851, 59.354662323177962 ], [ 15.946129202268466, 59.335090096857144 ], [ 15.88318543358044, 59.274491473056159 ], [ 15.897710918662291, 59.22556090725412 ], [ 15.769748311988831, 59.194320622934356 ], [ 15.770440001754633, 59.189803955321864 ], [ 15.771823381286238, 59.176253952484373 ], [ 15.807099559342165, 59.10549282655527 ], [ 15.720638338616851, 59.098341436168823 ], [ 15.715104820490431, 59.07086504152614 ], [ 15.639710636017959, 59.046023369657412 ], [ 15.627260220233515, 59.004996972177238 ], [ 15.692279058218951, 58.975638632696018 ], [ 15.556016174355857, 58.948538627021044 ], [ 15.597517560304007, 58.895844171541924 ], [ 15.541490689274006, 58.858205274771123 ], [ 15.44603750159326, 58.85481777406175 ], [ 15.459871296909309, 58.814544154517002 ], [ 15.417678221195358, 58.804005263421175 ], [ 15.395544148689677, 58.839385826385723 ], [ 15.344359106020292, 58.832987213934693 ], [ 15.280031957800659, 58.857828885803414 ], [ 15.224696776536462, 58.819813600064911 ], [ 15.123710070729295, 58.793466372325355 ], [ 15.127860209324112, 58.766366366650374 ], [ 15.077366856420529, 58.755451086586845 ], [ 15.033098711409169, 58.699745519366061 ], [ 14.905136104735707, 58.685819127560869 ], [ 14.782015326422862, 58.640276062468203 ], [ 14.737055491645698, 58.593227441504702 ], [ 14.696245795463351, 58.519455203833935 ], [ 14.629151888180509, 58.449070466872541 ], [ 14.582808673871742, 58.415571848746531 ], [ 14.546149116284209, 58.373416284363238 ], [ 14.524706733544331, 58.350080168365345 ], [ 14.502572661038652, 58.326367663399736 ], [ 14.413344681250129, 58.182963466702994 ], [ 14.372534985067782, 58.172048186639465 ], [ 14.311666285677163, 58.124246787740553 ], [ 14.16710312462444, 58.1219884539343 ], [ 14.130443567036908, 58.138549568513454 ], [ 14.11730146148666, 58.061389830133315 ], [ 14.07026655741209, 58.036548158264587 ], [ 14.0730333164753, 58.018481487814604 ], [ 13.965821402775912, 58.000038428396913 ], [ 13.943687330270233, 58.030525934781259 ], [ 13.89042721830344, 58.041441214844795 ], [ 13.831633588210227, 58.038430103103131 ], [ 13.786673753433066, 58.049721772134369 ], [ 13.778373476243434, 57.999662039429204 ], [ 13.72165491544763, 57.983477313817765 ], [ 13.732030261934668, 57.925137023823027 ], [ 13.765231370693188, 57.931535636274063 ], [ 13.795665720388499, 57.901424518857425 ], [ 13.738947159592692, 57.840073117121023 ], [ 13.752780954908744, 57.759525878031511 ], [ 13.723038294979235, 57.7354369840982 ], [ 13.704362671302569, 57.698550865262817 ], [ 13.728571813105656, 57.654513356040979 ], [ 13.66908649324664, 57.610852235786858 ], [ 13.696062394112937, 57.553641112695239 ], [ 13.67462001137306, 57.529928607729637 ], [ 13.604759345027007, 57.49944110134529 ], [ 13.586083721350342, 57.462178593542198 ], [ 13.542507266104783, 57.423786918835987 ], [ 13.510689536877868, 57.41324802774016 ], [ 13.477488428119347, 57.366199406776666 ], [ 13.440137180766014, 57.341734123875646 ], [ 13.391027207394036, 57.334582733489192 ], [ 13.36197623723033, 57.310493839555882 ], [ 13.289348811821068, 57.297696614653809 ], [ 13.27343994720761, 57.246884104013233 ], [ 13.214646317114399, 57.248389659884062 ], [ 13.162077894913409, 57.173111866342467 ], [ 13.101900885288591, 57.138107692345621 ], [ 13.085992020675134, 57.092188238285246 ], [ 13.124034957794271, 57.022179890291561 ], [ 13.177295069761064, 57.047774340095707 ], [ 13.236780389620078, 57.086918792737336 ], [ 13.341917234022059, 57.101974351445655 ], [ 13.424228316152556, 57.106114630090445 ], [ 13.53628205821256, 57.0805201802863 ], [ 13.574324995331699, 57.055678508417571 ], [ 13.606834414324416, 57.057184064288407 ], [ 13.608909483621822, 56.998843774293668 ], [ 13.689145496454913, 56.966850712038486 ], [ 13.714046328023803, 57.013146555066569 ], [ 13.752780954908744, 57.028954891710306 ], [ 13.803965997578128, 57.022179890291561 ], [ 13.842008934697265, 56.992821550810341 ], [ 13.928470155422577, 57.019545167517606 ], [ 13.92639508612517, 57.033095170355097 ], [ 14.016314755679495, 57.042128505580088 ], [ 14.091708940151968, 57.036482671064469 ], [ 14.103467666170609, 57.014652110937405 ], [ 14.183011989237897, 56.982282659714514 ], [ 14.21413802869901, 56.943138207072884 ], [ 14.228663513780862, 56.903240976495837 ], [ 14.257022794178765, 56.877646526691699 ], [ 14.29990755965852, 56.870871525272953 ], [ 14.331725288885433, 56.876893748756281 ], [ 14.34417570466988, 56.904370143398964 ], [ 14.382218641789017, 56.923942369719782 ], [ 14.392593988276055, 56.965345156167658 ], [ 14.370459915770375, 57.000349330164497 ], [ 14.336567117246052, 57.007500720550951 ], [ 14.33864218654346, 57.048150729063416 ], [ 14.362851328346547, 57.049279895966535 ], [ 14.356626120454324, 57.143753526861246 ], [ 14.398127506402474, 57.145635471699784 ], [ 14.471446621577538, 57.153539640021648 ], [ 14.489430555488404, 57.145259082732075 ], [ 14.546149116284209, 57.156927140731021 ], [ 14.559291221834457, 57.179886867761212 ], [ 14.618084851927669, 57.173488255310176 ], [ 14.614626403098656, 57.19607159337265 ], [ 14.696937485229153, 57.203975761694522 ], [ 14.719763247500637, 57.218654931435132 ], [ 14.78685715478348, 57.216772986596595 ], [ 14.840117266750271, 57.192307703695576 ], [ 14.881618652698421, 57.189296591953912 ], [ 14.907211174033113, 57.127568801249801 ], [ 14.99782253335324, 57.130956301959174 ], [ 15.010964638903488, 57.158809085569565 ], [ 15.066991509933491, 57.174617422213295 ], [ 15.123710070729295, 57.18590909124454 ], [ 15.152069351127199, 57.218278542467424 ], [ 15.226771845833868, 57.221289654209087 ], [ 15.261356334123994, 57.213761874854931 ], [ 15.384477112436837, 57.222795210079923 ], [ 15.428053567682396, 57.206610484468477 ], [ 15.52073999629993, 57.196447982340359 ], [ 15.530423653021165, 57.187791036083077 ], [ 15.565699831077094, 57.170853532536221 ], [ 15.552557725526846, 57.138860470281038 ], [ 15.637635566720553, 57.124181300540428 ], [ 15.640402325783763, 57.101597962477946 ], [ 15.736547203230309, 57.055678508417571 ], [ 15.782198727773274, 57.016534055775942 ], [ 15.835458839740067, 56.986799327327013 ], [ 15.840992357866487, 56.937492372557266 ], [ 15.803641110513151, 56.904746532366673 ], [ 15.688128919624134, 56.905122921334382 ], [ 15.647319223441787, 56.899477086818763 ], [ 15.612734735151662, 56.91603820139791 ], [ 15.546332517634623, 56.918296535204156 ], [ 15.524198445128942, 56.894960419206264 ], [ 15.550482656229438, 56.88667986191669 ], [ 15.557399553887462, 56.82871596088966 ], [ 15.544949138103018, 56.796722898634478 ], [ 15.446729191359063, 56.788442341344904 ], [ 15.43220370627721, 56.774515949539705 ], [ 15.367184868291776, 56.77188122676575 ], [ 15.421828359790172, 56.657082591614817 ], [ 15.409377944005728, 56.625089529359634 ], [ 15.372026696652393, 56.596483967813832 ], [ 15.392777389626467, 56.565620072461776 ], [ 15.35473445250733, 56.541907567496175 ], [ 15.34366741625449, 56.496364502403509 ], [ 15.36303472969696, 56.474533942276445 ], [ 15.410069633771531, 56.489965889952472 ], [ 15.485463818244003, 56.470393663631654 ], [ 15.52350675536314, 56.494106168597256 ], [ 15.597517560304007, 56.487707556146219 ], [ 15.599592629601414, 56.470017274663945 ], [ 15.66737822665006, 56.449692270407716 ], [ 15.677061883371294, 56.436518656537935 ], [ 15.728246926040679, 56.411676984669207 ], [ 15.801566041215745, 56.337528358030738 ], [ 15.827850252316239, 56.320590854483875 ], [ 15.88595219264365, 56.308922796484929 ], [ 15.958579618052912, 56.311557519258884 ], [ 16.001464383532667, 56.290479737067237 ], [ 16.053341115967854, 56.314568631000547 ], [ 16.053341115967854, 56.287845014293282 ], [ 16.019448317443533, 56.24531306094228 ], [ 16.015298178848717, 56.22122416700897 ], [ 15.959962997584517, 56.196006106172533 ], [ 15.947512581800073, 56.171164434303805 ], [ 15.906702885617726, 56.147828318305912 ], [ 15.881110364283032, 56.107931087728865 ], [ 15.84998432482192, 56.082713026892428 ], [ 15.782198727773274, 56.116588033986147 ], [ 15.75868127573599, 56.107931087728865 ], [ 15.67567850383969, 56.154979708692359 ], [ 15.642477395081169, 56.191113049592325 ], [ 15.616193183980675, 56.170788045336096 ], [ 15.564316451545487, 56.185843604044415 ], [ 15.496530854496843, 56.17379915707776 ], [ 15.466096504801532, 56.168153322562141 ], [ 15.403152736113505, 56.180574158496505 ], [ 15.401769356581902, 56.160249154240276 ], [ 15.367876558057578, 56.130890814759049 ], [ 15.302857720072144, 56.124868591275721 ], [ 15.255822815997572, 56.174928323980886 ], [ 15.215013119815225, 56.152721374886113 ], [ 15.081516995015344, 56.151592207982986 ], [ 15.067683199699292, 56.177563046754841 ], [ 15.015806467264106, 56.150463041079867 ], [ 14.972230012018549, 56.170035267400678 ], [ 14.936953833962621, 56.156861653530903 ], [ 14.856717821129532, 56.147075540370494 ], [ 14.740513940474711, 56.160249154240276 ], [ 14.678261861552485, 56.153474152821531 ], [ 14.675495102489275, 56.126374147146556 ], [ 14.728755214456069, 56.089864417278882 ], [ 14.72391338609545, 56.061635244700781 ], [ 14.782015326422862, 56.035288016961218 ], [ 14.752272666493354, 56.00931717818937 ], [ 14.713538039608414, 55.996896342255006 ], [ 14.610476264503841, 55.999154676061252 ], [ 14.557907842302852, 56.033406072122681 ], [ 14.550990944644827, 56.057494966055991 ], [ 14.460379585324699, 56.021738014123734 ], [ 14.433403684458401, 55.992756063610216 ], [ 14.349709222796299, 55.962268557225869 ], [ 14.320658252632594, 55.939685219163394 ], [ 14.317891493569384, 55.915219936262375 ], [ 14.272931658792222, 55.897153265812392 ], [ 14.222438305888639, 55.833919919237445 ], [ 14.196154094788145, 55.756760180857313 ], [ 14.204454371977775, 55.702560169507358 ], [ 14.271548279260617, 55.674707385896966 ], [ 14.284690384810865, 55.617496262805354 ], [ 14.357317810220128, 55.559908750746033 ], [ 14.348325843264695, 55.509472629073166 ], [ 14.282615315513457, 55.473339288173193 ], [ 14.214829718464813, 55.402578162244097 ], [ 14.201687612914565, 55.38714621456807 ], [ 14.147044121416167, 55.376983712439952 ], [ 14.055049382564434, 55.380371213149324 ], [ 13.974121679965542, 55.421397610629491 ], [ 13.917403119169737, 55.434194835531564 ], [ 13.844084003994674, 55.421021221661789 ], [ 13.704362671302569, 55.424785111338863 ], [ 13.656636077462196, 55.417257331984707 ], [ 13.599225826900588, 55.388651770438898 ], [ 13.495472362030213, 55.383758713858697 ], [ 13.423536626386753, 55.354023985409761 ], [ 13.363359616761937, 55.337086481862904 ], [ 13.295574019713291, 55.341226760507695 ], [ 13.164844653976619, 55.369455933085789 ], [ 13.031348529176736, 55.381500380052444 ], [ 12.96840476048871, 55.40182538430868 ], [ 12.925519995008955, 55.385264269729525 ], [ 12.886093678358211, 55.396932327728472 ], [ 12.815541322246357, 55.37848926831078 ], [ 12.827991738030802, 55.414998998178454 ], [ 12.868801434213148, 55.437205947273227 ], [ 12.891627196484631, 55.408976774695127 ], [ 12.946962377748832, 55.415751776113872 ], [ 12.96840476048871, 55.459412896368001 ], [ 12.938662100559201, 55.493664292429429 ], [ 12.901310853205867, 55.559155972810615 ], [ 12.919986476882533, 55.593030979904334 ], [ 12.962871242362288, 55.601687926161617 ], [ 13.020973182689698, 55.635939322223045 ], [ 13.063166258403651, 55.666426828607392 ], [ 13.054865981214022, 55.692397667379247 ], [ 12.993305592057599, 55.730036564150041 ], [ 12.969096450254511, 55.72514350756984 ], [ 12.92690337454056, 55.771815739565632 ], [ 12.924136615477348, 55.818487971561417 ], [ 12.881943539763396, 55.858761591106173 ], [ 12.830758497094012, 55.853492145558263 ], [ 12.805165975759319, 55.912961602456122 ], [ 12.759514451216354, 55.953235222000878 ], [ 12.753289243324131, 55.981088005611269 ], [ 12.704179269952155, 56.006682455415415 ], [ 12.675128299788449, 56.066528301280982 ], [ 12.592817217657952, 56.127879703017385 ], [ 12.589358768828939, 56.131643592694466 ] ] ], [ [ [ 17.495514277666064, 62.356364340649158 ], [ 17.409053056940753, 62.363139342067903 ], [ 17.412511505769764, 62.416586575482441 ], [ 17.386227294669268, 62.477561588251135 ], [ 17.491364139071251, 62.459871306768854 ], [ 17.473380205160385, 62.435782412835543 ], [ 17.518340039937549, 62.413951852708479 ], [ 17.521106799000759, 62.366150453809567 ], [ 17.495514277666064, 62.356364340649158 ] ] ], [ [ [ 18.029498776865594, 62.67290746249158 ], [ 17.99837273740448, 62.687963021199899 ], [ 18.027423707568186, 62.749314422936294 ], [ 18.073766921876953, 62.756842202290457 ], [ 18.147777726817822, 62.750067200871712 ], [ 18.15815307330486, 62.725601917970693 ], [ 18.111118169230288, 62.709793581326963 ], [ 18.108351410167078, 62.68758663223219 ], [ 18.029498776865594, 62.67290746249158 ] ] ], [ [ [ 18.694212641801798, 63.067363100649544 ], [ 18.672078569296115, 63.027465870072504 ], [ 18.617435077797719, 63.019185312782923 ], [ 18.644410978664016, 63.063975599940179 ], [ 18.694212641801798, 63.067363100649544 ] ] ], [ [ [ 20.864043437124234, 63.694427120851053 ], [ 20.876493852908681, 63.738088241105181 ], [ 20.825308810239296, 63.775350748908274 ], [ 20.843984433915963, 63.795299364196794 ], [ 20.900702994711768, 63.806591033228031 ], [ 20.934595793236092, 63.784760473100974 ], [ 20.936670862533497, 63.723409071364571 ], [ 20.909694961667199, 63.688028508400016 ], [ 20.864043437124234, 63.694427120851053 ] ] ], [ [ [ 20.737464209982377, 63.856274376965487 ], [ 20.738155899748179, 63.852134098320704 ], [ 20.736080830450774, 63.852510487288413 ], [ 20.737464209982377, 63.856274376965487 ] ] ], [ [ [ 21.862151769177242, 65.257946892710038 ], [ 21.842092765968971, 65.244396889872547 ], [ 21.754939855477854, 65.265098283096478 ], [ 21.7673902712623, 65.285799676320423 ], [ 21.862151769177242, 65.257946892710038 ] ] ], [ [ [ 22.207996652078492, 65.425063594372375 ], [ 22.144361193624661, 65.434849707532791 ], [ 22.142286124327253, 65.467219158755668 ], [ 22.185862579572813, 65.469101103594213 ], [ 22.207996652078492, 65.425063594372375 ] ] ], [ [ [ 22.221138757628736, 65.546260841974345 ], [ 22.285465905848369, 65.525183059782705 ], [ 22.221138757628736, 65.500341387913977 ], [ 22.181712440977996, 65.536851117781652 ], [ 22.221138757628736, 65.546260841974345 ] ] ], [ [ [ 22.587734333504063, 65.617021967903455 ], [ 22.653444861255302, 65.583899738745146 ], [ 22.603643198117521, 65.554541399263925 ], [ 22.587734333504063, 65.617021967903455 ] ] ], [ [ [ 22.923203869918275, 65.688159482800259 ], [ 22.87755234537531, 65.711119209830457 ], [ 22.87755234537531, 65.738971993440842 ], [ 22.931504147107905, 65.742359494150207 ], [ 22.988914397669511, 65.705849764282533 ], [ 22.923203869918275, 65.688159482800259 ] ] ], [ [ [ 23.687521061130035, 65.74800532866584 ], [ 23.747698070754851, 65.735584492731476 ], [ 23.801649872487449, 65.740101160343968 ], [ 23.789199456703003, 65.718270600216897 ], [ 23.686137681598431, 65.708860876024204 ], [ 23.687521061130035, 65.74800532866584 ] ] ], [ [ [ 22.80008309160543, 65.743865050021043 ], [ 22.806308299497651, 65.706226153250242 ], [ 22.729530735493576, 65.721281711958568 ], [ 22.752356497765057, 65.758920608729369 ], [ 22.80008309160543, 65.743865050021043 ] ] ] ] } }
]
}
