{
"type": "FeatureCollection",
"name": "group_TPItalie",
"crs": { "type": "name", "properties": { "name": "urn:ogc:def:crs:OGC:1.3:CRS84" } },
"features": [
{ "type": "Feature", "properties": { "OWNERID__R.NAME": "Diego Serana", "OWNERID__R.MANAGER.NAME": "Vincenzo Lenzi", "OWNERID__R.DIVISION": "ITALIE", "PAYS__C": "Italie" }, "geometry": { "type": "MultiPolygon", "coordinates": [ [ [ [ 6.945374, 44.42798 ], [ 6.853555, 44.5279 ], [ 6.916454, 44.56183 ], [ 6.967425, 44.61919 ], [ 7.073704, 44.68168 ], [ 7.065389, 44.71372 ], [ 7.023818, 44.82334 ], [ 7.001044, 44.84246 ], [ 6.931637, 44.86346 ], [ 6.862953, 44.85081 ], [ 6.75089, 44.91436 ], [ 6.747637, 45.00674 ], [ 6.707511, 45.02128 ], [ 6.62726, 45.10181 ], [ 6.769327, 45.15971 ], [ 6.85247, 45.12793 ], [ 6.898018, 45.1414 ], [ 6.947543, 45.17048 ], [ 6.967425, 45.19661 ], [ 7.003213, 45.22004 ], [ 7.066835, 45.21034 ], [ 7.135881, 45.2801 ], [ 7.13335, 45.331 ], [ 7.185767, 45.40317 ], [ 7.104431, 45.467 ], [ 7.043338, 45.4977 ], [ 6.997067, 45.63128 ], [ 6.827889, 45.704 ], [ 6.817405, 45.73982 ], [ 6.81849, 45.83623 ], [ 6.93959, 45.84674 ], [ 7.045869, 45.92214 ], [ 7.101539, 45.85912 ], [ 7.190105, 45.85859 ], [ 7.192997, 45.85939 ], [ 7.246136, 45.89198 ], [ 7.374105, 45.9006 ], [ 7.550513, 45.98624 ], [ 7.609798, 45.96927 ], [ 7.734513, 45.92376 ], [ 7.798136, 45.9181 ], [ 7.863928, 45.91649 ], [ 7.876941, 45.92645 ], [ 7.988281, 45.99621 ], [ 8.01214, 46.01183 ], [ 8.032745, 46.09855 ], [ 8.107935, 46.11147 ], [ 8.16469, 46.17692 ], [ 8.139024, 46.2262 ], [ 8.19614, 46.30242 ], [ 8.318686, 46.38618 ], [ 8.465814, 46.443 ], [ 8.444124, 46.31965 ], [ 8.427495, 46.29838 ], [ 8.444124, 46.24936 ], [ 8.468706, 46.23347 ], [ 8.545704, 46.19631 ], [ 8.610772, 46.1244 ], [ 8.647645, 46.12305 ], [ 8.714882, 46.09801 ], [ 8.718497, 46.10205 ], [ 8.847189, 46.07592 ], [ 8.829837, 46.04172 ], [ 8.790073, 45.99971 ], [ 8.785735, 45.98893 ], [ 8.821161, 45.98759 ], [ 8.84755, 45.97493 ], [ 8.882977, 45.95662 ], [ 8.898159, 45.92538 ], [ 8.923825, 45.89844 ], [ 8.922379, 45.89494 ], [ 8.924187, 45.89198 ], [ 8.933947, 45.87017 ], [ 8.915511, 45.8435 ], [ 8.912619, 45.83031 ], [ 8.929248, 45.83327 ], [ 8.962505, 45.83812 ], [ 8.969735, 45.83219 ], [ 8.993955, 45.82627 ], [ 9.021067, 45.82088 ], [ 9.033719, 45.8225 ], [ 9.03878, 45.84216 ], [ 9.049263, 45.85212 ], [ 9.077821, 45.88552 ], [ 9.088666, 45.9006 ], [ 9.076375, 45.90356 ], [ 9.049625, 45.92134 ], [ 9.02179, 45.93776 ], [ 9.028297, 45.99378 ], [ 9.077821, 46.06542 ], [ 9.089389, 46.08508 ], [ 9.115417, 46.1349 ], [ 9.120839, 46.13463 ], [ 9.196391, 46.18688 ], [ 9.246277, 46.23213 ], [ 9.247723, 46.23374 ], [ 9.30014, 46.32666 ], [ 9.284234, 46.38618 ], [ 9.275197, 46.41849 ], [ 9.282065, 46.49633 ], [ 9.408949, 46.4667 ], [ 9.487754, 46.36652 ], [ 9.549208, 46.30242 ], [ 9.582827, 46.29461 ], [ 9.714411, 46.29299 ], [ 9.821774, 46.3517 ], [ 9.906363, 46.38079 ], [ 9.996375, 46.3509 ], [ 9.998183, 46.28303 ], [ 10.04915, 46.22755 ], [ 10.07084, 46.21705 ], [ 10.10229, 46.22836 ], [ 10.13483, 46.2262 ], [ 10.1764, 46.25798 ], [ 10.16338, 46.27441 ], [ 10.1388, 46.30457 ], [ 10.15905, 46.38591 ], [ 10.13085, 46.43196 ], [ 10.03975, 46.44569 ], [ 10.05313, 46.53134 ], [ 10.13013, 46.60567 ], [ 10.24219, 46.59247 ], [ 10.29569, 46.55046 ], [ 10.43342, 46.5413 ], [ 10.4533, 46.53053 ], [ 10.47608, 46.49552 ], [ 10.60043, 46.46859 ], [ 10.62176, 46.44785 ], [ 10.63043, 46.4026 ], [ 10.51584, 46.34309 ], [ 10.57946, 46.29892 ], [ 10.57043, 46.22324 ], [ 10.54151, 46.1885 ], [ 10.55416, 46.14891 ], [ 10.50933, 46.07512 ], [ 10.4721, 46.02152 ], [ 10.4533, 45.97655 ], [ 10.49126, 45.94207 ], [ 10.49126, 45.93319 ], [ 10.50608, 45.90356 ], [ 10.54331, 45.81576 ], [ 10.52596, 45.80553 ], [ 10.54548, 45.78479 ], [ 10.59754, 45.79961 ], [ 10.63513, 45.80661 ], [ 10.64128, 45.80176 ], [ 10.75623, 45.83004 ], [ 10.79889, 45.83596 ], [ 10.8401, 45.83273 ], [ 10.80829, 45.79664 ], [ 10.7631, 45.74063 ], [ 10.72768, 45.70104 ], [ 10.68936, 45.66172 ], [ 10.6814, 45.65471 ], [ 10.63116, 45.60947 ], [ 10.62863, 45.60193 ], [ 10.62935, 45.59546 ], [ 10.6308, 45.58173 ], [ 10.63188, 45.57419 ], [ 10.63224, 45.56853 ], [ 10.63549, 45.53541 ], [ 10.63658, 45.52086 ], [ 10.63766, 45.51144 ], [ 10.63803, 45.50821 ], [ 10.64164, 45.47212 ], [ 10.64272, 45.46269 ], [ 10.62357, 45.44357 ], [ 10.62718, 45.43818 ], [ 10.65465, 45.41583 ], [ 10.71466, 45.41772 ], [ 10.71755, 45.40075 ], [ 10.68538, 45.35362 ], [ 10.70635, 45.31618 ], [ 10.74864, 45.2941 ], [ 10.78298, 45.31538 ], [ 10.8401, 45.27282 ], [ 10.8889, 45.24859 ], [ 10.89685, 45.24697 ], [ 10.93662, 45.23296 ], [ 10.9359, 45.23189 ], [ 10.93626, 45.21384 ], [ 10.9471, 45.20576 ], [ 10.99265, 45.15298 ], [ 11.03567, 45.15002 ], [ 11.05085, 45.10935 ], [ 11.0729, 45.09885 ], [ 11.09748, 45.09534 ], [ 11.14773, 45.12578 ], [ 11.2034, 45.11177 ], [ 11.20557, 45.10962 ], [ 11.20702, 45.05845 ], [ 11.22979, 45.04768 ], [ 11.27028, 45.04391 ], [ 11.26449, 45.03179 ], [ 11.29883, 45.01455 ], [ 11.32703, 44.9957 ], [ 11.38812, 44.97388 ], [ 11.41487, 44.96742 ], [ 11.4268, 44.95018 ], [ 11.24606, 44.95153 ], [ 11.21316, 44.94345 ], [ 11.08881, 44.95934 ], [ 11.05953, 44.94884 ], [ 11.02265, 44.95261 ], [ 10.97638, 44.94183 ], [ 10.95072, 44.93322 ], [ 10.95144, 44.92783 ], [ 10.88782, 44.91436 ], [ 10.87661, 44.91706 ], [ 10.87408, 44.92191 ], [ 10.77069, 44.94399 ], [ 10.74828, 44.96257 ], [ 10.68683, 44.98654 ], [ 10.65032, 44.94803 ], [ 10.6279, 44.92433 ], [ 10.612, 44.9211 ], [ 10.59248, 44.9149 ], [ 10.58236, 44.91275 ], [ 10.52669, 44.91275 ], [ 10.50427, 44.92244 ], [ 10.46415, 44.93726 ], [ 10.42511, 44.96015 ], [ 10.39329, 44.98358 ], [ 10.35895, 44.96553 ], [ 10.3181, 44.98385 ], [ 10.26496, 45.00485 ], [ 10.24219, 45.0229 ], [ 10.2111, 45.03394 ], [ 10.1811, 45.03044 ], [ 10.15254, 45.04094 ], [ 10.13049, 45.0299 ], [ 10.0835, 45.04391 ], [ 10.04084, 45.06383 ], [ 10.02566, 45.0703 ], [ 10.0177, 45.10396 ], [ 9.966371, 45.12739 ], [ 9.908171, 45.13574 ], [ 9.891181, 45.13089 ], [ 9.884312, 45.07488 ], [ 9.84744, 45.09642 ], [ 9.823582, 45.05252 ], [ 9.779118, 45.08969 ], [ 9.766827, 45.10719 ], [ 9.757428, 45.11258 ], [ 9.745138, 45.10585 ], [ 9.676815, 45.07757 ], [ 9.637413, 45.1045 ], [ 9.63669, 45.12632 ], [ 9.633798, 45.12901 ], [ 9.552823, 45.13062 ], [ 9.548485, 45.13278 ], [ 9.537279, 45.12605 ], [ 9.536195, 45.12416 ], [ 9.535833, 45.12201 ], [ 9.531857, 45.07838 ], [ 9.505106, 45.10208 ], [ 9.480163, 45.09885 ], [ 9.438953, 45.09346 ], [ 9.389428, 45.0641 ], [ 9.370992, 45.04821 ], [ 9.369546, 45.02371 ], [ 9.375692, 45.01994 ], [ 9.347495, 44.99704 ], [ 9.337373, 44.96526 ], [ 9.324721, 44.95611 ], [ 9.322914, 44.94964 ], [ 9.3099, 44.93537 ], [ 9.277366, 44.89551 ], [ 9.326529, 44.87289 ], [ 9.363039, 44.82253 ], [ 9.321468, 44.7999 ], [ 9.287126, 44.77243 ], [ 9.286041, 44.75951 ], [ 9.332674, 44.735 ], [ 9.324721, 44.69002 ], [ 9.298332, 44.68114 ], [ 9.235071, 44.71642 ], [ 9.200367, 44.68652 ], [ 9.200006, 44.68598 ], [ 9.201813, 44.67171 ], [ 9.198199, 44.6499 ], [ 9.202898, 44.61354 ], [ 9.297609, 44.60681 ], [ 9.381114, 44.57664 ], [ 9.405696, 44.60088 ], [ 9.423047, 44.57449 ], [ 9.493177, 44.5559 ], [ 9.496792, 44.48265 ], [ 9.46968, 44.47673 ], [ 9.43823, 44.41855 ], [ 9.442929, 44.41667 ], [ 9.479079, 44.40913 ], [ 9.623676, 44.42152 ], [ 9.675008, 44.36469 ], [ 9.686576, 44.36604 ], [ 9.729593, 44.32833 ], [ 9.783817, 44.29682 ], [ 9.814906, 44.28632 ], [ 9.821774, 44.2812 ], [ 9.854308, 44.26801 ], [ 9.875275, 44.22384 ], [ 9.857562, 44.19341 ], [ 9.864792, 44.18075 ], [ 9.891181, 44.20768 ], [ 9.908532, 44.20983 ], [ 9.933837, 44.19664 ], [ 9.897688, 44.16351 ], [ 9.959141, 44.16674 ], [ 9.97577, 44.16405 ], [ 9.993483, 44.09268 ], [ 10.04626, 44.11557 ], [ 10.04735, 44.11503 ], [ 10.02674, 44.05659 ], [ 10.01879, 44.04447 ], [ 9.999267, 44.05094 ], [ 9.949381, 44.04717 ], [ 9.87889, 44.08783 ], [ 9.823943, 44.08272 ], [ 9.803338, 44.06413 ], [ 9.765743, 44.08326 ], [ 9.71658, 44.118 ], [ 9.664525, 44.1425 ], [ 9.635605, 44.13362 ], [ 9.602348, 44.17267 ], [ 9.561138, 44.19502 ], [ 9.517397, 44.21414 ], [ 9.511252, 44.21657 ], [ 9.45269, 44.24027 ], [ 9.386898, 44.28336 ], [ 9.333035, 44.31137 ], [ 9.280257, 44.32968 ], [ 9.243385, 44.34234 ], [ 9.219527, 44.33507 ], [ 9.209043, 44.31056 ], [ 9.182293, 44.30894 ], [ 9.147228, 44.35526 ], [ 9.122646, 44.36442 ], [ 9.099149, 44.37196 ], [ 9.076737, 44.37546 ], [ 9.058301, 44.38058 ], [ 8.831283, 44.42098 ], [ 8.704399, 44.4129 ], [ 8.665358, 44.39028 ], [ 8.633185, 44.37977 ], [ 8.564863, 44.34799 ], [ 8.526183, 44.3313 ], [ 8.509193, 44.32833 ], [ 8.496179, 44.32079 ], [ 8.44557, 44.28093 ], [ 8.450269, 44.26289 ], [ 8.436171, 44.23677 ], [ 8.415928, 44.21872 ], [ 8.414482, 44.18963 ], [ 8.323024, 44.16028 ], [ 8.303142, 44.15597 ], [ 8.269161, 44.13927 ], [ 8.249279, 44.11692 ], [ 8.23735, 44.10211 ], [ 8.225782, 44.07248 ], [ 8.208431, 44.03478 ], [ 8.162159, 43.9898 ], [ 8.174089, 43.95533 ], [ 8.135409, 43.9389 ], [ 8.107212, 43.92086 ], [ 8.094199, 43.91682 ], [ 8.071063, 43.89069 ], [ 7.970207, 43.86053 ], [ 7.956831, 43.84976 ], [ 7.94924, 43.84707 ], [ 7.915621, 43.84141 ], [ 7.885256, 43.83656 ], [ 7.861036, 43.83144 ], [ 7.846937, 43.82875 ], [ 7.739936, 43.79697 ], [ 7.702702, 43.79913 ], [ 7.646309, 43.78216 ], [ 7.633295, 43.78378 ], [ 7.631126, 43.78431 ], [ 7.529547, 43.78431 ], [ 7.50135, 43.84491 ], [ 7.551598, 43.8942 ], [ 7.562804, 43.90066 ], [ 7.562804, 43.90227 ], [ 7.581602, 43.94833 ], [ 7.670167, 43.99815 ], [ 7.71427, 44.06144 ], [ 7.684627, 44.17401 ], [ 7.673421, 44.17725 ], [ 7.632572, 44.17348 ], [ 7.503881, 44.14358 ], [ 7.355307, 44.11719 ], [ 7.310482, 44.14735 ], [ 7.188659, 44.19879 ], [ 7.005382, 44.2373 ], [ 6.995621, 44.28013 ], [ 6.952965, 44.31918 ], [ 6.896211, 44.37196 ], [ 6.945374, 44.42798 ] ], [ [ 7.778615, 45.47346 ], [ 7.801751, 45.47427 ], [ 7.809704, 45.48747 ], [ 7.782953, 45.52517 ], [ 7.656431, 45.5047 ], [ 7.673059, 45.50309 ], [ 7.693664, 45.50147 ], [ 7.711378, 45.49124 ], [ 7.778615, 45.47346 ] ], [ [ 7.618835, 45.52679 ], [ 7.676674, 45.5521 ], [ 7.634018, 45.57069 ], [ 7.609075, 45.56288 ], [ 7.618835, 45.52679 ] ], [ [ 7.729091, 45.54833 ], [ 7.730175, 45.55076 ], [ 7.703063, 45.55561 ], [ 7.729091, 45.54833 ] ], [ [ 8.296996, 45.62159 ], [ 8.31204, 45.63173 ], [ 8.30025, 45.63586 ], [ 8.296996, 45.62159 ] ] ] ] } },
{ "type": "Feature", "properties": { "OWNERID__R.NAME": "Vincenzo Lenzi", "OWNERID__R.MANAGER.NAME": "Sébastien Gèze", "OWNERID__R.DIVISION": "ITALIE", "PAYS__C": "Italie" }, "geometry": { "type": "MultiPolygon", "coordinates": [ [ [ [ 10.01879, 44.04447 ], [ 10.02674, 44.05659 ], [ 10.04735, 44.11503 ], [ 10.04626, 44.11557 ], [ 9.993483, 44.09268 ], [ 9.97577, 44.16405 ], [ 9.959141, 44.16674 ], [ 9.897688, 44.16351 ], [ 9.933837, 44.19664 ], [ 9.908532, 44.20983 ], [ 9.891181, 44.20768 ], [ 9.864792, 44.18075 ], [ 9.857562, 44.19341 ], [ 9.875275, 44.22384 ], [ 9.854308, 44.26801 ], [ 9.821774, 44.2812 ], [ 9.814906, 44.28632 ], [ 9.783817, 44.29682 ], [ 9.729593, 44.32833 ], [ 9.686576, 44.36604 ], [ 9.675008, 44.36469 ], [ 9.623676, 44.42152 ], [ 9.479079, 44.40913 ], [ 9.442929, 44.41667 ], [ 9.43823, 44.41855 ], [ 9.46968, 44.47673 ], [ 9.496792, 44.48265 ], [ 9.493177, 44.5559 ], [ 9.423047, 44.57449 ], [ 9.405696, 44.60088 ], [ 9.381114, 44.57664 ], [ 9.297609, 44.60681 ], [ 9.202898, 44.61354 ], [ 9.198199, 44.6499 ], [ 9.201813, 44.67171 ], [ 9.200006, 44.68598 ], [ 9.200367, 44.68652 ], [ 9.235071, 44.71642 ], [ 9.298332, 44.68114 ], [ 9.324721, 44.69002 ], [ 9.332674, 44.735 ], [ 9.286041, 44.75951 ], [ 9.287126, 44.77243 ], [ 9.321468, 44.7999 ], [ 9.363039, 44.82253 ], [ 9.326529, 44.87289 ], [ 9.277366, 44.89551 ], [ 9.3099, 44.93537 ], [ 9.322914, 44.94964 ], [ 9.324721, 44.95611 ], [ 9.337373, 44.96526 ], [ 9.347495, 44.99704 ], [ 9.375692, 45.01994 ], [ 9.369546, 45.02371 ], [ 9.370992, 45.04821 ], [ 9.389428, 45.0641 ], [ 9.438953, 45.09346 ], [ 9.480163, 45.09885 ], [ 9.505106, 45.10208 ], [ 9.531857, 45.07838 ], [ 9.535833, 45.12201 ], [ 9.536195, 45.12416 ], [ 9.537279, 45.12605 ], [ 9.548485, 45.13278 ], [ 9.552823, 45.13062 ], [ 9.633798, 45.12901 ], [ 9.63669, 45.12632 ], [ 9.637413, 45.1045 ], [ 9.676815, 45.07757 ], [ 9.745138, 45.10585 ], [ 9.757428, 45.11258 ], [ 9.766827, 45.10719 ], [ 9.779118, 45.08969 ], [ 9.823582, 45.05252 ], [ 9.84744, 45.09642 ], [ 9.884312, 45.07488 ], [ 9.891181, 45.13089 ], [ 9.908171, 45.13574 ], [ 9.966371, 45.12739 ], [ 10.0177, 45.10396 ], [ 10.02566, 45.0703 ], [ 10.04084, 45.06383 ], [ 10.0835, 45.04391 ], [ 10.13049, 45.0299 ], [ 10.15254, 45.04094 ], [ 10.1811, 45.03044 ], [ 10.2111, 45.03394 ], [ 10.24219, 45.0229 ], [ 10.26496, 45.00485 ], [ 10.3181, 44.98385 ], [ 10.35895, 44.96553 ], [ 10.39329, 44.98358 ], [ 10.42511, 44.96015 ], [ 10.46415, 44.93726 ], [ 10.50427, 44.92244 ], [ 10.52669, 44.91275 ], [ 10.58236, 44.91275 ], [ 10.59248, 44.9149 ], [ 10.612, 44.9211 ], [ 10.6279, 44.92433 ], [ 10.65032, 44.94803 ], [ 10.68683, 44.98654 ], [ 10.74828, 44.96257 ], [ 10.77069, 44.94399 ], [ 10.87408, 44.92191 ], [ 10.87661, 44.91706 ], [ 10.88782, 44.91436 ], [ 10.95144, 44.92783 ], [ 10.95072, 44.93322 ], [ 10.97638, 44.94183 ], [ 11.02265, 44.95261 ], [ 11.05953, 44.94884 ], [ 11.08881, 44.95934 ], [ 11.21316, 44.94345 ], [ 11.24606, 44.95153 ], [ 11.4268, 44.95018 ], [ 11.41487, 44.96742 ], [ 11.38812, 44.97388 ], [ 11.32703, 44.9957 ], [ 11.29883, 45.01455 ], [ 11.26449, 45.03179 ], [ 11.27028, 45.04391 ], [ 11.22979, 45.04768 ], [ 11.20702, 45.05845 ], [ 11.20557, 45.10962 ], [ 11.2034, 45.11177 ], [ 11.14773, 45.12578 ], [ 11.09748, 45.09534 ], [ 11.0729, 45.09885 ], [ 11.05085, 45.10935 ], [ 11.03567, 45.15002 ], [ 10.99265, 45.15298 ], [ 10.9471, 45.20576 ], [ 10.93626, 45.21384 ], [ 10.9359, 45.23189 ], [ 10.93662, 45.23296 ], [ 10.89685, 45.24697 ], [ 10.8889, 45.24859 ], [ 10.8401, 45.27282 ], [ 10.78298, 45.31538 ], [ 10.74864, 45.2941 ], [ 10.70635, 45.31618 ], [ 10.68538, 45.35362 ], [ 10.71755, 45.40075 ], [ 10.71466, 45.41772 ], [ 10.65465, 45.41583 ], [ 10.62718, 45.43818 ], [ 10.62357, 45.44357 ], [ 10.64272, 45.46269 ], [ 10.64164, 45.47212 ], [ 10.63803, 45.50821 ], [ 10.63766, 45.51144 ], [ 10.63658, 45.52086 ], [ 10.63549, 45.53541 ], [ 10.63224, 45.56853 ], [ 10.63188, 45.57419 ], [ 10.6308, 45.58173 ], [ 10.62935, 45.59546 ], [ 10.62863, 45.60193 ], [ 10.63116, 45.60947 ], [ 10.6814, 45.65471 ], [ 10.68936, 45.66172 ], [ 10.72768, 45.70104 ], [ 10.7631, 45.74063 ], [ 10.80829, 45.79664 ], [ 10.8401, 45.83273 ], [ 10.79889, 45.83596 ], [ 10.75623, 45.83004 ], [ 10.64128, 45.80176 ], [ 10.63513, 45.80661 ], [ 10.59754, 45.79961 ], [ 10.54548, 45.78479 ], [ 10.52596, 45.80553 ], [ 10.54331, 45.81576 ], [ 10.50608, 45.90356 ], [ 10.49126, 45.93319 ], [ 10.49126, 45.94207 ], [ 10.4533, 45.97655 ], [ 10.4721, 46.02152 ], [ 10.50933, 46.07512 ], [ 10.55416, 46.14891 ], [ 10.54151, 46.1885 ], [ 10.57043, 46.22324 ], [ 10.57946, 46.29892 ], [ 10.51584, 46.34309 ], [ 10.63043, 46.4026 ], [ 10.62176, 46.44785 ], [ 10.60043, 46.46859 ], [ 10.47608, 46.49552 ], [ 10.4533, 46.53053 ], [ 10.49234, 46.61509 ], [ 10.41065, 46.63502 ], [ 10.40884, 46.70505 ], [ 10.44137, 46.75191 ], [ 10.48005, 46.85883 ], [ 10.67128, 46.87068 ], [ 10.72623, 46.79769 ], [ 10.73057, 46.788 ], [ 11.02229, 46.7651 ], [ 11.11483, 46.931 ], [ 11.16834, 46.94474 ], [ 11.24136, 46.96951 ], [ 11.47994, 47.01099 ], [ 11.53814, 46.98406 ], [ 11.62707, 47.0126 ], [ 11.74709, 46.96898 ], [ 11.80962, 46.98971 ], [ 12.05942, 47.05866 ], [ 12.12087, 47.00668 ], [ 12.14401, 46.91404 ], [ 12.21847, 46.87391 ], [ 12.28065, 46.7915 ], [ 12.32981, 46.77965 ], [ 12.38368, 46.71663 ], [ 12.47766, 46.67973 ], [ 12.54635, 46.65926 ], [ 12.57057, 46.65064 ], [ 12.66239, 46.65684 ], [ 12.73215, 46.63395 ], [ 12.88832, 46.60702 ], [ 13.05641, 46.59759 ], [ 13.20173, 46.572 ], [ 13.23246, 46.55369 ], [ 13.36404, 46.57012 ], [ 13.51985, 46.54696 ], [ 13.70638, 46.5211 ], [ 13.68433, 46.43735 ], [ 13.59215, 46.43654 ], [ 13.51696, 46.38294 ], [ 13.48189, 46.36894 ], [ 13.37561, 46.29811 ], [ 13.3767, 46.29488 ], [ 13.41068, 46.2122 ], [ 13.42333, 46.20627 ], [ 13.52925, 46.2122 ], [ 13.59034, 46.18796 ], [ 13.61456, 46.18446 ], [ 13.6536, 46.15807 ], [ 13.65215, 46.14837 ], [ 13.60263, 46.11309 ], [ 13.49707, 46.05142 ], [ 13.49491, 45.98624 ], [ 13.52599, 45.97197 ], [ 13.60408, 45.98678 ], [ 13.61347, 45.90733 ], [ 13.59034, 45.88821 ], [ 13.59612, 45.80795 ], [ 13.7212, 45.76917 ], [ 13.78916, 45.74601 ], [ 13.83254, 45.68946 ], [ 13.89833, 45.6434 ], [ 13.82169, 45.58173 ], [ 13.80904, 45.60678 ], [ 13.80868, 45.60704 ], [ 13.66842, 45.7417 ], [ 13.58094, 45.78183 ], [ 13.5278, 45.77187 ], [ 13.55347, 45.72608 ], [ 13.42441, 45.67734 ], [ 13.24584, 45.71962 ], [ 13.14896, 45.69888 ], [ 13.10088, 45.64367 ], [ 12.97797, 45.62644 ], [ 12.78782, 45.55668 ], [ 12.7618, 45.54295 ], [ 12.5843, 45.47885 ], [ 12.43609, 45.42256 ], [ 12.33054, 45.35362 ], [ 12.31391, 45.23108 ], [ 12.33234, 45.16267 ], [ 12.35656, 45.07542 ], [ 12.41006, 45.03663 ], [ 12.55394, 44.96607 ], [ 12.40898, 44.79829 ], [ 12.39669, 44.79075 ], [ 12.25896, 44.81553 ], [ 12.26619, 44.80448 ], [ 12.24125, 44.68679 ], [ 12.26872, 44.62916 ], [ 12.29222, 44.45437 ], [ 12.34789, 44.30113 ], [ 12.38368, 44.22438 ], [ 12.43681, 44.17401 ], [ 12.44296, 44.16863 ], [ 12.44513, 44.16701 ], [ 12.45055, 44.16216 ], [ 12.50369, 44.11557 ], [ 12.63238, 44.02508 ], [ 12.68805, 43.98711 ], [ 12.72131, 43.97284 ], [ 12.75059, 43.96853 ], [ 12.74842, 43.95291 ], [ 12.74155, 43.94106 ], [ 12.7336, 43.92975 ], [ 12.72709, 43.9117 ], [ 12.72276, 43.881 ], [ 12.7336, 43.86996 ], [ 12.73288, 43.86942 ], [ 12.68227, 43.85272 ], [ 12.68118, 43.82794 ], [ 12.61901, 43.82633 ], [ 12.61105, 43.83091 ], [ 12.61901, 43.84276 ], [ 12.61575, 43.84653 ], [ 12.58936, 43.86538 ], [ 12.58936, 43.88558 ], [ 12.55105, 43.86646 ], [ 12.53406, 43.8705 ], [ 12.53586, 43.89716 ], [ 12.49393, 43.91547 ], [ 12.51562, 43.94133 ], [ 12.51345, 43.99142 ], [ 12.45308, 43.96933 ], [ 12.40464, 43.9556 ], [ 12.39777, 43.96233 ], [ 12.3562, 43.94967 ], [ 12.32294, 43.96072 ], [ 12.29475, 43.92813 ], [ 12.27017, 43.92867 ], [ 12.25462, 43.91224 ], [ 12.23655, 43.91682 ], [ 12.20365, 43.91305 ], [ 12.26547, 43.84249 ], [ 12.22426, 43.8099 ], [ 12.17654, 43.81044 ], [ 12.14943, 43.83333 ], [ 12.10749, 43.75388 ], [ 12.07713, 43.74069 ], [ 11.98639, 43.76196 ], [ 11.95133, 43.78701 ], [ 11.91301, 43.79886 ], [ 11.84216, 43.80801 ], [ 11.8418, 43.80801 ], [ 11.80709, 43.82902 ], [ 11.7883, 43.84518 ], [ 11.71021, 43.8775 ], [ 11.67045, 43.87696 ], [ 11.60466, 43.81017 ], [ 11.60357, 43.78728 ], [ 11.58297, 43.76816 ], [ 11.5949, 43.71429 ], [ 11.60936, 43.68601 ], [ 11.48392, 43.62623 ], [ 11.51645, 43.59418 ], [ 11.50705, 43.5791 ], [ 11.40801, 43.56078 ], [ 11.39752, 43.54812 ], [ 11.30715, 43.51823 ], [ 11.26955, 43.5457 ], [ 11.21099, 43.48133 ], [ 11.11267, 43.49642 ], [ 11.08013, 43.51608 ], [ 11.03386, 43.54678 ], [ 10.95144, 43.45144 ], [ 11.00205, 43.40135 ], [ 11.01253, 43.37657 ], [ 10.95216, 43.30197 ], [ 10.98542, 43.28554 ], [ 10.94313, 43.24649 ], [ 10.93192, 43.23626 ], [ 10.91168, 43.16273 ], [ 10.90878, 43.15977 ], [ 10.796, 43.16085 ], [ 10.76382, 43.15277 ], [ 10.71755, 43.10887 ], [ 10.71502, 43.11399 ], [ 10.64923, 43.17162 ], [ 10.66297, 43.2306 ], [ 10.67201, 43.24703 ], [ 10.6843, 43.30089 ], [ 10.65718, 43.29227 ], [ 10.58199, 43.2912 ], [ 10.56175, 43.30843 ], [ 10.54838, 43.30978 ], [ 10.53211, 43.32351 ], [ 10.54006, 43.36768 ], [ 10.50897, 43.3631 ], [ 10.50174, 43.41993 ], [ 10.48981, 43.47272 ], [ 10.48439, 43.48645 ], [ 10.47897, 43.51796 ], [ 10.50102, 43.62434 ], [ 10.50897, 43.62919 ], [ 10.4092, 43.62057 ], [ 10.33799, 43.59579 ], [ 10.29894, 43.58152 ], [ 10.27364, 43.75173 ], [ 10.26605, 43.78512 ], [ 10.25918, 43.81556 ], [ 10.22737, 43.88773 ], [ 10.20966, 43.91062 ], [ 10.18074, 43.94294 ], [ 10.14314, 43.97553 ], [ 10.13736, 43.98038 ], [ 10.06036, 44.02939 ], [ 10.01879, 44.04447 ] ], [ [ 10.55814, 43.62811 ], [ 10.54476, 43.51742 ], [ 10.60151, 43.48295 ], [ 10.65538, 43.51769 ], [ 10.6308, 43.57317 ], [ 10.63224, 43.59068 ], [ 10.60043, 43.62515 ], [ 10.57079, 43.64185 ], [ 10.55814, 43.62811 ] ] ] ] } },
{ "type": "Feature", "properties": { "OWNERID__R.NAME": "Zone Italie Sud", "OWNERID__R.MANAGER.NAME": "Vincenzo Lenzi", "OWNERID__R.DIVISION": "ITALIE", "PAYS__C": "Italie" }, "geometry": { "type": "MultiPolygon", "coordinates": [ [ [ [ 12.589, 38.06647 ], [ 12.64576, 38.07805 ], [ 12.71119, 38.10983 ], [ 12.81096, 38.08128 ], [ 12.90784, 38.02499 ], [ 12.97725, 38.04034 ], [ 13.02677, 38.06189 ], [ 13.0734, 38.08559 ], [ 13.08244, 38.15723 ], [ 13.14209, 38.18416 ], [ 13.22379, 38.17931 ], [ 13.23752, 38.18631 ], [ 13.25849, 38.20113 ], [ 13.31813, 38.22402 ], [ 13.36513, 38.12572 ], [ 13.4508, 38.09528 ], [ 13.48081, 38.10013 ], [ 13.53286, 38.11117 ], [ 13.53792, 38.06458 ], [ 13.5513, 38.05192 ], [ 13.60769, 38.02068 ], [ 13.66408, 37.99429 ], [ 13.82314, 37.98271 ], [ 13.91315, 38.0118 ], [ 13.9334, 38.02149 ], [ 14.10366, 38.01557 ], [ 14.18066, 38.02041 ], [ 14.18355, 38.01934 ], [ 14.27031, 38.0126 ], [ 14.32489, 38.0118 ], [ 14.33863, 38.01853 ], [ 14.38743, 38.02041 ], [ 14.553, 38.05839 ], [ 14.60867, 38.06916 ], [ 14.65566, 38.08667 ], [ 14.70518, 38.12518 ], [ 14.79122, 38.15211 ], [ 14.80966, 38.15642 ], [ 14.83677, 38.16234 ], [ 14.89063, 38.17231 ], [ 14.96401, 38.1575 ], [ 15.05619, 38.13164 ], [ 15.06957, 38.12706 ], [ 15.08728, 38.12006 ], [ 15.11945, 38.1303 ], [ 15.17079, 38.15157 ], [ 15.20947, 38.18362 ], [ 15.27309, 38.20678 ], [ 15.29297, 38.20651 ], [ 15.31864, 38.21217 ], [ 15.32767, 38.21459 ], [ 15.34105, 38.21594 ], [ 15.3537, 38.21782 ], [ 15.35659, 38.21863 ], [ 15.37105, 38.22348 ], [ 15.39311, 38.22913 ], [ 15.42022, 38.24045 ], [ 15.426, 38.24125 ], [ 15.44371, 38.24879 ], [ 15.54023, 38.30131 ], [ 15.60928, 38.27438 ], [ 15.47733, 38.05462 ], [ 15.45709, 38.039 ], [ 15.44299, 38.0258 ], [ 15.41769, 37.99537 ], [ 15.40467, 37.98325 ], [ 15.3866, 37.96386 ], [ 15.38009, 37.95713 ], [ 15.35732, 37.93127 ], [ 15.34358, 37.90973 ], [ 15.33599, 37.90542 ], [ 15.30418, 37.87552 ], [ 15.28068, 37.84267 ], [ 15.25791, 37.80712 ], [ 15.23839, 37.78826 ], [ 15.22356, 37.76833 ], [ 15.20477, 37.73736 ], [ 15.19934, 37.67192 ], [ 15.1697, 37.57443 ], [ 15.12596, 37.53457 ], [ 15.08547, 37.48044 ], [ 15.0909, 37.3587 ], [ 15.09307, 37.3447 ], [ 15.16175, 37.28922 ], [ 15.18308, 37.2157 ], [ 15.18308, 37.21085 ], [ 15.19031, 37.18769 ], [ 15.20115, 37.17826 ], [ 15.22067, 37.12952 ], [ 15.23694, 37.11551 ], [ 15.30382, 37.01479 ], [ 15.19031, 36.94773 ], [ 15.13681, 36.8769 ], [ 15.11945, 36.74466 ], [ 15.135, 36.69161 ], [ 15.07355, 36.65579 ], [ 15.00052, 36.70265 ], [ 14.89461, 36.72931 ], [ 14.8205, 36.71639 ], [ 14.76411, 36.71073 ], [ 14.59565, 36.77267 ], [ 14.52697, 36.78345 ], [ 14.46371, 36.81684 ], [ 14.43912, 36.87582 ], [ 14.38779, 36.95015 ], [ 14.33791, 37.00159 ], [ 14.24428, 37.06515 ], [ 14.11595, 37.10285 ], [ 14.03642, 37.10609 ], [ 13.90701, 37.09585 ], [ 13.83146, 37.14002 ], [ 13.66336, 37.19334 ], [ 13.55057, 37.28707 ], [ 13.48804, 37.28895 ], [ 13.41285, 37.32342 ], [ 13.30946, 37.37863 ], [ 13.29211, 37.38941 ], [ 13.26825, 37.39695 ], [ 13.20246, 37.46401 ], [ 13.0387, 37.49579 ], [ 12.99062, 37.53807 ], [ 12.89663, 37.57712 ], [ 12.76469, 37.57874 ], [ 12.65371, 37.5755 ], [ 12.58611, 37.65441 ], [ 12.51815, 37.66222 ], [ 12.47224, 37.73575 ], [ 12.42561, 37.80308 ], [ 12.48562, 37.87364 ], [ 12.47947, 37.93181 ], [ 12.49863, 37.96601 ], [ 12.50658, 37.99402 ], [ 12.53333, 38.03442 ], [ 12.589, 38.06647 ] ], [ [ 14.99432, 37.75135 ], [ 14.99431, 37.75139 ], [ 14.89569, 37.78961 ], [ 14.95245, 37.74033 ], [ 14.99432, 37.75135 ] ], [ [ 14.9943, 37.75146 ], [ 14.98606, 37.78961 ], [ 14.95498, 37.79634 ], [ 14.9943, 37.75146 ] ] ], [ [ [ 14.84689, 38.53804 ], [ 14.79881, 38.56605 ], [ 14.87111, 38.57736 ], [ 14.84689, 38.53804 ] ] ], [ [ [ 8.434002, 39.15908 ], [ 8.394238, 39.24876 ], [ 8.432918, 39.30801 ], [ 8.379417, 39.374 ], [ 8.409782, 39.44159 ], [ 8.392792, 39.44671 ], [ 8.470874, 39.60157 ], [ 8.502324, 39.71307 ], [ 8.509916, 39.73273 ], [ 8.552933, 39.82941 ], [ 8.540643, 39.88354 ], [ 8.49401, 39.90859 ], [ 8.398937, 39.90374 ], [ 8.409421, 39.99773 ], [ 8.410867, 40.01066 ], [ 8.46979, 40.06237 ], [ 8.483165, 40.07422 ], [ 8.457138, 40.17602 ], [ 8.476658, 40.25466 ], [ 8.483165, 40.27163 ], [ 8.39966, 40.40763 ], [ 8.367849, 40.49651 ], [ 8.19867, 40.67318 ], [ 8.135047, 40.73754 ], [ 8.206985, 40.85012 ], [ 8.277114, 40.86762 ], [ 8.312541, 40.84554 ], [ 8.458945, 40.81968 ], [ 8.466898, 40.81942 ], [ 8.630654, 40.8784 ], [ 8.77236, 40.91691 ], [ 8.802725, 40.93118 ], [ 8.865986, 40.98747 ], [ 8.999377, 41.10462 ], [ 9.171087, 41.17707 ], [ 9.225311, 41.25921 ], [ 9.308454, 41.19107 ], [ 9.404973, 41.15795 ], [ 9.526073, 41.15687 ], [ 9.525711, 41.0548 ], [ 9.557523, 41.00336 ], [ 9.579574, 40.95515 ], [ 9.632713, 40.88459 ], [ 9.663802, 40.85577 ], [ 9.715134, 40.75209 ], [ 9.748752, 40.66052 ], [ 9.751283, 40.61312 ], [ 9.827196, 40.52748 ], [ 9.809122, 40.47361 ], [ 9.754175, 40.38097 ], [ 9.677538, 40.33088 ], [ 9.627291, 40.22477 ], [ 9.661271, 40.13912 ], [ 9.735739, 40.0788 ], [ 9.688022, 39.98561 ], [ 9.686937, 39.94818 ], [ 9.684407, 39.86604 ], [ 9.671393, 39.79467 ], [ 9.671393, 39.75373 ], [ 9.675369, 39.72599 ], [ 9.647534, 39.64439 ], [ 9.651511, 39.63416 ], [ 9.654764, 39.61126 ], [ 9.651511, 39.54932 ], [ 9.620784, 39.41305 ], [ 9.570175, 39.23853 ], [ 9.568367, 39.15316 ], [ 9.442206, 39.12703 ], [ 9.403527, 39.14454 ], [ 9.384729, 39.16312 ], [ 9.297609, 39.21321 ], [ 9.181931, 39.21672 ], [ 9.095896, 39.21402 ], [ 9.026128, 39.158 ], [ 9.008776, 39.12138 ], [ 9.02432, 39.02012 ], [ 8.910812, 38.91562 ], [ 8.838874, 38.88061 ], [ 8.783566, 38.89838 ], [ 8.77489, 38.91535 ], [ 8.606796, 38.89273 ], [ 8.61258, 38.9579 ], [ 8.565947, 39.00665 ], [ 8.576069, 39.02523 ], [ 8.553295, 39.04624 ], [ 8.511723, 39.0624 ], [ 8.373271, 39.02335 ], [ 8.426049, 39.10845 ], [ 8.487865, 39.08879 ], [ 8.434002, 39.15908 ] ] ], [ [ [ 13.89761, 40.75128 ], [ 13.93123, 40.74616 ], [ 13.954, 40.70738 ], [ 13.89689, 40.70011 ], [ 13.88134, 40.69984 ], [ 13.877, 40.75693 ], [ 13.89761, 40.75128 ] ] ], [ [ [ 10.77612, 42.84359 ], [ 10.77178, 42.91038 ], [ 10.70635, 42.94189 ], [ 10.56356, 42.95159 ], [ 10.51693, 43.01542 ], [ 10.53898, 43.11345 ], [ 10.52813, 43.23168 ], [ 10.5115, 43.27342 ], [ 10.4627, 43.31894 ], [ 10.38137, 43.45009 ], [ 10.33039, 43.47379 ], [ 10.29894, 43.58152 ], [ 10.33799, 43.59579 ], [ 10.4092, 43.62057 ], [ 10.50897, 43.62919 ], [ 10.50102, 43.62434 ], [ 10.47897, 43.51796 ], [ 10.48439, 43.48645 ], [ 10.48981, 43.47272 ], [ 10.50174, 43.41993 ], [ 10.50897, 43.3631 ], [ 10.54006, 43.36768 ], [ 10.53211, 43.32351 ], [ 10.54838, 43.30978 ], [ 10.56175, 43.30843 ], [ 10.58199, 43.2912 ], [ 10.65718, 43.29227 ], [ 10.6843, 43.30089 ], [ 10.67201, 43.24703 ], [ 10.66297, 43.2306 ], [ 10.64923, 43.17162 ], [ 10.71502, 43.11399 ], [ 10.71755, 43.10887 ], [ 10.76382, 43.15277 ], [ 10.796, 43.16085 ], [ 10.90878, 43.15977 ], [ 10.91168, 43.16273 ], [ 10.93192, 43.23626 ], [ 10.94313, 43.24649 ], [ 10.98542, 43.28554 ], [ 10.95216, 43.30197 ], [ 11.01253, 43.37657 ], [ 11.00205, 43.40135 ], [ 10.95144, 43.45144 ], [ 11.03386, 43.54678 ], [ 11.08013, 43.51608 ], [ 11.11267, 43.49642 ], [ 11.21099, 43.48133 ], [ 11.26955, 43.5457 ], [ 11.30715, 43.51823 ], [ 11.39752, 43.54812 ], [ 11.40801, 43.56078 ], [ 11.50705, 43.5791 ], [ 11.51645, 43.59418 ], [ 11.48392, 43.62623 ], [ 11.60936, 43.68601 ], [ 11.5949, 43.71429 ], [ 11.58297, 43.76816 ], [ 11.60357, 43.78728 ], [ 11.60466, 43.81017 ], [ 11.67045, 43.87696 ], [ 11.71021, 43.8775 ], [ 11.7883, 43.84518 ], [ 11.80709, 43.82902 ], [ 11.8418, 43.80801 ], [ 11.84216, 43.80801 ], [ 11.91301, 43.79886 ], [ 11.95133, 43.78701 ], [ 11.98639, 43.76196 ], [ 12.07713, 43.74069 ], [ 12.10749, 43.75388 ], [ 12.14943, 43.83333 ], [ 12.17654, 43.81044 ], [ 12.22426, 43.8099 ], [ 12.26547, 43.84249 ], [ 12.20365, 43.91305 ], [ 12.23655, 43.91682 ], [ 12.25462, 43.91224 ], [ 12.27017, 43.92867 ], [ 12.29475, 43.92813 ], [ 12.32294, 43.96072 ], [ 12.3562, 43.94967 ], [ 12.39777, 43.96233 ], [ 12.40464, 43.9556 ], [ 12.41766, 43.89904 ], [ 12.46248, 43.89366 ], [ 12.48742, 43.89635 ], [ 12.49393, 43.91547 ], [ 12.53586, 43.89716 ], [ 12.53406, 43.8705 ], [ 12.55105, 43.86646 ], [ 12.58936, 43.88558 ], [ 12.58936, 43.86538 ], [ 12.61575, 43.84653 ], [ 12.61901, 43.84276 ], [ 12.61105, 43.83091 ], [ 12.61901, 43.82633 ], [ 12.68118, 43.82794 ], [ 12.68227, 43.85272 ], [ 12.73288, 43.86942 ], [ 12.7336, 43.86996 ], [ 12.72276, 43.881 ], [ 12.72709, 43.9117 ], [ 12.7336, 43.92975 ], [ 12.74155, 43.94106 ], [ 12.74842, 43.95291 ], [ 12.75059, 43.96853 ], [ 12.78674, 43.96449 ], [ 12.96243, 43.88154 ], [ 13.12076, 43.78216 ], [ 13.17245, 43.75011 ], [ 13.30006, 43.67228 ], [ 13.34814, 43.65127 ], [ 13.42261, 43.62057 ], [ 13.51479, 43.62434 ], [ 13.60914, 43.55917 ], [ 13.62396, 43.51554 ], [ 13.64167, 43.47406 ], [ 13.67927, 43.40431 ], [ 13.70385, 43.3491 ], [ 13.74289, 43.29416 ], [ 13.77759, 43.23437 ], [ 13.79061, 43.19909 ], [ 13.81121, 43.16327 ], [ 13.82929, 43.12691 ], [ 13.84194, 43.10321 ], [ 13.84664, 43.08005 ], [ 13.84953, 43.06659 ], [ 13.85242, 43.05447 ], [ 13.8658, 43.0103 ], [ 13.8817, 42.96263 ], [ 13.91677, 42.89449 ], [ 13.93303, 42.83794 ], [ 13.94026, 42.81424 ], [ 13.95509, 42.78165 ], [ 13.98039, 42.73991 ], [ 14.03895, 42.6548 ], [ 14.09571, 42.57886 ], [ 14.14632, 42.53065 ], [ 14.15138, 42.52553 ], [ 14.18608, 42.49402 ], [ 14.2544, 42.44501 ], [ 14.32092, 42.40488 ], [ 14.44129, 42.31223 ], [ 14.47564, 42.29042 ], [ 14.50094, 42.26456 ], [ 14.54396, 42.23548 ], [ 14.60722, 42.20451 ], [ 14.64698, 42.19212 ], [ 14.71711, 42.1703 ], [ 14.75145, 42.08062 ], [ 14.77965, 42.06985 ], [ 14.82845, 42.0475 ], [ 14.90003, 42.02137 ], [ 15.028, 41.9799 ], [ 15.13789, 41.92657 ], [ 15.22718, 41.91876 ], [ 15.32334, 41.91769 ], [ 15.45817, 41.90368 ], [ 15.61289, 41.9255 ], [ 15.65989, 41.92173 ], [ 15.73761, 41.9158 ], [ 15.81931, 41.92253 ], [ 15.93318, 41.93438 ], [ 15.98957, 41.94569 ], [ 16.09368, 41.93277 ], [ 16.17646, 41.88483 ], [ 16.16489, 41.76094 ], [ 16.03945, 41.68123 ], [ 15.93788, 41.63787 ], [ 15.89413, 41.57565 ], [ 15.92414, 41.49648 ], [ 16.02463, 41.42565 ], [ 16.20249, 41.35966 ], [ 16.35468, 41.3058 ], [ 16.46746, 41.25571 ], [ 16.54229, 41.22958 ], [ 16.64026, 41.1943 ], [ 16.73171, 41.1698 ], [ 17.0332, 41.08227 ], [ 17.1449, 41.03675 ], [ 17.25805, 40.97831 ], [ 17.38927, 40.89213 ], [ 17.51507, 40.8143 ], [ 17.67702, 40.76878 ], [ 17.80101, 40.70819 ], [ 17.99875, 40.64894 ], [ 18.04213, 40.55845 ], [ 18.07177, 40.53987 ], [ 18.09743, 40.51536 ], [ 18.1231, 40.49758 ], [ 18.14479, 40.48654 ], [ 18.30602, 40.38285 ], [ 18.37506, 40.32791 ], [ 18.44519, 40.25466 ], [ 18.52038, 40.10707 ], [ 18.48315, 40.07718 ], [ 18.43579, 40.02466 ], [ 18.41663, 39.99396 ], [ 18.4076, 39.97484 ], [ 18.40326, 39.96003 ], [ 18.39314, 39.9032 ], [ 18.39711, 39.89593 ], [ 18.39314, 39.86846 ], [ 18.39169, 39.86065 ], [ 18.36892, 39.79386 ], [ 18.31831, 39.81002 ], [ 18.2883, 39.8251 ], [ 18.26553, 39.8356 ], [ 18.18998, 39.84718 ], [ 18.08587, 39.90078 ], [ 18.04502, 39.93579 ], [ 18.02297, 39.96514 ], [ 18.01285, 39.9708 ], [ 18.00381, 40.11381 ], [ 17.99839, 40.12135 ], [ 17.91163, 40.23904 ], [ 17.76378, 40.29613 ], [ 17.61014, 40.30071 ], [ 17.5035, 40.3026 ], [ 17.46916, 40.31472 ], [ 17.43229, 40.33141 ], [ 17.38602, 40.33734 ], [ 17.34011, 40.36185 ], [ 17.2848, 40.38016 ], [ 17.25552, 40.44264 ], [ 17.12719, 40.51751 ], [ 17.0614, 40.5159 ], [ 16.99307, 40.49381 ], [ 16.90957, 40.44183 ], [ 16.86655, 40.3982 ], [ 16.82245, 40.34192 ], [ 16.77509, 40.28294 ], [ 16.73714, 40.21049 ], [ 16.68653, 40.14586 ], [ 16.66375, 40.13185 ], [ 16.64387, 40.11892 ], [ 16.60411, 40.0551 ], [ 16.60628, 40.02628 ], [ 16.62941, 39.96461 ], [ 16.57736, 39.90724 ], [ 16.57627, 39.90697 ], [ 16.51879, 39.84368 ], [ 16.48626, 39.78255 ], [ 16.52928, 39.72438 ], [ 16.52928, 39.66647 ], [ 16.6305, 39.62042 ], [ 16.77039, 39.62069 ], [ 16.81775, 39.5881 ], [ 16.83329, 39.56144 ], [ 16.86113, 39.5442 ], [ 16.90198, 39.52481 ], [ 16.9121, 39.51781 ], [ 17.0238, 39.48226 ], [ 17.05272, 39.43944 ], [ 17.09465, 39.41601 ], [ 17.11345, 39.32121 ], [ 17.11092, 39.29024 ], [ 17.14129, 39.2151 ], [ 17.10984, 39.09849 ], [ 17.16804, 38.99965 ], [ 17.09357, 38.90566 ], [ 16.98295, 38.9377 ], [ 16.89041, 38.92801 ], [ 16.87631, 38.92505 ], [ 16.82245, 38.91131 ], [ 16.79823, 38.90377 ], [ 16.70822, 38.8631 ], [ 16.6858, 38.85072 ], [ 16.60989, 38.81543 ], [ 16.58856, 38.78985 ], [ 16.57013, 38.76911 ], [ 16.55747, 38.74083 ], [ 16.54591, 38.73033 ], [ 16.53506, 38.70609 ], [ 16.55856, 38.67943 ], [ 16.55675, 38.66839 ], [ 16.55639, 38.65492 ], [ 16.55856, 38.64173 ], [ 16.56507, 38.60968 ], [ 16.56868, 38.59406 ], [ 16.57302, 38.56066 ], [ 16.57736, 38.50545 ], [ 16.58206, 38.47017 ], [ 16.57085, 38.42681 ], [ 16.56723, 38.42304 ], [ 16.54699, 38.40284 ], [ 16.51626, 38.37672 ], [ 16.48698, 38.35356 ], [ 16.44216, 38.3304 ], [ 16.35287, 38.30508 ], [ 16.32503, 38.29377 ], [ 16.31997, 38.28973 ], [ 16.28129, 38.24987 ], [ 16.23791, 38.20436 ], [ 16.23213, 38.19951 ], [ 16.22201, 38.18847 ], [ 16.19237, 38.15803 ], [ 16.16128, 38.12814 ], [ 16.15947, 38.11387 ], [ 16.13995, 38.02526 ], [ 16.12513, 37.99914 ], [ 16.11609, 37.98163 ], [ 16.0644, 37.92562 ], [ 15.97619, 37.91915 ], [ 15.89847, 37.92669 ], [ 15.83991, 37.91915 ], [ 15.80448, 37.91969 ], [ 15.7405, 37.92615 ], [ 15.69314, 37.95066 ], [ 15.64579, 37.99133 ], [ 15.63314, 38.2022 ], [ 15.68555, 38.24799 ], [ 15.77014, 38.26765 ], [ 15.82509, 38.31478 ], [ 15.83051, 38.34063 ], [ 15.87642, 38.42196 ], [ 15.90823, 38.4726 ], [ 15.91835, 38.50491 ], [ 15.91872, 38.5068 ], [ 15.90751, 38.56093 ], [ 15.8569, 38.60321 ], [ 15.871, 38.67243 ], [ 15.90643, 38.68051 ], [ 15.96246, 38.70313 ], [ 15.99355, 38.7236 ], [ 16.07344, 38.71983 ], [ 16.14682, 38.72414 ], [ 16.21333, 38.81059 ], [ 16.22092, 38.84883 ], [ 16.21514, 38.92612 ], [ 16.14754, 38.96895 ], [ 16.12404, 39.00396 ], [ 16.09404, 39.04866 ], [ 16.06512, 39.15235 ], [ 16.06295, 39.18386 ], [ 16.05861, 39.22076 ], [ 16.05608, 39.25873 ], [ 16.05391, 39.28054 ], [ 16.04271, 39.32363 ], [ 16.0203, 39.38477 ], [ 15.99174, 39.44698 ], [ 15.97402, 39.46745 ], [ 15.948, 39.49654 ], [ 15.89016, 39.54043 ], [ 15.86449, 39.5776 ], [ 15.86088, 39.59349 ], [ 15.83196, 39.66782 ], [ 15.80846, 39.73057 ], [ 15.80448, 39.74377 ], [ 15.7987, 39.76154 ], [ 15.77737, 39.8321 ], [ 15.78858, 39.869 ], [ 15.76797, 39.90778 ], [ 15.75604, 39.92367 ], [ 15.64543, 40.04298 ], [ 15.61398, 40.06991 ], [ 15.5753, 40.07799 ], [ 15.53264, 40.07395 ], [ 15.50191, 40.06075 ], [ 15.44552, 40.01955 ], [ 15.30924, 40.03194 ], [ 15.27634, 40.06668 ], [ 15.19284, 40.12458 ], [ 15.14621, 40.16013 ], [ 15.09451, 40.1736 ], [ 15.02004, 40.19137 ], [ 15.00631, 40.20699 ], [ 14.95389, 40.23258 ], [ 14.95353, 40.33788 ], [ 15.00089, 40.37935 ], [ 14.94305, 40.48196 ], [ 14.9069, 40.54687 ], [ 14.88268, 40.57999 ], [ 14.8393, 40.62605 ], [ 14.73483, 40.67048 ], [ 14.70988, 40.65702 ], [ 14.70193, 40.64598 ], [ 14.63361, 40.64786 ], [ 14.62493, 40.64786 ], [ 14.61011, 40.63628 ], [ 14.60794, 40.63439 ], [ 14.57685, 40.61824 ], [ 14.55444, 40.61366 ], [ 14.53926, 40.61339 ], [ 14.5107, 40.62012 ], [ 14.46877, 40.62012 ], [ 14.44852, 40.61797 ], [ 14.41888, 40.61043 ], [ 14.40695, 40.59938 ], [ 14.39285, 40.59481 ], [ 14.34694, 40.62712 ], [ 14.38779, 40.63332 ], [ 14.39972, 40.6379 ], [ 14.40551, 40.64355 ], [ 14.40804, 40.65163 ], [ 14.44202, 40.68341 ], [ 14.47057, 40.72892 ], [ 14.42539, 40.75155 ], [ 14.35707, 40.79141 ], [ 14.33827, 40.80433 ], [ 14.31983, 40.8213 ], [ 14.15933, 40.81699 ], [ 14.07763, 40.82534 ], [ 14.06498, 40.78871 ], [ 14.04437, 40.81107 ], [ 14.04763, 40.84527 ], [ 14.04076, 40.87786 ], [ 14.03245, 40.89886 ], [ 13.90231, 41.07527 ], [ 13.85351, 41.1399 ], [ 13.83977, 41.15687 ], [ 13.81374, 41.18461 ], [ 13.76205, 41.22258 ], [ 13.68903, 41.24655 ], [ 13.57949, 41.2444 ], [ 13.48478, 41.23793 ], [ 13.47538, 41.23982 ], [ 13.39622, 41.27348 ], [ 13.28126, 41.29718 ], [ 13.13522, 41.2584 ], [ 13.03581, 41.24736 ], [ 12.91543, 41.38363 ], [ 12.77336, 41.41622 ], [ 12.63708, 41.45123 ], [ 12.55285, 41.53391 ], [ 12.48779, 41.59585 ], [ 12.41585, 41.65564 ], [ 12.25607, 41.74613 ], [ 12.12448, 41.9263 ], [ 12.04315, 41.96185 ], [ 12.00736, 41.99202 ], [ 11.8183, 42.05719 ], [ 11.73371, 42.15818 ], [ 11.63249, 42.29554 ], [ 11.45211, 42.38226 ], [ 11.31582, 42.40569 ], [ 11.20991, 42.40865 ], [ 11.15677, 42.43396 ], [ 11.19039, 42.51745 ], [ 11.10471, 42.5969 ], [ 11.08375, 42.62787 ], [ 10.91168, 42.75337 ], [ 10.78443, 42.77573 ], [ 10.77612, 42.84359 ] ] ], [ [ [ 10.1182, 42.74718 ], [ 10.16989, 42.80616 ], [ 10.22882, 42.78946 ], [ 10.26135, 42.79781 ], [ 10.36293, 42.81047 ], [ 10.40775, 42.87133 ], [ 10.4439, 42.84683 ], [ 10.42041, 42.77276 ], [ 10.38606, 42.76038 ], [ 10.26533, 42.74475 ], [ 10.1182, 42.74718 ] ] ], [ [ [ 10.60043, 43.62515 ], [ 10.63224, 43.59068 ], [ 10.6308, 43.57317 ], [ 10.65538, 43.51769 ], [ 10.60151, 43.48295 ], [ 10.54476, 43.51742 ], [ 10.55814, 43.62811 ], [ 10.57079, 43.64185 ], [ 10.60043, 43.62515 ] ] ], [ [ [ 7.656431, 45.5047 ], [ 7.782953, 45.52517 ], [ 7.809704, 45.48747 ], [ 7.801751, 45.47427 ], [ 7.778615, 45.47346 ], [ 7.711378, 45.49124 ], [ 7.693664, 45.50147 ], [ 7.673059, 45.50309 ], [ 7.656431, 45.5047 ] ] ], [ [ [ 7.676674, 45.5521 ], [ 7.618835, 45.52679 ], [ 7.609075, 45.56288 ], [ 7.634018, 45.57069 ], [ 7.676674, 45.5521 ] ] ], [ [ [ 7.703063, 45.55561 ], [ 7.730175, 45.55076 ], [ 7.729091, 45.54833 ], [ 7.703063, 45.55561 ] ] ] ] } }
]
}
